,StationCode,Station,StationName,Latitude,Longitude,HUC12,HUCName,County,State,Organization
0,AACC.AR,,AR,38.94934,-76.46491,20600040203,Severn River-Frontal Chesapeake Bay,Anne Arundel County,MD,1
1,AACC.BA,,BA,38.96223,-76.47287,20600040203,Severn River-Frontal Chesapeake Bay,Anne Arundel County,MD,1
2,AACC.BF,,BF,39.10079,-76.53123000000002,20600040101,Cattail Creek-Magothy River,Anne Arundel County,MD,1
3,AACC.BO,,BO,39.08204,-76.61105,20600040202,Round Bay-Severn River,Anne Arundel County,MD,1
4,AACC.CMH,,CMH,39.072179999999996,-76.58113,20600040202,Round Bay-Severn River,Anne Arundel County,MD,1
5,AACC.CMS,,CMS,39.07318,-76.58629,20600040202,Round Bay-Severn River,Anne Arundel County,MD,1
6,AACC.CY,,CY,39.072340000000004,-76.52624,20600040101,Cattail Creek-Magothy River,Anne Arundel County,MD,1
7,AACC.HH,,HH,39.048120000000004,-76.56798,20600040202,Round Bay-Severn River,Anne Arundel County,MD,1
8,AACC.LC,,LC,39.00277,-76.50905999999998,20600040203,Severn River-Frontal Chesapeake Bay,Anne Arundel County,MD,1
9,AACC.LO,,LO,39.06629,-76.49624,20600040102,Sillery Bay-Frontal Chesapeake Bay,Anne Arundel County,MD,1
10,AACC.LP,,LP,39.001,-76.51032,20600040203,Severn River-Frontal Chesapeake Bay,Anne Arundel County,MD,1
11,AACC.LPT,,LPT,39.04889,-76.56472,20600040202,Round Bay-Severn River,Anne Arundel County,MD,1
12,AACC.MB,,MB,39.07009,-76.51555,20600040101,Cattail Creek-Magothy River,Anne Arundel County,MD,1
13,AACC.OH,,OH,38.92649,-76.46361,20600040203,Severn River-Frontal Chesapeake Bay,Anne Arundel County,MD,1
14,AACC.SA,,SA,39.01715,-76.54195,20600040203,Severn River-Frontal Chesapeake Bay,Anne Arundel County,MD,1
15,ACB.19,,19,37.1796,-76.4425,20801080101,Poquoson River-Frontal Chesapeake Bay,York County,VA,1
16,ACB.35,,35,37.5246,-77.4686,20802050607,Little Westham Creek-James River,Richmond city,VA,1
17,ACB.53,,53,37.5604,-77.5453,20802050607,Little Westham Creek-James River,Richmond city,VA,1
18,ACB.6,,6,38.3473,-77.5822,20801040101,Motts Run Reservoir-Rappahannock River,Stafford County,VA,1
19,ACB.A1,,A1,38.470659999999995,-77.38551700000002,20700110203,Lower Aquia Creek,Stafford County,VA,1
20,ACB.A2,,A2,38.457625,-77.382565,20700110203,Lower Aquia Creek,Stafford County,VA,1
21,ACB.A3,,A3,38.445705,-77.379232,20700110203,Lower Aquia Creek,Stafford County,VA,1
22,ACB.A4,,A4,38.464202,-77.38735770000002,20700110203,Lower Aquia Creek,Stafford County,VA,1
23,ACB.A5,,A5,38.0279,-77.2329,20801050401,Jacks Creek-Maracossic Creek,Caroline County,VA,1
24,ACB.AIMCRE0.5,,AIMCRE0.5,38.126737,-76.6548027,20700110803,Lower Machodoc Creek-Frontal Potomac River,Westmoreland County,VA,1
25,ACB.ALBCRE0.5,,ALBCRE0.5,37.497009999999996,-77.43906,20802060101,Almond Creek-James River,Richmond city,VA,1
26,ACB.ARF,,ARF,37.30734,-78.389257,20802070206,Bad Luck Branch-Appomattox River,Cumberland County,VA,1
27,ACB.B1,,B1,38.4478,-77.39237,20700110203,Lower Aquia Creek,Stafford County,VA,1
28,ACB.B2,,B2,38.44778,-77.38811,20700110203,Lower Aquia Creek,Stafford County,VA,1
29,ACB.B3,,B3,38.449459999999995,-77.38381,20700110203,Lower Aquia Creek,Stafford County,VA,1
30,ACB.B4,,B4,38.450829999999996,-77.383403,20700110203,Lower Aquia Creek,Stafford County,VA,1
31,ACB.BLACRE0.6,,BLACRE0.6,37.407041299999996,-76.6481492,20801070104,Skimino Creek-York River,Gloucester County,VA,1
32,ACB.BR1,,BR1,37.9824,-79.55068,20802020108,Guys Run-Calfpasture River,Rockbridge County,VA,1
33,ACB.BUFCRE10,,BUFCRE10,37.7425,-79.5066,20802020505,Buffalo Creek,Rockbridge County,VA,1
34,ACB.BUFCRE12.5,,BUFCRE12.5,37.7568,-79.5431,20802020504,Colliers Creek,Rockbridge County,VA,1
35,ACB.BURPON1,,BURPON1,37.4824901,-76.4582484,20801020404,North River,Gloucester County,VA,1
36,ACB.BUSMILCRE,,BUSMILCRE,37.8750643,-76.441372,20801020102,Great Wicomico River,Northumberland County,VA,1
37,ACB.CB1,,CB1,37.512609999999995,-77.48008,20802050607,Little Westham Creek-James River,Richmond city,VA,1
38,ACB.CB2,,CB2,37.5139,-77.48058,20802050607,Little Westham Creek-James River,Richmond city,VA,1
39,ACB.CEDCRE2.4,,CEDCRE2.4,37.630703600000004,-79.5481695,20802011504,Spring Gap Creek-Cedar Creek,Rockbridge County,VA,1
40,ACB.CGC01,,CGC01,37.8828,-79.3859,20802020301,Alone Mill Creek-Maury River,Rockbridge County,VA,1
41,ACB.CHIRIV22,,CHIRIV22,37.6802779,-77.4550473,20802060402,Stony Run-Chickahominy River,Henrico County,VA,1
42,ACB.CM1,,CM1,38.343494,-77.1682215,20700110303,Chotank Creek-Potomac River,King George County,VA,1
43,ACB.CM2,,CM2,38.343805100000004,-77.170389,20700110303,Chotank Creek-Potomac River,King George County,VA,1
44,ACB.COARIV3.0,,COARIV3.0,37.9581,-76.48241999999998,20700110805,Coan River,Northumberland County,VA,1
45,ACB.COLCRE0.5,,COLCRE0.5,37.7626,-79.54902,20802020504,Colliers Creek,Rockbridge County,VA,1
46,ACB.COVRUN0.1,,COVRUN0.1,37.908069399999995,-79.4265595,20802020203,Taylor Branch-Maury River,Rockbridge County,VA,1
47,ACB.CP1,,CP1,38.08138889,-76.84611111,20801040401,The Big Swamp-Cat Point Creek,Richmond County,VA,1
48,ACB.CP2,,CP2,38.03916667,-76.8275,20801040402,Menokin Bay-Cat Point Creek,Richmond County,VA,1
49,ACB.CP4,,CP4,37.98388889,-76.80944444,20801040402,Menokin Bay-Cat Point Creek,Richmond County,VA,1
50,ACB.CP8,,CP8,37.97444444,-76.85388889,20801040402,Menokin Bay-Cat Point Creek,Richmond County,VA,1
51,ACB.CR1,,CR1,37.6251,-77.4942,20802060403,Upham Brook,Henrico County,VA,1
52,ACB.CR21,,CR21,37.419912,-76.97541,20802060506,Big Swamp-Chickahominy River,New Kent County,VA,1
53,ACB.CR5,,CR5,37.6057,-77.5455,20802060403,Upham Brook,Henrico County,VA,1
54,ACB.CRAMILCRE,,CRAMILCRE,37.87844000000001,-76.4399417,20801020102,Great Wicomico River,Northumberland County,VA,1
55,ACB.DC1,,DC1,37.6179,-77.98983299999998,20802050405,Sallee Creek-Deep Creek,Powhatan County,VA,1
56,ACB.DEEPRUN_FA,,DEEPRUN_FA,38.2518,-77.4911,20801040102,Hazel Run-Rappahannock River,Spotsylvania County,VA,1
57,ACB.DR,,DR,37.5605011,-76.57189941,20801020301,Carvers Creek-Piankatank River,Gloucester County,VA,1
58,ACB.DR3,,DR3,37.63527778,-76.69638889,20801020204,Meggs Bay-Dragon Swamp,King and Queen County,VA,1
59,ACB.DR6,,DR6,37.69638889,-76.72722222,20801020203,Timber Branch Swamp-Dragon Swamp,Middlesex County,VA,1
60,ACB.DR8,,DR8,37.55611111,-76.53305556,20801020301,Carvers Creek-Piankatank River,Gloucester County,VA,1
61,ACB.DR9,,DR9,37.58555556,-76.60305556,20801020204,Meggs Bay-Dragon Swamp,Gloucester County,VA,1
62,ACB.EASRIV2.75,,EASRIV2.75,37.4029071,-76.34639150000002,20801020405,East River,Mathews County,VA,1
63,ACB.ENGRUN,,ENGRUN,38.3318,-77.5071,20801040102,Hazel Run-Rappahannock River,Stafford County,VA,1
64,ACB.FOR-Kinsey1,,FOR-Kinsey1,38.422793,-78.374048,20801030701,Garth Run-Rapidan River,Madison County,VA,1
65,ACB.FOR-Kinsey2,,FOR-Kinsey2,38.423120000000004,-78.37226700000002,20801030701,Garth Run-Rapidan River,Madison County,VA,1
66,ACB.FOR1,,FOR1,38.2898,-77.4816,20801040102,Hazel Run-Rappahannock River,Fredericksburg city,VA,1
67,ACB.FOR11,,FOR11,38.27315,-77.53598000000002,20801040102,Hazel Run-Rappahannock River,Spotsylvania County,VA,1
68,ACB.FOR12,,FOR12,38.26762772,-77.50488281,20801040102,Hazel Run-Rappahannock River,Spotsylvania County,VA,1
69,ACB.FOR13,,FOR13,38.28559113,-77.49178314,20801040102,Hazel Run-Rappahannock River,Fredericksburg city,VA,1
70,ACB.FOR14,,FOR14,38.20449829,-77.45950317,20801050105,Poni River,Spotsylvania County,VA,1
71,ACB.FOR16,,FOR16,38.348611,-77.580556,20801040101,Motts Run Reservoir-Rappahannock River,Stafford County,VA,1
72,ACB.FOR17,,FOR17,38.313611,-77.54055600000002,20801040101,Motts Run Reservoir-Rappahannock River,Spotsylvania County,VA,1
73,ACB.FOR18,,FOR18,38.321111,-77.488889,20801040102,Hazel Run-Rappahannock River,Fredericksburg city,VA,1
74,ACB.FOR2,,FOR2,38.3188,-77.4859,20801040102,Hazel Run-Rappahannock River,Fredericksburg city,VA,1
75,ACB.FOR4,,FOR4,38.1902,-77.20100000000002,20801040203,Goldenvale Creek-Rappahannock River,King George County,VA,1
76,ACB.FOR6,,FOR6,38.29230118,-77.45659637,20801040102,Hazel Run-Rappahannock River,Fredericksburg city,VA,1
77,ACB.FOR7,,FOR7,38.29109955,-77.50589752,20801040102,Hazel Run-Rappahannock River,Fredericksburg city,VA,1
78,ACB.FOR8,,FOR8,38.2566,-77.4158,20801040102,Hazel Run-Rappahannock River,Stafford County,VA,1
79,ACB.FOR9,,FOR9,38.30410004,-77.49259949,20801040102,Hazel Run-Rappahannock River,Fredericksburg city,VA,1
80,ACB.GC,,GC,37.46921,-77.45798,20802060102,Falling Creek,Richmond city,VA,1
81,ACB.GIL02,,GIL02,37.5278854,-77.39284520000002,20802060101,Almond Creek-James River,Richmond city,VA,1
82,ACB.GIL03,,GIL03,37.522728,-77.416358,20802060101,Almond Creek-James River,Richmond city,VA,1
83,ACB.GP1,,GP1,36.9952984,-76.5824258,20802060904,Jones Creek-Pagan River,Isle of Wight County,VA,1
84,ACB.GP3,,GP3,37.9824,-79.23625,20700050701,Stony Run-South River,Augusta County,VA,1
85,ACB.GW1,,GW1,37.87110901,-76.43110657,20801020102,Great Wicomico River,Northumberland County,VA,1
86,ACB.HALCRE0.72,,HALCRE0.72,37.2408,-76.6916,20802060801,College Creek,James City County,VA,1
87,ACB.HALCRE3,,HALCRE3,37.239145,-76.664161,20802060801,College Creek,James City County,VA,1
88,ACB.HAYCRE1.45,,HAYCRE1.45,37.911234,-79.40021,20802020205,Hays Creek,Rockbridge County,VA,1
89,ACB.HAYCRE2.45,,HAYCRE2.45,37.93414,-79.34192,20802020205,Hays Creek,Rockbridge County,VA,1
90,ACB.HAYCRE3.5,,HAYCRE3.5,37.925606,-79.387617,20802020205,Hays Creek,Rockbridge County,VA,1
91,ACB.HAZRUN,,HAZRUN,38.27963,-77.49982800000002,20801040102,Hazel Run-Rappahannock River,Spotsylvania County,VA,1
92,ACB.HC,,HC,37.598659999999995,-77.4263,20802060501,Powhite Creek-Chickahominy River,Henrico County,VA,1
93,ACB.HGC,,HGC,37.64886,-77.49663000000002,20802060403,Upham Brook,Henrico County,VA,1
94,ACB.HR2,,HR2,36.85599899,-76.29419708,20802080206,Elizabeth River,Norfolk city,VA,1
95,ACB.HSC01,,HSC01,37.598659999999995,-77.4263,20802060501,Powhite Creek-Chickahominy River,Henrico County,VA,1
96,ACB.JOR1,,JOR1,37.597255,-77.473902,20802060403,Upham Brook,Richmond city,VA,1
97,ACB.JP,,JP,38.363890500000004,-77.1422058,20700110303,Chotank Creek-Potomac River,King George County,VA,1
98,ACB.JRB,,JRB,37.6244,-77.9831,20802050403,Picketts Creek Reservoir-James River,Powhatan County,VA,1
99,ACB.JRRC,,JRRC,37.52577,-77.42113,20802060101,Almond Creek-James River,Richmond city,VA,1
100,ACB.JRTP,,JRTP,37.6652,-77.886667,20802050504,Mohawk Creek-James River,Goochland County,VA,1
101,ACB.LILTOT,,LILTOT,37.9262344,-76.71997990000001,20801040501,Little Totuskey Creek,Richmond County,VA,1
102,ACB.LMC,,LMC,38.11827,-76.635814,20700110803,Lower Machodoc Creek-Frontal Potomac River,Westmoreland County,VA,1
103,ACB.LWC,,LWC,37.56807,-77.53628,20802050607,Little Westham Creek-James River,Henrico County,VA,1
104,ACB.MANCAN,,MANCAN,37.525859999999994,-77.43108000000002,20802050607,Little Westham Creek-James River,Richmond city,VA,1
105,ACB.MAT3,,MAT3,37.9080349,-77.2992656,20801050303,Union Swamp-Mattaponi River,Caroline County,VA,1
106,ACB.MATCRE3.9,,MATCRE3.9,38.2047463,-77.00086429999998,20700110603,Mattox Creek,Westmoreland County,VA,1
107,ACB.MB,,MB,37.6707494,-77.5477697,20802060401,Grassy Swamp Creek-Chickahominy River,Henrico County,VA,1
108,ACB.MILCRE2.5,,MILCRE2.5,37.791107200000006,-76.3313772,20801020104,Dividing Creek-Frontal Chesapeake Bay,Northumberland County,VA,1
109,ACB.MILCRE3.65,,MILCRE3.65,37.246109999999994,-76.75265999999998,20802060704,Lower Chippokes Creek-James River,James City County,VA,1
110,ACB.MILCRE3.9,,MILCRE3.9,37.8001956,-76.3507398,20801020104,Dividing Creek-Frontal Chesapeake Bay,Northumberland County,VA,1
111,ACB.MJBC,,MJBC,37.389117999999996,-79.199409,20802030304,Blackwater Creek,Lynchburg city,VA,1
112,ACB.MJIC,,MJIC,37.419603,-79.223732,20802030303,Cheese Creek-Ivy Creek,Lynchburg city,VA,1
113,ACB.MJJC,,MJJC,37.46872800000001,-79.210095,20802030301,Judith Creek-James River,Bedford County,VA,1
114,ACB.MJTR,,MJTR,37.63453,-78.90417,20802030701,Brown Creek-Tye River,Nelson County,VA,1
115,ACB.MM,,MM,38.34766370000001,-77.1578686,20700110303,Chotank Creek-Potomac River,King George County,VA,1
116,ACB.MOFCRE0.6,,MOFCRE0.6,37.9508,-79.29895,20802020205,Hays Creek,Rockbridge County,VA,1
117,ACB.MOURUN1,,MOURUN1,37.874,-79.37899999999998,20802020301,Alone Mill Creek-Maury River,Rockbridge County,VA,1
118,ACB.MUD1,,MUD1,38.258294,-77.339088,20801040104,Muddy Creek-Rappahannock River,King George County,VA,1
119,ACB.Maymont,,Maymont,37.53619000000001,-77.4788,20802050607,Little Westham Creek-James River,Richmond city,VA,1
120,ACB.NORRUN0.7,,NORRUN0.7,37.6218822,-77.46325999999998,20802060403,Upham Brook,Henrico County,VA,1
121,ACB.NR1,,NR1,37.6377352,-77.47743129999998,20802060403,Upham Brook,Henrico County,VA,1
122,ACB.Newtown,,Newtown,37.282,-76.7413,20802060702,Powhatan Creek,James City County,VA,1
123,ACB.PAMRIV82,,PAMRIV82,37.788696,-77.370077,20801060901,Mechumps Creek-Pamunkey River,Caroline County,VA,1
124,ACB.PC,,PC,37.596892,-77.46910600000002,20802060403,Upham Brook,Richmond city,VA,1
125,ACB.PC2,,PC2,38.5357,-76.5288,20600040403,Parkers Creek-Frontal Chesapeake Bay,Calvert County,MD,1
126,ACB.PEC001,,PEC001,38.5388,-78.3483,20801030901,Rose River-Robinson River,Madison County,VA,1
127,ACB.PEC002,,PEC002,38.5253,-78.3494,20801030901,Rose River-Robinson River,Madison County,VA,1
128,ACB.PEC003,,PEC003,38.8066,-78.1419,20801030102,Jordan River,Rappahannock County,VA,1
129,ACB.PEC004,,PEC004,38.6941,-78.2588,20801030301,Piney River-Thornton River,Rappahannock County,VA,1
130,ACB.PEC005,,PEC005,38.8045,-78.1439,20801030102,Jordan River,Rappahannock County,VA,1
131,ACB.PEC006,,PEC006,38.7851,-78.1525,20801030102,Jordan River,Rappahannock County,VA,1
132,ACB.POC01,,POC01,37.464742,-77.499082,20802060102,Falling Creek,Chesterfield County,VA,1
133,ACB.PRC01,,PRC01,37.59697,-77.46902,20802060403,Upham Brook,Richmond city,VA,1
134,ACB.PRC02,,PRC02,37.59365,-77.46709,20802060403,Upham Brook,Richmond city,VA,1
135,ACB.PRC03,,PRC03,37.594395899999995,-77.4640283,20802060403,Upham Brook,Richmond city,VA,1
136,ACB.PSC,,PSC,37.46815,-77.50624,20802060102,Falling Creek,Richmond city,VA,1
137,ACB.PSC01,,PSC01,37.465033,-77.50010400000002,20802060102,Falling Creek,Richmond city,VA,1
138,ACB.RB6,,RB6,38.327,-77.5822,20801040101,Motts Run Reservoir-Rappahannock River,Spotsylvania County,VA,1
139,ACB.RC1,,RC1,37.51467,-77.47456,20802050607,Little Westham Creek-James River,Richmond city,VA,1
140,ACB.RC3,,RC3,37.5147872,-77.48392709999997,20802050607,Little Westham Creek-James River,Richmond city,VA,1
141,ACB.RC4,,RC4,37.506859999999996,-77.5043,20802050607,Little Westham Creek-James River,Richmond city,VA,1
142,ACB.RRMC,,RRMC,37.694915,-76.499748,20801040703,Taylor Creek-Corrotoman River,Lancaster County,VA,1
143,ACB.RSC01,,RSC01,37.55893,-77.53839,20802050607,Little Westham Creek-James River,Richmond city,VA,1
144,ACB.RSC02,,RSC02,37.543154,-77.54554399999998,20802050607,Little Westham Creek-James River,Richmond city,VA,1
145,ACB.Rapidan1,,Rapidan1,38.3591,-77.6354,20801031105,Hazel Run-Rapidan River,Spotsylvania County,VA,1
146,ACB.SA1,,SA1,37.7598,-77.61261999999998,20801060304,Cedar Creek-South Anna River,Hanover County,VA,1
147,ACB.SA2,,SA2,37.821667,-77.84527800000002,20801060204,Owens Creek-South Anna River,Louisa County,VA,1
148,ACB.SOUANNRIV1,,SOUANNRIV1,37.7998768,-77.4235976,20801060304,Cedar Creek-South Anna River,Hanover County,VA,1
149,ACB.SOURIV14,,SOURIV14,37.89281,-79.2131,20802020402,Upper South River,Rockbridge County,VA,1
150,ACB.STN01,,STN01,37.52828,-77.39319,20802060101,Almond Creek-James River,Richmond city,VA,1
151,ACB.STORUN0.04,,STORUN0.04,37.6848629,-77.44921070000002,20802060402,Stony Run-Chickahominy River,Hanover County,VA,1
152,ACB.STORUN6.2,,STORUN6.2,37.75357,-77.48935999999998,20802060402,Stony Run-Chickahominy River,Hanover County,VA,1
153,ACB.TAY2,,TAY2,37.7645,-77.64133000000002,20801060301,Taylors Creek,Hanover County,VA,1
154,ACB.TAY3,,TAY3,37.771770000000004,-77.65819,20801060301,Taylors Creek,Hanover County,VA,1
155,ACB.TB,,TB,37.62339,-77.47886,20802060403,Upham Brook,Henrico County,VA,1
156,ACB.TOT1,,TOT1,37.9129344,-76.6573787,20801040502,Totuskey Creek,Richmond County,VA,1
157,ACB.TOT2,,TOT2,37.9260343,-76.7090797,20801040502,Totuskey Creek,Richmond County,VA,1
158,ACB.TOT3,,TOT3,37.9236345,-76.72067990000002,20801040502,Totuskey Creek,Richmond County,VA,1
159,ACB.TOT4,,TOT4,37.886035799999995,-76.7362806,20801040502,Totuskey Creek,Richmond County,VA,1
160,ACB.TOT5,,TOT5,37.8798472222,-76.7395638888,20801040502,Totuskey Creek,Richmond County,VA,1
161,ACB.TOTC1,,TOTC1,37.65274,-77.31035,20801060904,Totopotomoy Creek,Hanover County,VA,1
162,ACB.UB1,,UB1,37.6146,-77.4567,20802060403,Upham Brook,Henrico County,VA,1
163,ACB.UB2,,UB2,37.59832,-77.46803,20802060403,Upham Brook,Richmond city,VA,1
164,ACB.UB3,,UB3,37.60303,-77.45975,20802060403,Upham Brook,Henrico County,VA,1
165,ACB.UB4,,UB4,37.59963,-77.48640999999998,20802060403,Upham Brook,Henrico County,VA,1
166,ACB.UNTSC,,UNTSC,37.4927111,-77.7768892,20802070901,Swift Creek Reservoir-Swift Creek,Powhatan County,VA,1
167,ACB.UT1,,UT1,37.514829999999996,-77.48533,20802050607,Little Westham Creek-James River,Richmond city,VA,1
168,ACB.WC1,,WC1,37.4923795,-76.3098561,20801020303,Milford Haven-Frontal Chesapeake Bay,Mathews County,VA,1
169,ACB.WILCRE1.5,,WILCRE1.5,37.36905,-76.48522,20801020403,Ware River,Gloucester County,VA,1
170,ACB.WINHAR,,WINHAR,37.3904139,-76.27521879999998,20801020406,Winter Harbor-Frontal Chesapeake Bay,Mathews County,VA,1
171,ACB.WOOCRE1.6,,WOOCRE1.6,37.784765500000006,-79.4499301,20802020303,Mill Creek-Maury River,Lexington city,VA,1
172,ACB.YORRIV21.5,,YORRIV21.5,37.4066902,-76.6599295,20801070104,Skimino Creek-York River,Gloucester County,VA,1
173,ACB.YORRIV7.2,,YORRIV7.2,37.2452068,-76.5026,20801070204,Sarah Creek-York River,Gloucester County,VA,1
174,ACWA.ANT0.2,,ANT0.2,39.417211,-77.74194,20700041009,Sharmans Branch-Antietam Creek,Washington County,MD,1
175,ACWA.ANT20A,,ANT20A,39.5383399,-77.70958909999997,20700041009,Sharmans Branch-Antietam Creek,Washington County,MD,1
176,ACWA.ANT20B,,ANT20B,39.537648,-77.709906,20700041009,Sharmans Branch-Antietam Creek,Washington County,MD,1
177,ACWA.ANT40,,ANT40,39.715333,-77.606724,20700041006,Antietam Creek,Washington County,MD,1
178,ACWA.BEA0.1,,BEA0.1,39.53479,-77.70855,20700041007,Beaver Creek,Washington County,MD,1
179,ACWA.BEA8.0B,,BEA8.0B,39.5832821,-77.64433829999999,20700041007,Beaver Creek,Washington County,MD,1
180,ACWA.BRC2.0,,BRC2.0,39.581375,-77.610609,20700041007,Beaver Creek,Washington County,MD,1
181,ACWA.LAC0.4-N,,LAC0.4-N,39.688547,-77.591957,20700041004,Little Antietam Creek,Washington County,MD,1
182,ACWA.LAC4.4-N,,LAC4.4-N,39.664381,-77.5361,20700041004,Little Antietam Creek,Washington County,MD,1
183,ACWA.LAC4.7-N,,LAC4.7-N,39.646363,-77.529613,20700041004,Little Antietam Creek,Washington County,MD,1
184,ACWA.LAC5.0-N,,LAC5.0-N,39.663071,-77.516278,20700041004,Little Antietam Creek,Washington County,MD,1
185,ACWA.LAN0.1,,LAN0.1,39.57151500000001,-77.68935400000002,20700041009,Sharmans Branch-Antietam Creek,Washington County,MD,1
186,ACWA.LBC2.1,,LBC2.1,39.556826,-77.647929,20700041007,Beaver Creek,Washington County,MD,1
187,ACWA.MAR0.0,,MAR0.0,39.649828,-77.688806,20700041009,Sharmans Branch-Antietam Creek,Washington County,MD,1
188,ACWA.SHA00,,SHA00,39.429621999999995,-77.73328199999997,20700041009,Sharmans Branch-Antietam Creek,Washington County,MD,1
189,ARF.Aberdeen,,Aberdeen,38.947317,-76.519136,20600040302,Beards Creek-South River,Anne Arundel County,MD,1
190,ARF.Almshouse,,Almshouse,38.939947,-76.54674399999998,20600040302,Beards Creek-South River,Anne Arundel County,MD,1
191,ARF.Beards,,Beards,38.938778000000006,-76.580722,20600040302,Beards Creek-South River,Anne Arundel County,MD,1
192,ARF.Broad,,Broad,38.972871999999995,-76.57615799999998,20600040302,Beards Creek-South River,Anne Arundel County,MD,1
193,ARF.Church,,Church,38.9639,-76.5381,20600040302,Beards Creek-South River,Anne Arundel County,MD,1
194,ARF.Crab,,Crab,38.956828,-76.532547,20600040302,Beards Creek-South River,Anne Arundel County,MD,1
195,ARF.Duvall,,Duvall,38.930017,-76.4835,20600040302,Beards Creek-South River,Anne Arundel County,MD,1
196,ARF.Gingerville,,Gingerville,38.960333,-76.556067,20600040302,Beards Creek-South River,Anne Arundel County,MD,1
197,ARF.Glebe,,Glebe,38.927347,-76.545839,20600040302,Beards Creek-South River,Anne Arundel County,MD,1
198,ARF.Harness,,Harness,38.937,-76.510894,20600040302,Beards Creek-South River,Anne Arundel County,MD,1
199,ARF.LittleAberdeen,,Little Aberdeen,38.947403,-76.527272,20600040302,Beards Creek-South River,Anne Arundel County,MD,1
200,ARF.MS1,,MS1,38.895678000000004,-76.473597,20600010000,Upper Chesapeake Bay,Anne Arundel County,MD,1
201,ARF.MS1A,,MS1A,38.919578,-76.500936,20600040302,Beards Creek-South River,Anne Arundel County,MD,1
202,ARF.MS1B,,MS1B,38.929831,-76.518374,20600040302,Beards Creek-South River,Anne Arundel County,MD,1
203,ARF.MS2,,MS2,38.949213,-76.546948,20600040302,Beards Creek-South River,Anne Arundel County,MD,1
204,ARF.MS2a,,MS2a,38.953185,-76.562178,20600040302,Beards Creek-South River,Anne Arundel County,MD,1
205,ARF.MS4,,MS4,38.962661,-76.593797,20600040302,Beards Creek-South River,Anne Arundel County,MD,1
206,ARF.MS5,,MS5,38.97503,-76.6032,20600040302,Beards Creek-South River,Anne Arundel County,MD,1
207,ARF.Pocahontas,,Pocahontas,38.922622,-76.527222,20600040302,Beards Creek-South River,Anne Arundel County,MD,1
208,ARF.Selby,,Selby,38.909378000000004,-76.507692,20600040302,Beards Creek-South River,Anne Arundel County,MD,1
209,ARF.Warehouse,,Warehouse,38.941705999999996,-76.55815,20600040302,Beards Creek-South River,Anne Arundel County,MD,1
210,ARK.AR.1,,AR.1,38.9116,-76.9546,20700100204,Lower Anacostia River,District of Columbia,DC,1
211,ARK.AR.2,,AR.2,38.9098,-76.9618,20700100204,Lower Anacostia River,District of Columbia,DC,1
212,ARK.AR.3,,AR.3,38.8939,-76.9655,20700100204,Lower Anacostia River,District of Columbia,DC,1
213,ARK.AR.4,,AR.4,38.8799,-76.9709,20700100204,Lower Anacostia River,District of Columbia,DC,1
214,ARK.AR.5,,AR.5,38.87278,-77.0006,20700100204,Lower Anacostia River,District of Columbia,DC,1
215,ARK.AR.6,,AR.6,38.86535,-77.0102,20700100204,Lower Anacostia River,District of Columbia,DC,1
216,ARK.AR.7,,AR.7,38.8774,-77.0246,20700100103,Pimmit Run-Potomac River,District of Columbia,DC,1
217,ARK.BWP.1,,BWP.1,38.934309999999996,-76.9388,20700100204,Lower Anacostia River,Prince George's County,MD,1
218,ARK.LBC.1,,LBC.1,38.91916,-76.90566,20700100204,Lower Anacostia River,Prince George's County,MD,1
219,ARK.NEB.1,,NEB.1,38.97623,-76.91932,20700100203,Northeast Branch Anacostia River,Prince George's County,MD,1
220,ARK.NWB.1,,NWB.1,38.98231,-76.96376,20700100201,Northwest Branch Anacostia River,Prince George's County,MD,1
221,ARK.PR.1,,PR.1,38.92586,-77.0951,20700100103,Pimmit Run-Potomac River,District of Columbia,DC,1
222,ARK.PR.2,,PR.2,38.9187,-77.1031,20700100103,Pimmit Run-Potomac River,District of Columbia,DC,1
223,ARK.PR.3,,PR.3,38.91583,-77.08306,20700100103,Pimmit Run-Potomac River,District of Columbia,DC,1
224,ARK.PR.4,,PR.4,38.904309999999995,-77.07193000000002,20700100103,Pimmit Run-Potomac River,District of Columbia,DC,1
225,ARK.PR.5,,PR.5,38.900079999999996,-77.05842,20700100103,Pimmit Run-Potomac River,District of Columbia,DC,1
226,ARK.PR.6,,PR.6,38.88495,-77.0355,20700100103,Pimmit Run-Potomac River,District of Columbia,DC,1
227,ARK.PR.7,,PR.7,38.87637,-77.04671,20700100103,Pimmit Run-Potomac River,District of Columbia,DC,1
228,ARK.RC.1,,RC.1,38.9832,-77.0407,20700100102,Lower Rock Creek,District of Columbia,DC,1
229,ARK.RC.2,,RC.2,38.97634,-77.0522,20700100102,Lower Rock Creek,District of Columbia,DC,1
230,ARK.RC.3,,RC.3,38.95748,-77.06218,20700100102,Lower Rock Creek,District of Columbia,DC,1
231,ARK.RC.4,,RC.4,38.9466,-77.05575,20700100102,Lower Rock Creek,District of Columbia,DC,1
232,ARK.RC.5,,RC.5,38.938309999999994,-77.05258,20700100102,Lower Rock Creek,District of Columbia,DC,1
233,ARK.RC.6,,RC.6,38.933370000000004,-77.05024,20700100102,Lower Rock Creek,District of Columbia,DC,1
234,ARK.RC.7,,RC.7,38.92176,-77.06026999999997,20700100102,Lower Rock Creek,District of Columbia,DC,1
235,ARK.RC.8,,RC.8,38.9089,-77.0507,20700100102,Lower Rock Creek,District of Columbia,DC,1
236,ARK.SC.1,,SC.1,38.997479999999996,-77.00981,20700100201,Northwest Branch Anacostia River,Montgomery County,MD,1
237,ARK.SC.2,,SC.2,38.98484000000001,-77.00277,20700100201,Northwest Branch Anacostia River,Montgomery County,MD,1
238,ARK.WB.1,,WB.1,38.891529999999996,-76.91490999999998,20700100204,Lower Anacostia River,District of Columbia,DC,1
239,AWA.AS,,AS,39.805725,-77.574917,20700041003,West Branch Antietam Creek,Franklin County,PA,1
240,AWA.ATAS,,ATAS,39.788233,-77.487814,20700041002,East Branch Antietam Creek,Franklin County,PA,1
241,AWA.B,,B,39.765053,-77.516044,20700041002,East Branch Antietam Creek,Franklin County,PA,1
242,AWA.BF,,BF,39.831244,-77.57087800000002,20700041003,West Branch Antietam Creek,Franklin County,PA,1
243,AWA.BP,,BP,39.724967,-77.588817,20700041002,East Branch Antietam Creek,Franklin County,PA,1
244,AWA.BR,,BR,39.75468,-77.505228,20700041002,East Branch Antietam Creek,Franklin County,PA,1
245,AWA.BSTP,,BSTP,39.727579999999996,-77.59079799999998,20700041002,East Branch Antietam Creek,Franklin County,PA,1
246,AWA.BV,,BV,39.720703,-77.500192,20700041001,Red Run,Franklin County,PA,1
247,AWA.CR,,CR,39.72352,-77.723515,20700040806,Rockdale Run-Conococheague Creek,Franklin County,PA,1
248,AWA.EBM,,EBM,39.72422,-77.60472,20700041002,East Branch Antietam Creek,Franklin County,PA,1
249,AWA.EBS,,EBS,39.839690000000004,-77.44278,20700041002,East Branch Antietam Creek,Adams County,PA,1
250,AWA.FP,,FP,39.725989,-77.59383100000002,20700041002,East Branch Antietam Creek,Franklin County,PA,1
251,AWA.GP,,GP,39.731671999999996,-77.540817,20700041001,Red Run,Franklin County,PA,1
252,AWA.H,,He,39.734246999999996,-77.54056899999998,20700041001,Red Run,Franklin County,PA,1
253,AWA.HB,,HB,39.810403,-77.576394,20700041003,West Branch Antietam Creek,Franklin County,PA,1
254,AWA.IBR,,IBR,39.724880999999996,-77.60512800000002,20700041003,West Branch Antietam Creek,Franklin County,PA,1
255,AWA.MASP,,MASP,39.839708,-77.537533,20700041003,West Branch Antietam Creek,Franklin County,PA,1
256,AWA.MGC,,MGC,39.736090000000004,-77.58821,20700041002,East Branch Antietam Creek,Franklin County,PA,1
257,AWA.MR,,MR,39.741172,-77.491586,20700041001,Red Run,Franklin County,PA,1
258,AWA.MRR,,MRR,39.737619,-77.568983,20700041002,East Branch Antietam Creek,Franklin County,PA,1
259,AWA.MS,,MS,39.73007,-77.517138,20700041001,Red Run,Franklin County,PA,1
260,AWA.ND1,,ND1,39.786453,-77.602325,20700041003,West Branch Antietam Creek,Franklin County,PA,1
261,AWA.ND1d,,ND1d,39.786453,-77.602325,20700041003,West Branch Antietam Creek,Franklin County,PA,1
262,AWA.ND2,,ND2,39.787735999999995,-77.603375,20700041003,West Branch Antietam Creek,Franklin County,PA,1
263,AWA.ND2u,,ND2u,39.787735999999995,-77.603375,20700041003,West Branch Antietam Creek,Franklin County,PA,1
264,AWA.OCP,,OCP,39.751283,-77.601036,20700041003,West Branch Antietam Creek,Franklin County,PA,1
265,AWA.PC,,PC,39.77282,-77.58844,20700041003,West Branch Antietam Creek,Franklin County,PA,1
266,AWA.R,,Re,39.745025,-77.559425,20700041002,East Branch Antietam Creek,Franklin County,PA,1
267,AWA.RFT,,RFT,39.741023,-77.564073,20700041002,East Branch Antietam Creek,Franklin County,PA,1
268,AWA.RR1,,RR1,39.739406,-77.481092,20700041001,Red Run,Franklin County,PA,1
269,AWA.RR2,,RR2,39.74160300000001,-77.491469,20700041001,Red Run,Franklin County,PA,1
270,AWA.RRP,,RRP,39.740386,-77.519908,20700041001,Red Run,Franklin County,PA,1
271,AWA.RSR,,RSR,39.7242,-77.559148,20700041001,Red Run,Franklin County,PA,1
272,AWA.SR,,SR,39.75165,-77.55234,20700041002,East Branch Antietam Creek,Franklin County,PA,1
273,AWA.TRS,,TRS,39.764094,-77.607036,20700041003,West Branch Antietam Creek,Franklin County,PA,1
274,AWA.WASD,,WASD,39.737858,-77.569172,20700041002,East Branch Antietam Creek,Franklin County,PA,1
275,AWA.WASDT1,,WASDT1,39.74861,-77.5693,20700041002,East Branch Antietam Creek,Franklin County,PA,1
276,AWA.WBS,,WBS,39.85335300000001,-77.517319,20700041003,West Branch Antietam Creek,Franklin County,PA,1
277,AWA.WTMA,,WTMA,39.727578,-77.59079799999998,20700041002,East Branch Antietam Creek,Franklin County,PA,1
278,BCVM.BENCRE7.92,,BENCRE7.92,41.928043,-76.69906999999998,20501050601,Upper Bentley Creek,Bradford County,PA,1
279,BCVM.BROCRE1.89,,BROCRE1.89,41.803619,-76.55763,20501060106,Browns Creek,Bradford County,PA,1
280,BCVM.CAYCRE2.41,,CAYCRE2.41,42.008606,-76.52664,20501030605,Lower Cayuta Creek,Tioga County,NY,1
281,BCVM.CAYCRE2.59,,CAYCRE2.59,42.01129,-76.52637299999998,20501030605,Lower Cayuta Creek,Tioga County,NY,1
282,BCVM.SATCRE3.02,,SATCRE3.02,41.9518,-76.46995,20501030707,Satterlee Creek-Susquehanna River,Bradford County,PA,1
283,BCVM.TUTCRE2.03,,TUTCRE2.03,41.980927,-76.57009000000002,20501050607,Dry Brook-Chemung River,Bradford County,PA,1
284,BCVM.WOLCRE1.92,,WOLCRE1.92,41.920029,-76.55004,20501050608,Wolcott Creek-Chemung River,Bradford County,PA,1
285,BCWA.M1,,M1,40.939139000000004,-77.229472,20502061005,Buffalo Creek,Union County,PA,1
286,BCWA.M2,,M2,40.939721999999996,-77.225944,20502061005,Buffalo Creek,Union County,PA,1
287,BCWA.M3,,M3,40.944472,-77.200889,20502061005,Buffalo Creek,Union County,PA,1
288,BCWA.M4,,M4,40.920694,-77.15775,20502061005,Buffalo Creek,Union County,PA,1
289,BCWA.M5,,M5,40.91725,-77.091444,20502061005,Buffalo Creek,Union County,PA,1
290,BCWA.M6,,M6,40.930667,-77.040361,20502061005,Buffalo Creek,Union County,PA,1
291,BCWA.M7,,M7,40.97658300000001,-76.978639,20502061005,Buffalo Creek,Union County,PA,1
292,BCWA.M8,,M8,40.985611,-76.93230600000003,20502061005,Buffalo Creek,Union County,PA,1
293,BCWA.M9,,M9,40.970083,-76.88338900000002,20502061005,Buffalo Creek,Union County,PA,1
294,BCWA.T1,,T1,40.934056,-77.047083,20502061001,North Branch Buffalo Creek,Union County,PA,1
295,BCWA.T2A1,,T2A1,40.921917,-77.00255600000001,20502061005,Buffalo Creek,Union County,PA,1
296,BCWA.T2A2,,T2A2,40.925833000000004,-77.017556,20502061005,Buffalo Creek,Union County,PA,1
297,BCWA.T2B,,T2B,40.93275,-77.033389,20502061005,Buffalo Creek,Union County,PA,1
298,BCWA.T3A,,T3A,40.9665,-77.04830600000003,20502061002,Rapid Run,Union County,PA,1
299,BCWA.T3B,,T3B,40.962944,-77.022417,20502061002,Rapid Run,Union County,PA,1
300,BSWA.BIGSPRCRE1.16,,BIGSPRICRE1.16,40.144224,-77.405537,20503050308,Big Spring Creek-Conodoguinet Creek,Cumberland County,PA,1
301,BSWA.BIGSPRCRE1.58,,BIGSPRICRE1.58,40.149975,-77.406898,20503050308,Big Spring Creek-Conodoguinet Creek,Cumberland County,PA,1
302,BSWA.BIGSPRCRE1.80,,BIGSPRICRE1.80,40.152978000000004,-77.407924,20503050308,Big Spring Creek-Conodoguinet Creek,Cumberland County,PA,1
303,BSWA.BIGSPRCRE1.98,,BIGSPRCRE1.98,40.154841,-77.409991,20503050308,Big Spring Creek-Conodoguinet Creek,Cumberland County,PA,1
304,BSWA.BIGSPRCRE2.48,,BIGSPRICRE2.48,40.160232,-77.406287,20503050308,Big Spring Creek-Conodoguinet Creek,Cumberland County,PA,1
305,CBF.Ana-PP,,Ana-PP,38.86972,-77.00291999999997,20700100204,Lower Anacostia River,District of Columbia,DC,1
306,CBF.BmoreCanton,,BmoreCanton,39.274409999999996,-76.57444,20600031203,Northwest Harbor-Patapsco River,Baltimore city,MD,1
307,CCCD.BIGSPRCRE1.23,,BIGSPRCRE1.23,40.174463,-77.395054,20503050308,Big Spring Creek-Conodoguinet Creek,Cumberland County,PA,1
308,CCCD.BIGSPRCRE4.69,,BIGSPRCRE4.69,40.129762,-77.40758000000002,20503050308,Big Spring Creek-Conodoguinet Creek,Cumberland County,PA,1
309,CCCD.BRARUN0.01,,BRARUN0.01,40.177640999999994,-77.453873,20503050306,Three Square Hollow Run-Conodoguinet Creek,Cumberland County,PA,1
310,CCCD.BURRUN1.38,,BURRUN1.38,40.061749,-77.514999,20503050301,Thompson Creek-Burd Run,Cumberland County,PA,1
311,CCCD.CONCRE1.85,,CONCRE1.85,40.277468,-76.925578,20503050408,Sears Run-Conodoguinet Creek,Cumberland County,PA,1
312,CCCD.CONCRE11.47,,CONCRE11.47,40.241213,-76.969512,20503050408,Sears Run-Conodoguinet Creek,Cumberland County,PA,1
313,CCCD.CONCRE13.64,,CONCRE13.64,40.263776,-76.98015,20503050408,Sears Run-Conodoguinet Creek,Cumberland County,PA,1
314,CCCD.CONCRE21.95,,CONCRE21.95,40.259296,-77.040426,20503050406,Simmons Creek-Conodoguinet Creek,Cumberland County,PA,1
315,CCCD.CONCRE27.96,,CONCRE27.96,40.259792,-77.103054,20503050406,Simmons Creek-Conodoguinet Creek,Cumberland County,PA,1
316,CCCD.CONCRE32.47,,CONCRE32.47,40.235785,-77.14107,20503050406,Simmons Creek-Conodoguinet Creek,Cumberland County,PA,1
317,CCCD.CONCRE35.82,,CONCRE35.82,40.236495,-77.193667,20503050403,Wertz Run-Conodoguinet Creek,Cumberland County,PA,1
318,CCCD.CONCRE39.03,,CONCRE39.03,40.234075,-77.218027,20503050403,Wertz Run-Conodoguinet Creek,Cumberland County,PA,1
319,CCCD.CONCRE43.93,,CONCRE43.93,40.224638,-77.26029399999999,20503050403,Wertz Run-Conodoguinet Creek,Cumberland County,PA,1
320,CCCD.CONCRE44.27,,CONCRE44.27,40.221555,-77.269701,20503050403,Wertz Run-Conodoguinet Creek,Cumberland County,PA,1
321,CCCD.CONCRE5.25,,CONCRE5.25,40.27688,-76.944799,20503050408,Sears Run-Conodoguinet Creek,Cumberland County,PA,1
322,CCCD.CONCRE59.72,,CONCRE59.72,40.177355,-77.454229,20503050306,Three Square Hollow Run-Conodoguinet Creek,Cumberland County,PA,1
323,CCCD.CONCRE6.09,,CONCRE6.09,40.270672999999995,-76.95154000000002,20503050408,Sears Run-Conodoguinet Creek,Cumberland County,PA,1
324,CCCD.CONCRE79.50,,CONCRE79.50,40.068521999999994,-77.643277,20503050203,Trout Run-Conodoguinet Creek,Franklin County,PA,1
325,CCCD.ENORUN0.47,,ENORUN0.47,40.28072,-76.933674,20503050408,Sears Run-Conodoguinet Creek,Cumberland County,PA,1
326,CCCD.GRESPRCRE0.16,,GRESPRCRE 0.16,40.168065999999996,-77.455199,20503050305,Green Spring Creek,Cumberland County,PA,1
327,CCCD.HOGRUN0.98,,HOGRUN0.98,40.244428000000006,-77.03394499999997,20503050405,Hogestown Run,Cumberland County,PA,1
328,CCCD.LETSPRRUN4.77,,LETSPRRUN4.77,40.195294,-77.184267,20503050404,Letort Spring Run,Cumberland County,PA,1
329,CCCD.MIDSPRCRE0.02,,MIDSPRCRE0.02,40.10478,-77.559186,20503050302,Middle Spring Creek,Franklin County,PA,1
330,CCCD.MIDSPRCRE5.26,,MIDSPRCRE5.26,40.061807,-77.53239599999998,20503050302,Middle Spring Creek,Cumberland County,PA,1
331,CCCD.MOUROCSPRCRE0.03,,MOUROCSPRCRE0.03,40.214809,-77.299823,20503050401,Mount Rock Spring Creek,Cumberland County,PA,1
332,CCCD.TRISPRRUN0.16,,TRISPRRUN0.16,40.251672,-77.00744,20503050407,Trindle Spring Run,Cumberland County,PA,1
333,CCCD.UNTCONCRE0.06,,UNTCONCRE0.06,40.231014,-77.218649,20503050403,Wertz Run-Conodoguinet Creek,Cumberland County,PA,1
334,CCCD.UNTCONCRE2.68,,UNTCONCRE2.68,40.265907,-77.223096,20503050403,Wertz Run-Conodoguinet Creek,Cumberland County,PA,1
335,CCCD.WERRUN0.34,,WERRUN0.34,40.244658,-77.17598000000002,20503050403,Wertz Run-Conodoguinet Creek,Cumberland County,PA,1
336,CCST.FISCRE0.49,,FISCRE0.49,40.98158,-76.47238,20501070707,Stony Brook-Fishing Creek,Columbia County,PA,1
337,CCST.KITCRE5.67,,KITCRE5.67,41.300059999999995,-76.27466,20501070502,Kitchen Creek,Luzerne County,PA,1
338,CCST.LITFISCRE1.82,,LITFISCRE1.82,41.040279999999996,-76.48333000000002,20501070602,Little Fishing Creek,Columbia County,PA,1
339,CCST.MAHCRE3.03,,MAHCRE3.03,40.9828,-76.6293,20501071005,Mahoning Creek,Montour County,PA,1
340,CCSTA.CONCRE27.96,,CONCRE27.96,40.259792,-77.103054,20503050406,Simmons Creek-Conodoguinet Creek,Cumberland County,PA,1
341,CCSTA.CONCRE32.47,,CONCRE32.47,40.235785,-77.14107,20503050406,Simmons Creek-Conodoguinet Creek,Cumberland County,PA,1
342,CCSTA.CONCRE35.82,,CONCRE35.82,40.236495,-77.193667,20503050403,Wertz Run-Conodoguinet Creek,Cumberland County,PA,1
343,CCSTA.CONCRE39.03,,CONCRE39.03,40.234075,-77.218027,20503050403,Wertz Run-Conodoguinet Creek,Cumberland County,PA,1
344,CCSTA.CONCRE6.09,,CONCRE6.09,40.271876,-76.95147800000002,20503050408,Sears Run-Conodoguinet Creek,Cumberland County,PA,1
345,CCSTA.GRESPRCRE0.62,,GRESPRCRE0.62,40.168065999999996,-77.455199,20503050305,Green Spring Creek,Cumberland County,PA,1
346,CCSTA.HOGRUN0.98,,HOGRUN0.98,40.244428000000006,-77.03394499999997,20503050405,Hogestown Run,Cumberland County,PA,1
347,CCSTA.MOUCRE2.65,,MOUCRE2.65,40.106567,-77.180554,20503050503,Mountain Creek,Cumberland County,PA,1
348,CCSTA.OPOCRE0.19,,OPOCRE0.19,40.222879999999996,-77.272095,20503050403,Wertz Run-Conodoguinet Creek,Cumberland County,PA,1
349,CCSTA.UNIRUN0.64,,UNIRUN0.64,40.306327,-76.927658,20503051006,Cove Creek-Susquehanna River,Cumberland County,PA,1
350,CCSTA.YELBRECRE0.85,,YELBRECRE0.85,40.218817,-76.86286199999998,20503050505,Lower Yellow Breeches Creek,Cumberland County,PA,1
351,CCSTA.YELBRECRE13.63,,YELBRECRE13.63,40.172452,-76.913721,20503050505,Lower Yellow Breeches Creek,Cumberland County,PA,1
352,CCSTA.YELBRECRE17.65,,YELBRECRE17.65,40.16418,-76.976213,20503050505,Lower Yellow Breeches Creek,Cumberland County,PA,1
353,CCSTA.YELBRECRE32.32,,YELBRECRE32.32,40.147400299999994,-77.12339399,20503050504,Middle Yellow Breeches Creek,Cumberland County,PA,1
354,CCSTA.YELBRECRE34.93,,YELBRECRE34.93,40.1365,-77.14583,20503050504,Middle Yellow Breeches Creek,Cumberland County,PA,1
355,CCSTA.YELBRECRE36.90,,YELBRECRE36.90,40.12347000000001,-77.221977,20503050502,Upper Yellow Breeches Creek,Cumberland County,PA,1
356,CCWA.BS00.0,,BS00.0,40.185340000000004,-77.39262099999998,20503050308,Big Spring Creek-Conodoguinet Creek,Cumberland County,PA,1
357,CCWA.CONO00.1,,CONO00.1,40.270861,-76.9156,20503050408,Sears Run-Conodoguinet Creek,Cumberland County,PA,1
358,CCWA.CONO02.6,,CONO02.6,40.256489,-76.928446,20503050408,Sears Run-Conodoguinet Creek,Cumberland County,PA,1
359,CCWA.CONO06.4,,CONO06.4,40.256938,-76.94420500000003,20503050408,Sears Run-Conodoguinet Creek,Cumberland County,PA,1
360,CCWA.CONO09.5,,CONO09.5,40.251142,-76.958114,20503050408,Sears Run-Conodoguinet Creek,Cumberland County,PA,1
361,CCWA.CONO10.3,,CONO10.3,40.258352,-76.964875,20503050408,Sears Run-Conodoguinet Creek,Cumberland County,PA,1
362,CCWA.CONO13.2,,CONO13.2,40.262529,-76.978808,20503050408,Sears Run-Conodoguinet Creek,Cumberland County,PA,1
363,CCWA.CONO17.1,,CONO17.1,40.267855,-77.015436,20503050406,Simmons Creek-Conodoguinet Creek,Cumberland County,PA,1
364,CCWA.CONO27.5,,CONO27.5,40.25878400000001,-77.10283000000003,20503050406,Simmons Creek-Conodoguinet Creek,Cumberland County,PA,1
365,CCWA.CONO33.9,,CONO33.9,40.239804,-77.173815,20503050403,Wertz Run-Conodoguinet Creek,Cumberland County,PA,1
366,CCWA.CONO46.3,,CONO46.3,40.214601,-77.297451,20503050403,Wertz Run-Conodoguinet Creek,Cumberland County,PA,1
367,CCWA.CONO46.8,,CONO46.8,40.21536500000001,-77.30396999999998,20503050308,Big Spring Creek-Conodoguinet Creek,Cumberland County,PA,1
368,CCWA.CONO48.8,,CONO48.8,40.226963,-77.332296,20503050308,Big Spring Creek-Conodoguinet Creek,Cumberland County,PA,1
369,CCWA.CONO53.2,,CONO53.2,40.201869,-77.365123,20503050308,Big Spring Creek-Conodoguinet Creek,Cumberland County,PA,1
370,CCWA.CONO66.5,,CONO66.5,40.149675,-77.50721899999998,20503050306,Three Square Hollow Run-Conodoguinet Creek,Cumberland County,PA,1
371,CCWA.CONO74.5,,CONO74.5,40.076156,-77.59585200000002,20503050203,Trout Run-Conodoguinet Creek,Franklin County,PA,1
372,CCWA.CONO82.9,,CONO82.9,40.09015,-77.64789,20503050203,Trout Run-Conodoguinet Creek,Franklin County,PA,1
373,CCWA.DC00.9,,DC00.9,40.201195,-77.417339,20503050307,Doubling Gap Creek,Cumberland County,PA,1
374,CCWA.DS01.0,,DS01.0,40.027322,-77.507586,20503050302,Middle Spring Creek,Cumberland County,PA,1
375,CCWA.HR00.1,,HR00.1,40.251474,-77.02251899999997,20503050406,Simmons Creek-Conodoguinet Creek,Cumberland County,PA,1
376,CCWA.LR00.1,,LR00.1,40.227646,-77.20661,20503050403,Wertz Run-Conodoguinet Creek,Cumberland County,PA,1
377,CCWA.LTRT01.5,,LTRT01.5,40.219418,-77.155726,20503050404,Letort Spring Run,Cumberland County,PA,1
378,CCWA.LTRT04.5,,LTRT04.5,40.20152,-77.184854,20503050404,Letort Spring Run,Cumberland County,PA,1
379,CCWA.LTRT04.9,,LTRT04.9,40.187955,-77.18719399999998,20503050404,Letort Spring Run,Cumberland County,PA,1
380,CCWA.MSC02.8,,MSC02.8,40.07262,-77.537821,20503050302,Middle Spring Creek,Cumberland County,PA,1
381,CCWA.MTRK00.1,,MTRK00.1,40.211399,-77.299815,20503050401,Mount Rock Spring Creek,Cumberland County,PA,1
382,CCWA.MTRK03.9,,MTRK03.9,40.161072,-77.31519499999997,20503050401,Mount Rock Spring Creek,Cumberland County,PA,1
383,CCWA.PEN3,,PEN3,40.2597,-77.1025,20503050406,Simmons Creek-Conodoguinet Creek,Cumberland County,PA,1
384,CCWA.TRND01.0,,TRND01.0,40.209576,-77.027172,20503050407,Trindle Spring Run,Cumberland County,PA,1
385,CCWA.UN01.1,,UN01.1,40.284529,-77.101384,20503050406,Simmons Creek-Conodoguinet Creek,Cumberland County,PA,1
386,CCWA.WRTZ00.1,,WRTZ00.1,40.24172100000001,-77.17534599999998,20503050403,Wertz Run-Conodoguinet Creek,Cumberland County,PA,1
387,CS.SBC-000.35,,SBC-000.35,36.87598,-76.48317,20802080106,Bennett Creek-Nansemond River,Suffolk city,VA,1
388,CS.SNR-000.20,,SNR-000.20,36.90495,-76.45725,20802080106,Bennett Creek-Nansemond River,Suffolk city,VA,1
389,CS.SNR-001.48,,SNR-001.48,36.89079,-76.47109,20802080106,Bennett Creek-Nansemond River,Suffolk city,VA,1
390,CS.SNR-002.86,,SNR-002.86,36.88548,-76.49579,20802080106,Bennett Creek-Nansemond River,Suffolk city,VA,1
391,CS.SNR-007.88,,SNR-007.88,36.83813,-76.54807,20802080106,Bennett Creek-Nansemond River,Suffolk city,VA,1
392,CS.SNR-008.82,,SNR-008.82,36.83224000000001,-76.56174,20802080106,Bennett Creek-Nansemond River,Suffolk city,VA,1
393,CS.SNR-011.83,,SNR-011.83,36.79084,-76.56232,20802080106,Bennett Creek-Nansemond River,Suffolk city,VA,1
394,CS.SNR-013.50,,SNR-013.50,36.77901,-76.54675999999998,20802080105,Cedar Lake-Nansemond River,Suffolk city,VA,1
395,CS.SNR-015.58,,SNR-015.58,36.76229,-76.56062,20802080105,Cedar Lake-Nansemond River,Suffolk city,VA,1
396,CS.SNR-018.24,,SNR-018.24,36.74747,-76.57391,20802080105,Cedar Lake-Nansemond River,Suffolk city,VA,1
397,CS.SNR-018.82,,SNR-018.82,36.740970000000004,-76.5779,20802080105,Cedar Lake-Nansemond River,Suffolk city,VA,1
398,CS.SNR-019.27,,SNR-019.27,36.74004,-76.5843,20802080105,Cedar Lake-Nansemond River,Suffolk city,VA,1
399,CS.SNR-019.46,,SNR-019.46,36.742709999999995,-76.58527,20802080105,Cedar Lake-Nansemond River,Suffolk city,VA,1
400,CS.SSC-000.24,,SSC-000.24,36.74225,-76.57073000000003,20802080105,Cedar Lake-Nansemond River,Suffolk city,VA,1
401,CS.SWB-000.30,,SWB-000.30,36.78983,-76.56788,20802080105,Cedar Lake-Nansemond River,Suffolk city,VA,1
402,CSC.CHACRE0.5,,CHACRE0.5,38.290616,-76.84872800000002,20700110504,Charleston Creek-Wicomico River,Charles County,MD,1
403,CSC.WICRIV3.0,,WICRIV3.0,38.291746999999994,-76.846396,20700110504,Charleston Creek-Wicomico River,Charles County,MD,1
404,CSI.Baldwin Creek @ County Rd 1,,Baldwin Creek @ County Rd 1,42.0874,-76.7018,20501050604,Baldwin Creek,Chemung County,NY,1
405,CSI.Baldwin Creek @ Jenkins Rd,,Baldwin Creek @ Jenkins Rd,42.0588,-76.7357,20501050604,Baldwin Creek,Chemung County,NY,1
406,CSI.Bradley Creek Carrie Ann Dr,,Bradley Creek Carrie Ann Dr,42.1515,-76.0584,20501030105,Lower Nanticoke Creek,Broome County,NY,1
407,CSI.Bumps Creek,,Bumps Creek,42.2304,-75.5327,20501011202,Kelsey Brook,Chenango County,NY,1
408,CSI.Bumps Creek @ School Parking Lot,,Bumps Creek @ School Parking Lot,42.2307,-75.5299,20501011202,Kelsey Brook,Chenango County,NY,1
409,CSI.Canacadea Creek at Alfred Station Fire,,Canacadea Creek at Alfred Station Fire,42.2684,-77.7604,20501040103,Upper Canacadea Creek,Allegany County,NY,1
410,CSI.Canasawacta Creek @ Chan-Aldrich Rd,,Canasawacta Creek @ Chan-Aldrich Rd,42.5996,-75.6119,20501020606,Canasawacta Creek,Chenango County,NY,1
411,CSI.Candor Kelsey Rd,,Candor Kelsey Rd,42.2003,-76.3213,20501030305,Lower Catatonk Creek,Tioga County,NY,1
412,CSI.Catatonk Creek @ Halsey Valley Rd,,Catatonk Creek @ Halsey Valley Rd,42.2079,-76.4712,20501030304,Middle Catatonk Creek,Tioga County,NY,1
413,CSI.Catatonk Creek Below Miller Creek,,Catatonk Creek Below Miller Creek,42.2336,-76.4885,20501030301,Upper Catatonk Creek,Tioga County,NY,1
414,CSI.Cayuta Creek @ 224,,Cayuta Creek @ 224,42.2892,-76.7089,20501030602,Headwaters Cayuta Creek,Schuyler County,NY,1
415,CSI.Cayuta Creek @ Barton Dam,,Cayuta Creek @ Barton Dam,42.3491,-76.7355,20501030602,Headwaters Cayuta Creek,Schuyler County,NY,1
416,CSI.Cayuta Creek @ Kelley Rd,,Cayuta Creek @ Kelley Rd,42.1391,-76.5568,20501030604,Middle Cayuta Creek,Chemung County,NY,1
417,CSI.Cayuta Creek @ Stoschecks,,Cayuta Creek @ Stoschecks,42.1848,-76.56,20501030604,Middle Cayuta Creek,Chemung County,NY,1
418,CSI.Cayuta Creek @ Wyncoop Creek,,Cayuta Creek @ Wyncoop Creek,42.203,-76.5734,20501030603,Upper Cayuta Creek,Chemung County,NY,1
419,CSI.Cayuta Creek in Alpine,,Cayuta Creek in Alpine,42.3135,-76.7223,20501030602,Headwaters Cayuta Creek,Schuyler County,NY,1
420,CSI.Cayuta Creek in Lockwood,,Cayuta Creek in Lockwood,42.092,-76.5472,20501030605,Lower Cayuta Creek,Tioga County,NY,1
421,CSI.Cayuta Inlet @ Swamp Road,,Cayuta Inlet @ Swamp Road,42.3805,-76.7204,20501030602,Headwaters Cayuta Creek,Schuyler County,NY,1
422,CSI.Cayuta Public Pull Out on 224,,Cayuta Public Pull Out on 224,42.2689,-76.6825,20501030602,Headwaters Cayuta Creek,Schuyler County,NY,1
423,CSI.Cayuta in Waverly,,Cayuta in Waverly,42.0031,-76.5232,20501030605,Lower Cayuta Creek,Tioga County,NY,1
424,CSI.Chaffee Creek @ Route 13,,Chaffee Creek @ Route 13,42.3047,-76.6765,20501030601,Pony Hollow Creek,Tompkins County,NY,1
425,CSI.Choconut Creek - Weis Markets,,Choconut Creek - Weis Markets,42.0712,-76.0466,20501030204,Lower Chocohut Creek,Broome County,NY,1
426,CSI.Cook House Creek @ Rt 23,,Cook House Creek @ Rt 23,42.6044,-75.6405,20501020606,Canasawacta Creek,Chenango County,NY,1
427,CSI.Cornell Creek @ Decker Rd,,Cornell Creek @ Decker Rd,42.2052,-75.5354,20501011205,Cornell Creek-Susquehanna River,Chenango County,NY,1
428,CSI.Cutler Creek @ Dyke Rd,,Cutler Creek @ Dyke Rd,42.2011,-77.0388,20501050402,Cutler Creek-Chemung River,Steuben County,NY,1
429,CSI.Cutler Creek @ Hornby Rd,,Cutler Creek @ Hornby Rd,42.1773,-77.0661,20501050402,Cutler Creek-Chemung River,Steuben County,NY,1
430,CSI.Danby Durfee Hill,,Danby Durfee Hill,42.3304,-76.4316,20501030303,Willseyville Creek,Tompkins County,NY,1
431,CSI.Danby Michigan Hollow,,Danby Michigan Hollow,42.2971,-76.4853,20501030301,Upper Catatonk Creek,Tompkins County,NY,1
432,CSI.Danby Steam Mill Rd,,Danby Steam Mill Rd,42.3476,-76.4601,20501030303,Willseyville Creek,Tompkins County,NY,1
433,CSI.Darling Creek,,Darling Creek,42.1715,-76.5762,20501030604,Middle Cayuta Creek,Chemung County,NY,1
434,CSI.Dean Creek,,Dean Creek,42.1065,-76.541,20501030605,Lower Cayuta Creek,Tioga County,NY,1
435,CSI.E. Branch Canasawacta @ Hwy 23,,E. Branch Canasawacta @ Hwy 23,42.5902,-75.5814,20501020604,East Branch Canasawacta Creek,Chenango County,NY,1
436,CSI.E. Branch Canasawacta Creek @ Pike Hill Rd,,E. Branch Canasawacta Creek @ Pike Hill Rd,42.6162,-75.6034,20501020604,East Branch Canasawacta Creek,Chenango County,NY,1
437,CSI.E. Owego Creek - Harford Mills @ Rt. 200,,E. Owego Creek - Harford Mills @ Rt. 200,42.4109,-76.2037,20501030402,Upper East Branch Owego Creek,Cortland County,NY,1
438,CSI.E. Owego Headwaters,,E. Owego Headwaters,42.4237,-76.2043,20501030401,Headwaters East Branch Owego Creek,Cortland County,NY,1
439,CSI.East Branch Owego Creek @ HF bridge,,East Branch Owego Creek at Harford Firehall Bridge,42.428000000000004,-76.2251,20501030402,Upper East Branch Owego Creek,Cortland County,NY,1
440,CSI.East Owego Creek - Dr Knapp,,East Owego Creek - Dr Knapp,42.1935,-76.2058,20501030409,Lower East Branch Owego Creek-Owego Creek,Tioga County,NY,1
441,CSI.Fly Meadow Creek @ Georgetown PullOver,,Fly Meadow Creek @ Georgetown PullOver,42.4626,-75.5851,20501020609,Turner Creek-Fly Meadow Creek,Chenango County,NY,1
442,CSI.Fly Meadow Creek @ Kalicicki Road,,Fly Meadow Creek @ Kalicicki Road,42.483000000000004,-75.5985,20501020609,Turner Creek-Fly Meadow Creek,Chenango County,NY,1
443,CSI.Fly Meadow Creek @ Ruth's Bridge,,Fly Meadow Creek @ Ruth's Bridge,42.5316,-75.623,20501020609,Turner Creek-Fly Meadow Creek,Chenango County,NY,1
444,CSI.Fly Meadow Creek @ Tamarac Road Bridge,,Fly Meadow Creek @ Tamarac Road Bridge,42.5194,-75.6159,20501020609,Turner Creek-Fly Meadow Creek,Chenango County,NY,1
445,CSI.Fly meadow Tributary @ Old Mill Dam,,Fly meadow Tributary @ Old Mill Dam,42.5363,-75.6169,20501020609,Turner Creek-Fly Meadow Creek,Chenango County,NY,1
446,CSI.Glen Mary Candor,,Glen Mary Candor,42.1429,-76.295,20501030305,Lower Catatonk Creek,Tioga County,NY,1
447,CSI.Goldsmith Creek @ Draht Hill Rd,,Goldsmith Creek @ Draht Hill Rd,42.0966,-76.7571,20501050604,Baldwin Creek,Chemung County,NY,1
448,CSI.Guilford Creek @ Rt 8,,Guilford Creek @ Rt 8,42.3396,-75.4044,20501010909,Guilford Creek,Chenango County,NY,1
449,CSI.Guilford Lake Outlet @ Furnace Hill Rd,,Guilford Lake Outlet @ Furnace Hill Rd,42.4072,-75.4928,20501010909,Guilford Creek,Chenango County,NY,1
450,CSI.Hendy Creek @ Hendy Creek Rd,,Hendy Creek @ Hendy Creek Rd,42.076,-76.9273,20501050405,Hendy Creek-Chemung River,Chemung County,NY,1
451,CSI.Hodgmans Creek near Erwin Hollow Rd,,Hodgmans Creek near Erwin Hollow Rd,42.1811,-77.1044,20501050308,Hodgmans Creek-Cohocton River,Steuben County,NY,1
452,CSI.Hulbert Hollow Feeder,,Hulbert Hollow Feeder,42.2687,-76.5352,20501030301,Upper Catatonk Creek,Tioga County,NY,1
453,CSI.Hunts Creek @ Cortland St,,Hunts Creek @ Cortland St,42.4422,-76.0331,20501020406,Middle Tioughnioga River,Cortland County,NY,1
454,CSI.Hunts Creek @ Freetown Rd,,Hunts Creek @ Freetown Rd,42.5221,-76.0389,20501020406,Middle Tioughnioga River,Cortland County,NY,1
455,CSI.Jackson Creek @ 224,,Jackson Creek @ 224,42.2446,-76.6323,20501030603,Upper Cayuta Creek,Schuyler County,NY,1
456,CSI.Karr Valley Creek at Marvin Ln,,Karr Valley Creek at Marvin Ln,42.3164,-77.7411,20501040102,Karr Valley Creek,Allegany County,NY,1
457,CSI.Kelsey Brook @ Algerine St,,Kelsey Brook @ Algerine St,42.2404,-75.5263,20501011202,Kelsey Brook,Chenango County,NY,1
458,CSI.Kent Brook @ Rt 8,,Kent Brook @ Rt 8,42.3887,-75.4046,20501010910,Lower Unadilla River,Chenango County,NY,1
459,CSI.Langford Creek @ Railroad,,Langford Creek @ Railroad,42.19600000000001,-76.5638,20501030604,Middle Cayuta Creek,Chemung County,NY,1
460,CSI.Little York Lake Inlet,,Little York Lake Inlet,42.7109,-76.1516,20501020202,Upper Little York Lake-West Branch Tioughnioga River,Cortland County,NY,1
461,CSI.Lower Hawley Brook @ Cnty Rd 16,,Lower Hawley Brook @ Cnty Rd 16,42.6362,-75.6245,20501020604,East Branch Canasawacta Creek,Chenango County,NY,1
462,CSI.Lyon Brook Feeder @ Lyon Brook Rd,,Lyon Brook Feeder @ Lyon Brook Rd,42.4621,-75.5224,20501020610,Lyon Brook-Chenango River,Chenango County,NY,1
463,CSI.McDuffy Creek @ 224,,McDuffy Creek @ 224,42.2371,-76.6146,20501030603,Upper Cayuta Creek,Chemung County,NY,1
464,CSI.McHenry Valley Creek,,McHenry Valley Creek,42.308,-77.752,20501040101,McHenry Valley Creek,Allegany County,NY,1
465,CSI.Meads Creek @ Coon Hollow Rd,,Meads Creek @ Coon Hollow Rd,42.2902,-77.0668,20501050306,Meads Creek,Schuyler County,NY,1
466,CSI.Mid Hawley Brook @ Boos Law Road,,Mid Hawley Brook @ Boos Law Road,42.6462,-75.6226,20501020604,East Branch Canasawacta Creek,Chenango County,NY,1
467,CSI.Miller Creek @ Fisher Settlement Rd,,Miller Creek @ Fisher Settlement Rd,42.2365,-76.4853,20501030301,Upper Catatonk Creek,Tioga County,NY,1
468,CSI.Moyer Park Candor,,Moyer Park Candor,42.2275,-76.3359,20501030305,Lower Catatonk Creek,Tioga County,NY,1
469,CSI.Mudlick Creek @ Birch Creek Rd,,Mudlick Creek @ Birch Creek Rd,42.0274,-76.9727,20501050505,Mudlick Creek,Steuben County,NY,1
470,CSI.Nanticoke Creek - Carl St.,,Nanticoke Creek - Carl St.,42.1092,-76.0675,20501030105,Lower Nanticoke Creek,Broome County,NY,1
471,CSI.Nanticoke Creek - Rt 17C,,Nanticoke Creek - Rt 17C,42.0891,-76.0896,20501030105,Lower Nanticoke Creek,Broome County,NY,1
472,CSI.Newtown Creek @ 223,,Newtown Creek @ 223,42.1876,-76.7897,20501050501,North Branch Newtown Creek,Chemung County,NY,1
473,CSI.Newtown Creek @ Industrial Park Blvd,,Newtown Creek @ Industrial Park Blvd,42.1126,-76.8014,20501050503,Lower Newtown Creek,Chemung County,NY,1
474,CSI.Newtown Creek @ Railroad Bridge,,Newtown Creek @ Railroad Bridge,42.089,-76.7804,20501050503,Lower Newtown Creek,Chemung County,NY,1
475,CSI.North Bridge Halsey Valley,,North Bridge Halsey Valley,42.199,-76.4723,20501030302,South Branch Catatonk Creek,Tioga County,NY,1
476,CSI.Osborne Creek @ Rt 369,,Osborne Creek @ Rt 369,42.1685,-75.8318,20501020808,Osborne Creek,Broome County,NY,1
477,CSI.Owego Creek - Flem Bridge,,Owego Creek - Flem Bridge,42.1682,-76.2462,20501030409,Lower East Branch Owego Creek-Owego Creek,Tioga County,NY,1
478,CSI.Owen Hollow Creek @ 352,,Owen Hollow Creek @ 352,42.1325,-76.9372,20501050404,Whisky Creek-Chemung River,Chemung County,NY,1
479,CSI.Patterson Creek - Mouth,,Patterson Creek - Mouth,42.1068,-76.0141,20501030205,Patterson Creek-Susquehanna River,Broome County,NY,1
480,CSI.Patterson Creek - Source,,Patterson Creek - Source,42.1804,-76.0045,20501030205,Patterson Creek-Susquehanna River,Broome County,NY,1
481,CSI.Patterson Creek @ Dam,,Patterson Creek @ Dam,42.1258,-76.0213,20501030205,Patterson Creek-Susquehanna River,Broome County,NY,1
482,CSI.Pony Hollow Creek,,Pony Hollow Creek,42.2871,-76.6891,20501030601,Pony Hollow Creek,Tompkins County,NY,1
483,CSI.Pony Hollow Creek @ 224,,Pony Hollow Creek @ 224,42.2782,-76.6925,20501030601,Pony Hollow Creek,Schuyler County,NY,1
484,CSI.Pony Hollow Creek @ Cayuta Rd.,,Pony Hollow Creek @ Cayuta Rd.,42.29600000000001,-76.6857,20501030601,Pony Hollow Creek,Tompkins County,NY,1
485,CSI.Pony Hollow Creek @ Connecticut Hill Rd.,,Pony Hollow Creek @ Connecticut Hill Rd.,42.3178,-76.6664,20501030601,Pony Hollow Creek,Tompkins County,NY,1
486,CSI.Pony Hollow Creek @ Driveway Crossing,,Pony Hollow Creek @ Driveway Crossing,42.3088,-76.6771,20501030601,Pony Hollow Creek,Tompkins County,NY,1
487,CSI.Pony Hollow Creek Wetland @ Mazourek,,Pony Hollow Creek Wetland @ Mazourek,42.3242,-76.6479,20501030601,Pony Hollow Creek,Tompkins County,NY,1
488,CSI.Post Creek @ Ferenbaugh Campground,,Post Creek @ Ferenbaugh Campground,42.2024,-76.9916,20501050401,Post Creek,Steuben County,NY,1
489,CSI.Poysa Feeder,,Poysa Feeder,42.2483,-76.5371,20501030604,Middle Cayuta Creek,Chemung County,NY,1
490,CSI.Preston Public Spring,,Preston Public Spring,42.5607,-75.6195,20501020609,Turner Creek-Fly Meadow Creek,Chenango County,NY,1
491,CSI.Ryers Creek @ Johnson Road,,Ryers Creek @ Johnson Road,42.065,-77.107,20501040910,Outlet Tioga River,Steuben County,NY,1
492,CSI.Song Mountain Stream @ Lake Rd,,Song Mountain Stream @ Lake Rd,42.7769,-76.1534,20501020202,Upper Little York Lake-West Branch Tioughnioga River,Onondaga County,NY,1
493,CSI.South Bridge Halsey Valley,,South Bridge Halsey Valley,42.1981,-76.4724,20501030302,South Branch Catatonk Creek,Tioga County,NY,1
494,CSI.Spencer Village,,Spencer Village,42.2112,-76.4917,20501030301,Upper Catatonk Creek,Tioga County,NY,1
495,CSI.Sugar Creek - Powderhouse Rd,,Sugar Creek - Powderhouse Rd,42.0346,-76.0129,20501030204,Lower Chocohut Creek,Broome County,NY,1
496,CSI.Sulphur Springs Creek,,Sulphur Springs Creek,42.2178,-76.4445,20501030304,Middle Catatonk Creek,Tioga County,NY,1
497,CSI.Upper Hawley Brook @ Beaver Meadow Rd,,Upper Hawley Brook @ Beaver Meadow Rd,42.6616,-75.6274,20501020604,East Branch Canasawacta Creek,Chenango County,NY,1
498,CSI.Upper Langford,,Upper Langford,42.2483,-76.5358,20501030604,Middle Cayuta Creek,Tioga County,NY,1
499,CSI.Upper McDuffy Creek (Mt. Elston),,Upper McDuffy Creek (Mt. Elston),42.2563,-76.5556,20501030603,Upper Cayuta Creek,Chemung County,NY,1
500,CSI.West Owego Creek - 1st Bridge,,West Owego Creek - 1st Bridge,42.1856,-76.2471,20501030408,Lower West Branch Owego Creek,Tioga County,NY,1
501,CSI.West Owego Creek - Angler's Access,,West Owego Creek - Angler's Access,42.3424,-76.2444,20501030406,Middle West Branch Owego Creek,Tompkins County,NY,1
502,CSI.West Owego Creek - Pacific Rd,,West Owego Creek - Pacific Rd,42.3799,-76.2915,20501030405,Upper West Branch Owego Creek,Tompkins County,NY,1
503,CSI.West Owego Creek - Speedsville,,West Owego Creek - Speedsville,42.3067,-76.2503,20501030406,Middle West Branch Owego Creek,Tioga County,NY,1
504,CSI.Whiskey Creek at Riff Rd,,Whiskey Creek at Riff Rd,42.0991,-77.0398,20501050404,Whisky Creek-Chemung River,Steuben County,NY,1
505,CSI.Whiskey Creek at River Rd,,Whiskey Creek at River Rd,42.1201,-77.0217,20501050404,Whisky Creek-Chemung River,Steuben County,NY,1
506,CSI.Wilkins Brook @ Cnty Rd 17,,Wilkins Brook @ Cnty Rd 17,42.2742,-75.5427,20501011202,Kelsey Brook,Chenango County,NY,1
507,CSI.Wilseyville Creek at Gridley Crossing,,Wilseyville Creek at Gridley Crossing,42.2442,-76.3747,20501030303,Willseyville Creek,Tioga County,NY,1
508,CSI.Wylie Brook @ Rt 7 & 235,,Wylie Brook @ Rt 7 & 235,42.1907,-75.6168,20501011204,Wylie Brook,Broome County,NY,1
509,CSI.Wyncoop Creek - McDowell Rd,,Wyncoop Creek - McDowell Rd,42.1161,-76.6196,20501050606,Wynkoop Creek,Chemung County,NY,1
510,CSI.Yaleville Brook @ Cooper School House Rd,,Yaleville Brook @ Cooper School House Rd,42.3484,-75.4926,20501011203,Yaleville Brook-Susquehanna River,Chenango County,NY,1
511,CVTU.LETSPRRUN6.66,,LETSPRRUN 6.66,40.17365,-77.188767,20503050404,Letort Spring Run,Cumberland County,PA,1
512,CVTU.LETSPRRUN7.23,,LETSPRRUN 7.23,40.16865,-77.19336700000002,20503050404,Letort Spring Run,Cumberland County,PA,1
513,CVTU.UNTLETSPRRUN0.71,,UNTLETSPRRUN 0.71,40.173767,-77.177667,20503050404,Letort Spring Run,Cumberland County,PA,1
514,CWT.1.1,,1.1,37.5619,-77.6532,20802050606,East Branch Tuckahoe Creek-James River,Henrico County,VA,1
515,CWT.10,,10,37.5271,-77.5643,20802050607,Little Westham Creek-James River,Chesterfield County,VA,1
516,CWT.11,,11,37.5142,-77.5493,20802050607,Little Westham Creek-James River,Chesterfield County,VA,1
517,CWT.14,,14,37.5543,-77.604,20802050606,East Branch Tuckahoe Creek-James River,Chesterfield County,VA,1
518,CWT.15,,15,37.3306,-77.7275,20802070802,Winterpock Creek,Chesterfield County,VA,1
519,CWT.16,,16,37.4473,-77.73899999999998,20802070901,Swift Creek Reservoir-Swift Creek,Chesterfield County,VA,1
520,CWT.18,,18,37.4435,-77.5221,20802060102,Falling Creek,Chesterfield County,VA,1
521,CWT.2,,2,37.4542,-77.5804,20802060102,Falling Creek,Chesterfield County,VA,1
522,CWT.20,,20,37.491,-77.5754,20802060102,Falling Creek,Chesterfield County,VA,1
523,CWT.202,,202,37.47825,-77.63507,20802060102,Falling Creek,Chesterfield County,VA,1
524,CWT.204,,204,37.47634,-77.6302,20802060102,Falling Creek,Chesterfield County,VA,1
525,CWT.21,,21,37.44191,-77.56483,20802060102,Falling Creek,Chesterfield County,VA,1
526,CWT.23,,23,37.3837,-77.6666,20802070902,Third Branch-Swift Creek,Chesterfield County,VA,1
527,CWT.24,,24,37.3682,-77.5187,20802070902,Third Branch-Swift Creek,Chesterfield County,VA,1
528,CWT.26,,26,37.5518,-77.6633,20802050604,Bernards Creek-James River,Chesterfield County,VA,1
529,CWT.29,,29,37.4416,-77.7119,20802070901,Swift Creek Reservoir-Swift Creek,Chesterfield County,VA,1
530,CWT.3,,3,37.4917,-77.6429,20802060102,Falling Creek,Chesterfield County,VA,1
531,CWT.3.1,,3.1,37.497,-77.6451,20802060102,Falling Creek,Chesterfield County,VA,1
532,CWT.30,,30,37.4086,-77.7132,20802070901,Swift Creek Reservoir-Swift Creek,Chesterfield County,VA,1
533,CWT.31,,31,37.4914,-77.541,20802060102,Falling Creek,Chesterfield County,VA,1
534,CWT.35,,35,37.3898,-77.5759,20802070902,Third Branch-Swift Creek,Chesterfield County,VA,1
535,CWT.35.1,,35.1,37.3888,-77.5752,20802070902,Third Branch-Swift Creek,Chesterfield County,VA,1
536,CWT.4,,4,37.4098,-77.6165,20802070902,Third Branch-Swift Creek,Chesterfield County,VA,1
537,CWT.41,,41,37.4865,-77.6403,20802060102,Falling Creek,Chesterfield County,VA,1
538,CWT.42,,42,37.383767999999996,-77.49885400000002,20802060103,Proctors Creek-James River,Chesterfield County,VA,1
539,CWT.45,,45,37.4796,-77.6884,20802070901,Swift Creek Reservoir-Swift Creek,Chesterfield County,VA,1
540,CWT.47,,47,37.457,-77.60006,20802060102,Falling Creek,Chesterfield County,VA,1
541,CWT.53,,53,37.4188,-77.4826,20802060103,Proctors Creek-James River,Chesterfield County,VA,1
542,CWT.56,,56,37.3187,-77.4869,20802070904,Franks Branch-Swift Creek,Chesterfield County,VA,1
543,CWT.57,,57,37.4444,-77.6539,20802070902,Third Branch-Swift Creek,Chesterfield County,VA,1
544,CWT.58,,58,37.4694,-77.5466,20802060102,Falling Creek,Chesterfield County,VA,1
545,CWT.6,,6,37.4073,-77.6441,20802070902,Third Branch-Swift Creek,Chesterfield County,VA,1
546,CWT.60,,60,37.4877,-77.6637,20802070901,Swift Creek Reservoir-Swift Creek,Chesterfield County,VA,1
547,CWT.62,,62,37.3839,-77.4526,20802060103,Proctors Creek-James River,Chesterfield County,VA,1
548,CWT.65,,65,37.5191,-77.6849,20802050604,Bernards Creek-James River,Chesterfield County,VA,1
549,CWT.68,,68,37.5231,-77.5832,20802050607,Little Westham Creek-James River,Chesterfield County,VA,1
550,CWT.69,,69,37.3734,-77.4246,20802060103,Proctors Creek-James River,Chesterfield County,VA,1
551,CWT.7,,7 James River at Henricus,37.3749,-77.3605,20802060106,Curles Creek-James River,Chesterfield County,VA,1
552,CWT.70,,70,37.411,-77.6966,20802070901,Swift Creek Reservoir-Swift Creek,Chesterfield County,VA,1
553,CWT.71,,71,37.4234,-77.7258,20802070901,Swift Creek Reservoir-Swift Creek,Chesterfield County,VA,1
554,CWT.72,,72,37.4584,-77.6144,20802060102,Falling Creek,Chesterfield County,VA,1
555,CWT.74,,74,37.4093,-77.6433,20802070902,Third Branch-Swift Creek,Chesterfield County,VA,1
556,CWT.75,,75,37.4849,-77.6669,20802070901,Swift Creek Reservoir-Swift Creek,Chesterfield County,VA,1
557,CWT.79,,79,37.4771,-77.7126,20802070901,Swift Creek Reservoir-Swift Creek,Chesterfield County,VA,1
558,CWT.8,,8,37.3631,-77.3091,20802060106,Curles Creek-James River,Henrico County,VA,1
559,CWT.CWT76,,76,37.3915,-77.6994,20802070901,Swift Creek Reservoir-Swift Creek,Chesterfield County,VA,1
560,CWT.FCR10,,FCR10,37.45847,-77.48428,20802060102,Falling Creek,Chesterfield County,VA,1
561,CWT.FCR5,,FCR5 ,37.4591,-77.4834,20802060102,Falling Creek,Chesterfield County,VA,1
562,CWT.FCR6,,FCR6,37.4622,-77.4683,20802060102,Falling Creek,Chesterfield County,VA,1
563,CWT.FCR7,,FCR7,37.4587,-77.4777,20802060102,Falling Creek,Chesterfield County,VA,1
564,CWT.FCR8,,FCR8,37.4854,-77.4732,20802060101,Almond Creek-James River,Richmond city,VA,1
565,CWT.FCR9,,FCR9,37.459,-77.4749,20802060102,Falling Creek,Chesterfield County,VA,1
566,ENERWA.,,STR,39.5988,-75.952,20600020102,North East Creek,Cecil County,MD,1
567,ENERWA.CAL,,CAL,39.68897,-76.00768000000002,20600020102,North East Creek,Cecil County,MD,1
568,ENERWA.CTN,,CTN,39.5693,-75.9723,20600020104,North East River-Frontal Chesapeake Bay,Cecil County,MD,1
569,ENERWA.DRM,,DRM,39.6814,-75.9517,20600020101,Little North East Creek,Cecil County,MD,1
570,ENERWA.GIL,,GIL,39.6486,-75.9555,20600020102,North East Creek,Cecil County,MD,1
571,ENERWA.HSP,,HSP,39.6022,-75.9437,20600020102,North East Creek,Cecil County,MD,1
572,ENERWA.NEP,,NEP,39.5927,-75.9469,20600020104,North East River-Frontal Chesapeake Bay,Cecil County,MD,1
573,ENERWA.SMA,,SMA,39.5958,-75.9441,20600020102,North East Creek,Cecil County,MD,1
574,ENERWA.WAR,,WAR,39.6611,-75.9323,20600020101,Little North East Creek,Cecil County,MD,1
575,FB.FOBBT01,,FOB BT01,39.480194,-75.93002800000002,20600020206,Bohemia River,Cecil County,MD,1
576,FB.FOBBT02,,FOB BT02,39.480444,-75.902528,20600020206,Bohemia River,Cecil County,MD,1
577,FB.FOBBT03,,FOB BT03,39.466889,-75.873639,20600020206,Bohemia River,Cecil County,MD,1
578,FB.FOBBT04,,FOB BT04,39.454,-75.854444,20600020206,Bohemia River,Cecil County,MD,1
579,FB.FOBBT05,,FOB BT05,39.463667,-75.843528,20600020206,Bohemia River,Cecil County,MD,1
580,FB.FOBBT06,,FOB BT06,39.459333,-75.88005600000002,20600020206,Bohemia River,Cecil County,MD,1
581,GCWD.BALRUN1.44,,BALRUN1.44,41.7947,-77.30473,20502050303,Marsh Creek,Tioga County,PA,1
582,GCWD.BALRUN4.02,,BALRUN4.02,41.81431667,-77.34078000000002,20502050303,Marsh Creek,Tioga County,PA,1
583,GCWD.BEEFLARUN0.12,,BEEFLARUN0.12,41.72041667,-77.68421667,20502050102,Wetmore Run-West Branch Pine Creek,Potter County,PA,1
584,GCWD.BIGMOORUN3.70,,BIGMOORUN3.70,41.67988,-77.98769200000002,20502020401,Big Moores Run,Potter County,PA,1
585,GCWD.BIGMOORUN5.78,,BIGMOORUN5.78,41.7069,-77.97625,20502020401,Big Moores Run,Potter County,PA,1
586,GCWD.BORBRA0.39,,BORBRA0.39,41.6572,-77.959458,20502020403,Upper First Fork Sinnemahoning Creek,Potter County,PA,1
587,GCWD.CALCRE0.11,,CALCRE0.11,41.846317,-77.702733,20502050203,Genesee Forks,Potter County,PA,1
588,GCWD.COWRIV34.68,,COWRIV34.68,41.92933,-77.62858299999998,20501040801,Headwaters Cowanesque River,Potter County,PA,1
589,GCWD.CROCRE13.23,,CROCRE13.23,41.842420000000004,-77.27702,20501040606,Middle Crooked Creek,Tioga County,PA,1
590,GCWD.DODHOLRUN0.32,,DODHOLRUN0.32,41.9225,-77.62645,20501040801,Headwaters Cowanesque River,Potter County,PA,1
591,GCWD.EASFORSINCRE10.25,,EASFORSINCRE10.25,41.609215,-77.88983333,20502020405,East Fork Sinnemahoning Creek,Potter County,PA,1
592,GCWD.EASFORSINCRE11.03,,EASFORSINCRE11.03,41.61528833,-77.87932361,20502020405,East Fork Sinnemahoning Creek,Potter County,PA,1
593,GCWD.EASFORSINCRE12.53,,EASFORSINCRE12.53,41.62841306,-77.86014499999997,20502020405,East Fork Sinnemahoning Creek,Potter County,PA,1
594,GCWD.GENFOR10.77,,GENFOR10.77,41.84637,-77.7018,20502050203,Genesee Forks,Potter County,PA,1
595,GCWD.GENFOR9.31,,GENFOR9.31,41.82705,-77.70625,20502050203,Genesee Forks,Potter County,PA,1
596,GCWD.GERBRA4.32,,GERBRA4.32,41.64688889,-77.65480556,20502030102,Upper Kettle Creek,Potter County,PA,1
597,GCWD.HEIRUN0.01,,HEIRUN0.01,41.77267,-77.3549,20502050303,Marsh Creek,Tioga County,PA,1
598,GCWD.HEIRUN1.68,,HEIRUN1.68,41.75006667,-77.34817,20502050303,Marsh Creek,Tioga County,PA,1
599,GCWD.KETCRE53.66,,KETCRE53.66,41.58548333,-77.63618333,20502030102,Upper Kettle Creek,Potter County,PA,1
600,GCWD.LAURUN0.06,,LAURUN0.06,41.82895,-77.63941667,20502050205,Phoenix Run,Potter County,PA,1
601,GCWD.LICRUN0.19,,LICRUN0.19,41.74223333,-77.53732,20502050208,Lick Run-Pine Creek,Tioga County,PA,1
602,GCWD.LITKETCRE2.51,,LITKETCRE2.51,41.5874,-77.70665,20502030101,Little Kettle Creek,Potter County,PA,1
603,GCWD.LITPHORUN0.02,,LITPHORUN0.02,41.811679999999996,-77.62345,20502050205,Phoenix Run,Potter County,PA,1
604,GCWD.LONRUN4.13,,LONRUN4.13,41.79447800000001,-77.5719,20502050207,Long Run,Tioga County,PA,1
605,GCWD.MARCRE0.05,,MARCRE0.05,41.94638,-77.685317,20501040801,Headwaters Cowanesque River,Potter County,PA,1
606,GCWD.MARCRE10.99,,MARCRE10.99,41.77943,-77.31009,20502050303,Marsh Creek,Tioga County,PA,1
607,GCWD.MARCRE6.38,,MARCRE6.38,41.772838,-77.35508,20502050303,Marsh Creek,Tioga County,PA,1
608,GCWD.MILCRE1.08,,MILCRE1.08,41.905986,-77.53425,20501040803,Elklick Run-Mill Creek,Tioga County,PA,1
609,GCWD.MILCRE1.67,,MILCRE1.67,41.898775,-77.53058,20501040803,Elklick Run-Mill Creek,Tioga County,PA,1
610,GCWD.MILCRE2.32,,MILCRE2.32,41.889884,-77.5297,20501040803,Elklick Run-Mill Creek,Tioga County,PA,1
611,GCWD.MILRUN0.01,,MILRUN0.01,41.75211667,-77.50378,20502050208,Lick Run-Pine Creek,Tioga County,PA,1
612,GCWD.MOOHOLRUN0.06,,MOOHOLRUN0.06,41.91678333,-77.62438333,20501040801,Headwaters Cowanesque River,Potter County,PA,1
613,GCWD.NINRUN5.08,,NINRUN5.08,41.78516667,-77.79863889,20502050201,Ninemile Run,Potter County,PA,1
614,GCWD.NORBRACOWRIV0.04,,NORBRACOWRIV0.04,41.94142,-77.64935,20501040801,Headwaters Cowanesque River,Potter County,PA,1
615,GCWD.PAIRUN0.53,,PAIRUN0.53,41.74135,-77.49783000000002,20502050208,Lick Run-Pine Creek,Tioga County,PA,1
616,GCWD.PHORUN4.36,,PHORUN4.36,41.79868333,-77.61605,20502050205,Phoenix Run,Potter County,PA,1
617,GCWD.PHORUN7.54,,PHORUN7.54,41.8358,-77.63815,20502050205,Phoenix Run,Potter County,PA,1
618,GCWD.PHORUN7.69,,PHORUN7.69,41.83788,-77.6392,20502050205,Phoenix Run,Potter County,PA,1
619,GCWD.PINCRE64.20,,PINCRE64.20,41.75203333,-77.5038,20502050208,Lick Run-Pine Creek,Tioga County,PA,1
620,GCWD.PINCRE64.21,,PINCRE64.21,41.75211667,-77.50397,20502050208,Lick Run-Pine Creek,Tioga County,PA,1
621,GCWD.PRORUN2.55,,PRORUN2.55,41.65761333,-77.91459,20502020403,Upper First Fork Sinnemahoning Creek,Potter County,PA,1
622,GCWD.SOUBRAPINCRE0.17,,SOUBRAPINCRE0.17,41.73213300000001,-77.64145,20502050204,Johnson Brook-Pine Creek,Potter County,PA,1
623,GCWD.SUNBRA0.76,,SUNBRA0.76,41.68773333,-77.801,20502050102,Wetmore Run-West Branch Pine Creek,Potter County,PA,1
624,GCWD.UKW006,,UKW006,41.70792,-77.69363299999998,20502050102,Wetmore Run-West Branch Pine Creek,Potter County,PA,1
625,GCWD.UKW029,,UKW029,41.80456667,-77.29553,20502050303,Marsh Creek,Tioga County,PA,1
626,GCWD.UKW030,,UKW030,41.81018333,-77.28352,20502050303,Marsh Creek,Tioga County,PA,1
627,GCWD.UNTBALRUN0.23,,UNTBALRUN0.23,41.79036667,-77.30237,20502050303,Marsh Creek,Tioga County,PA,1
628,GCWD.UNTBALRUN0.95,,UNTBALRUN0.95,41.79743300000001,-77.29553,20502050303,Marsh Creek,Tioga County,PA,1
629,GCWD.UNTBALRUN2.17,,UNTBALRUN2.17,41.8107,-77.28607,20502050303,Marsh Creek,Tioga County,PA,1
630,GCWD.UNTBALRUN2.18,,UNTBALRUN2.18,41.80983333,-77.28518000000003,20502050303,Marsh Creek,Tioga County,PA,1
631,GCWD.UNTCOWRIV0.33,,UNTCOWRIV0.33,41.90963,-77.612,20501040801,Headwaters Cowanesque River,Potter County,PA,1
632,GCWD.UNTFIRFORSINCRE0.24,,UNTFIRFORSINCRE0.24,41.63119833,-78.0052,20502020403,Upper First Fork Sinnemahoning Creek,Potter County,PA,1
633,GCWD.UNTGENFOR1.05,,UNTGENFOR1.05,41.88315,-77.67865,20502050203,Genesee Forks,Potter County,PA,1
634,GCWD.UNTNORBRO0.71,,UNTNORBRO0.71,41.82465,-77.2801,20501040601,Catlin Hollow,Tioga County,PA,1
635,GCWD.UNTPHORUN0.05TEMP,,UNTPHORUN0.05TEMP,41.82511667,-77.63861667,20502050205,Phoenix Run,Potter County,PA,1
636,GCWD.WESBRAPINCRE14.64,,WESBRAPINCRE14.64,41.72995,-77.6534,20502050102,Wetmore Run-West Branch Pine Creek,Potter County,PA,1
637,GCWD.WILBOYRUN0.49,,WILBOYRUN0.49,41.61465,-77.8958,20502020405,East Fork Sinnemahoning Creek,Potter County,PA,1
638,HAWQS.AC1,,AC1,37.50667,-77.4016,20802060101,Almond Creek-James River,Henrico County,VA,1
639,HAWQS.AC2.1,,AC2,37.506684,-77.4111,20802060101,Almond Creek-James River,Henrico County,VA,1
640,HAWQS.BB1,,BB1,37.422899,-77.39541899999998,20802060103,Proctors Creek-James River,Henrico County,VA,1
641,HAWQS.BP1,,BP1,37.597203,-77.473774,20802060403,Upham Brook,Richmond city,VA,1
642,HAWQS.CL1,,CL1,37.633165999999996,-77.625863,20802050605,Tuckahoe Creek,Henrico County,VA,1
643,HAWQS.CR1,,CR1,37.68855,-77.5777,20802060401,Grassy Swamp Creek-Chickahominy River,Henrico County,VA,1
644,HAWQS.DB1,,DB1,37.40815,-77.3031,20802060104,Fourmile Creek,Henrico County,VA,1
645,HAWQS.DE1,,DE1,37.540124,-77.295608,20802060501,Powhite Creek-Chickahominy River,Henrico County,VA,1
646,HAWQS.DR1,,DR1,37.60234000000001,-77.6063,20802050605,Tuckahoe Creek,Henrico County,VA,1
647,HAWQS.DRP2,,DRP1,37.6224,-77.5863,20802050605,Tuckahoe Creek,Henrico County,VA,1
648,HAWQS.EL1,,EL1,37.670759999999994,-77.54777,20802060401,Grassy Swamp Creek-Chickahominy River,Henrico County,VA,1
649,HAWQS.EL2,,EL2,37.67443,-77.5481,20802060401,Grassy Swamp Creek-Chickahominy River,Henrico County,VA,1
650,HAWQS.HB1,,HB1,37.632049,-77.649008,20802050605,Tuckahoe Creek,Henrico County,VA,1
651,HAWQS.HC1,,HC1,37.648866,-77.496569,20802060403,Upham Brook,Henrico County,VA,1
652,HAWQS.HCLR,,HC2,37.598688,-77.4265,20802060501,Powhite Creek-Chickahominy River,Henrico County,VA,1
653,HAWQS.HCP1,,HCP1,37.555637,-77.394187,20802060101,Almond Creek-James River,Henrico County,VA,1
654,HAWQS.JB1,,JB1,37.588609999999996,-77.49361,20802060403,Upham Brook,Henrico County,VA,1
655,HAWQS.LL1,,LL1,37.630694,-77.60413199999998,20802050605,Tuckahoe Creek,Henrico County,VA,1
656,HAWQS.LWC1,,LWC1,37.56776,-77.53653,20802050607,Little Westham Creek-James River,Henrico County,VA,1
657,HAWQS.NR1,,NR1,37.63759,-77.47739,20802060403,Upham Brook,Henrico County,VA,1
658,HAWQS.NR2,,NR2,37.62927,-77.4768,20802060403,Upham Brook,Henrico County,VA,1
659,HAWQS.NRT1,,NRT1,37.630796999999994,-77.478803,20802060403,Upham Brook,Henrico County,VA,1
660,HAWQS.OL2,,OL2,37.40407800000001,-77.39102700000002,20802060103,Proctors Creek-James River,Henrico County,VA,1
661,HAWQS.OsborneLanding,,OL1,37.40235,-77.38779,20802060103,Proctors Creek-James River,Henrico County,VA,1
662,HAWQS.QM1,,QM1,37.60925,-77.5853,20802050605,Tuckahoe Creek,Henrico County,VA,1
663,HAWQS.RB1,,RB1,37.63028,-77.5138,20802060403,Upham Brook,Henrico County,VA,1
664,HAWQS.SA1,,SA1,37.802577,-77.575795,20801060304,Cedar Creek-South Anna River,Hanover County,VA,1
665,HAWQS.SHC1,,SHC1,37.569782000000004,-77.405588,20802060101,Almond Creek-James River,Henrico County,VA,1
666,HAWQS.SP1,,SP1,37.598862,-77.465087,20802060403,Upham Brook,Henrico County,VA,1
667,HAWQS.SR1,,SR1,37.54424,-77.36193,20802060101,Almond Creek-James River,Henrico County,VA,1
668,HAWQS.SR2,,SR2,37.543524,-77.388591,20802060101,Almond Creek-James River,Henrico County,VA,1
669,HAWQS.TB1,,TB1,37.60772,-77.46539,20802060403,Upham Brook,Henrico County,VA,1
670,HAWQS.TC1,,TC1,37.63404,-77.58027,20802050605,Tuckahoe Creek,Henrico County,VA,1
671,HAWQS.TCP1,,TCP1,37.62336,-77.6507,20802050605,Tuckahoe Creek,Henrico County,VA,1
672,HAWQS.TCT1,,TCT1,37.641087,-77.649435,20802050605,Tuckahoe Creek,Henrico County,VA,1
673,HAWQS.TUC1,,TUC1,37.6117,-77.6417,20802050605,Tuckahoe Creek,Henrico County,VA,1
674,HAWQS.WL1,,IL1,37.65998,-77.57763,20802060401,Grassy Swamp Creek-Chickahominy River,Henrico County,VA,1
675,HAWQS.WP1,,WP1,37.586301,-77.549689,20802050607,Little Westham Creek-James River,Henrico County,VA,1
676,JMSAWCD.B1,,B1,38.57467000000001,-77.771,20801030601,Marsh Run,Fauquier County,VA,1
677,JMSAWCD.BB1,,BB1,38.91354000000001,-77.89075,20700080502,Crooked Run-Goose Creek,Fauquier County,VA,1
678,JMSAWCD.BM1,,BM1,38.94082,-77.74233000000002,20700080701,Little River,Fauquier County,VA,1
679,JMSAWCD.Br1,,Br1,38.52912,-77.75145,20801030601,Marsh Run,Fauquier County,VA,1
680,JMSAWCD.CK1,,CK1,38.9365,-77.93529000000002,20700080502,Crooked Run-Goose Creek,Fauquier County,VA,1
681,JMSAWCD.CM1,,CM1,38.900079999999996,-77.83067,20700080504,Cromwells Run,Fauquier County,VA,1
682,JMSAWCD.CM2,,CM2,38.91903,-77.819,20700080504,Cromwells Run,Fauquier County,VA,1
683,JMSAWCD.CM3,,CM3,38.91597,-77.80181999999998,20700080504,Cromwells Run,Fauquier County,VA,1
684,JMSAWCD.CR1,,CR1,38.69928,-77.907,20801030202,Carter Run,Fauquier County,VA,1
685,JMSAWCD.CR2,,CR2,38.75895,-77.91523000000002,20801030202,Carter Run,Fauquier County,VA,1
686,JMSAWCD.CR3,,CR3,38.79938,-77.92217,20801030202,Carter Run,Fauquier County,VA,1
687,JMSAWCD.CR4,,CR4,38.74672,-77.88678,20801030202,Carter Run,Fauquier County,VA,1
688,JMSAWCD.CR5,,CR5,38.72454000000001,-77.91048,20801030202,Carter Run,Fauquier County,VA,1
689,JMSAWCD.GC1,,GC1,38.90555,-77.9975,20700080501,Mitchells Branch-Goose Creek,Fauquier County,VA,1
690,JMSAWCD.GC2,,GC2,38.90331,-77.93576999999998,20700080501,Mitchells Branch-Goose Creek,Fauquier County,VA,1
691,JMSAWCD.GC3,,GC3,38.9201,-77.87233,20700080502,Crooked Run-Goose Creek,Fauquier County,VA,1
692,JMSAWCD.GP1,,GP1,38.94361,-77.89528,20700080502,Crooked Run-Goose Creek,Fauquier County,VA,1
693,JMSAWCD.LR1,,LR1,38.89655,-77.7571,20700080701,Little River,Fauquier County,VA,1
694,JMSAWCD.LR2,,LR2,38.91472,-77.74361,20700080701,Little River,Fauquier County,VA,1
695,JMSAWCD.M1,,M1,38.56651,-77.75789,20801030601,Marsh Run,Fauquier County,VA,1
696,JMSAWCD.M2,,M2,38.50815,-77.76401,20801030601,Marsh Run,Fauquier County,VA,1
697,JMSAWCD.M3,,M3,38.47493,-77.77254,20801030601,Marsh Run,Fauquier County,VA,1
698,JMSAWCD.TR1,,TR1,38.74734,-77.98956,20801030104,Thumb Run,Fauquier County,VA,1
699,JMSAWCD.TR10,,TR10,38.80287,-77.95671,20801030104,Thumb Run,Fauquier County,VA,1
700,JMSAWCD.TR2,,TR2,38.76608,-77.97693000000002,20801030104,Thumb Run,Fauquier County,VA,1
701,JMSAWCD.TR3,,TR3,38.7941,-77.97416,20801030104,Thumb Run,Fauquier County,VA,1
702,JMSAWCD.TR4,,TR4,38.83345,-77.98868,20801030104,Thumb Run,Fauquier County,VA,1
703,JMSAWCD.TR5,,TR5,38.848079999999996,-77.9972,20801030104,Thumb Run,Fauquier County,VA,1
704,JMSAWCD.TR6,,TR6,38.866479999999996,-78.00363,20801030104,Thumb Run,Fauquier County,VA,1
705,JMSAWCD.TR7,,TR7,38.8852,-78.0251,20801030104,Thumb Run,Fauquier County,VA,1
706,JMSAWCD.TR8,,TR8,38.84394,-77.93862,20801030104,Thumb Run,Fauquier County,VA,1
707,JMSAWCD.TR9,,TR9,38.830999999999996,-77.93443,20801030104,Thumb Run,Fauquier County,VA,1
708,JRA.A01,,A01,37.316523,-77.273569,20802060201,Bailey Creek-James River,Prince George County,VA,1
709,JRA.A02,,A02,37.311187,-77.29799100000002,20802071002,Ashton Creek-Appomattox River,Hopewell city,VA,1
710,JRA.A03,,A03,37.233841999999996,-77.41256700000002,20802071001,Oldtown Creek-Appomattox River,Petersburg city,VA,1
711,JRA.A08,,A08,37.307396999999995,-78.388979,20802070206,Bad Luck Branch-Appomattox River,Cumberland County,VA,1
712,JRA.C01,,C01,37.264742,-76.87471500000002,20802060605,Morris Creek-Chickahominy River,James City County,VA,1
713,JRA.C05,,C05,37.551970000000004,-77.271146,20802060501,Powhite Creek-Chickahominy River,Henrico County,VA,1
714,JRA.J05,,J05,37.2239,-76.788613,20802060701,Broad Swamp-James River,James City County,VA,1
715,JRA.J08,,J08,37.518597,-77.416635,20802060101,Almond Creek-James River,Richmond city,VA,1
716,JRA.J10,,J10,37.530947,-77.431925,20802050607,Little Westham Creek-James River,Richmond city,VA,1
717,JRA.J20,,J20,37.534353,-77.44537199999998,20802050607,Little Westham Creek-James River,Richmond city,VA,1
718,JRA.J21,,J21,37.524390999999994,-77.469575,20802050607,Little Westham Creek-James River,Richmond city,VA,1
719,JRA.J22,,J22,37.52677,-77.47569399999998,20802050607,Little Westham Creek-James River,Richmond city,VA,1
720,JRA.J23,,J23,37.551590999999995,-77.520421,20802050607,Little Westham Creek-James River,Richmond city,VA,1
721,JRA.J24,,J24,37.56054,-77.54578199999997,20802050606,East Branch Tuckahoe Creek-James River,Henrico County,VA,1
722,JRA.J25,,J25,37.6661,-77.888811,20802050504,Mohawk Creek-James River,Goochland County,VA,1
723,JRA.J26,,J26,37.559211,-77.646665,20802050606,East Branch Tuckahoe Creek-James River,Chesterfield County,VA,1
724,JRA.J30,,J30,37.797533,-78.49055,20802031104,Little George Creek-James River,Fluvanna County,VA,1
725,JRA.J35,,J35,37.41605,-79.13675,20802030305,Opossum Creek-James River,Amherst County,VA,1
726,JRA.J40,,J40,37.529933,-79.679078,20802011501,Purgatory Creek-James River,Botetourt County,VA,1
727,JRA.M05,,M05,37.753461,-79.39231600000002,20802020501,Bennetts Run-Maury River,Rockbridge County,VA,1
728,JRA.P05,,P05,37.237651,-76.768367,20802060702,Powhatan Creek,James City County,VA,1
729,JRRC.JOHRUN0.54,,JOHRUN 0.54,39.827579,-77.87694,20700040605,Lower West Branch Conococheague Creek,Franklin County,PA,1
730,JRRC.JOHRUN2.41,,JOHRUN 2.41,39.834038,-77.898473,20700040605,Lower West Branch Conococheague Creek,Franklin County,PA,1
731,JRRC.JOHRUN2.79,,JOHRUN 2.79,39.831062,-77.902611,20700040605,Lower West Branch Conococheague Creek,Franklin County,PA,1
732,JRRC.JOHRUN3.08,,JOHRUN 3.08,39.831043,-77.906097,20700040605,Lower West Branch Conococheague Creek,Franklin County,PA,1
733,JRRC.JOHRUN4.35,,JOHRUN 4.35,39.837415,-77.923427,20700040605,Lower West Branch Conococheague Creek,Franklin County,PA,1
734,LACA.8-COL-40-LACA,,8-COL-40-LACA,37.984722,-77.766944,20801060603,Elk Creek-Lake Anna,Louisa County,VA,1
735,LACA.8-CON-33-LACA,,8-CON-33-LACA,38.063611,-77.849722,20801060601,Contrary Creek,Louisa County,VA,1
736,LACA.8-CON-5-LACA,,8-CON-5-LACA,38.063055,-77.831944,20801060601,Contrary Creek,Louisa County,VA,1
737,LACA.8-CRC-44-LACA,,8-CRC-44-LACA,38.088111,-77.90119399999998,20801060404,Christopher Creek-North Anna River,Louisa County,VA,1
738,LACA.8-DAV-39-LACA,,8-DAV-39-LACA,37.99583300000001,-77.733056,20801060603,Elk Creek-Lake Anna,Louisa County,VA,1
739,LACA.8-ELK-32-LACA,,8-ELK-32-LACA,38.033611,-77.795833,20801060603,Elk Creek-Lake Anna,Louisa County,VA,1
740,LACA.8-ELK-42-LACA,,8-ELK-42-LACA,38.025278,-77.806944,20801060603,Elk Creek-Lake Anna,Louisa County,VA,1
741,LACA.8-FWC-34-LACA,,8-FWC-34-LACA,38.053611,-77.841389,20801060601,Contrary Creek,Louisa County,VA,1
742,LACA.8-GMC-13-LACA,,8-GMC-13-LACA,38.111944,-77.942222,20801060403,Gold Mine Creek,Louisa County,VA,1
743,LACA.8-MIT-45-LACA,,8-MIT-45-LACA,38.081942,-77.8227,20801060602,Pigeon Run-Lake Anna,Louisa County,VA,1
744,LACA.8-MLN-31-LACA,,8-MLN-31-LACA,38.021389,-77.77583299999998,20801060603,Elk Creek-Lake Anna,Louisa County,VA,1
745,LACA.8-MLN-41-LACA,,8-MLN-41-LACA,38.009722,-77.788889,20801060603,Elk Creek-Lake Anna,Louisa County,VA,1
746,LACA.8-NAP-29-LACA,,8-NAP-29-LACA,38.05056,-77.78389,20801060603,Elk Creek-Lake Anna,Louisa County,VA,1
747,LACA.8-NAR-1-LACA,,8-NAR-1-LACA,38.010583000000004,-77.716111,20801060603,Elk Creek-Lake Anna,Louisa County,VA,1
748,LACA.8-NAR-12-LACA,,8-NAR-12-LACA,38.111944,-77.88638900000002,20801060404,Christopher Creek-North Anna River,Louisa County,VA,1
749,LACA.8-NAR-2-LACA,,8-NAR-2-LACA,38.031944,-77.7375,20801060603,Elk Creek-Lake Anna,Louisa County,VA,1
750,LACA.8-NAR-3-LACA,,8-NAR-3-LACA,38.053611,-77.765555,20801060603,Elk Creek-Lake Anna,Spotsylvania County,VA,1
751,LACA.8-NAR-35-LACA,,8-NAR-35-LACA,38.118611,-77.954167,20801060404,Christopher Creek-North Anna River,Orange County,VA,1
752,LACA.8-NAR-4-LACA,,8-NAR-4-LACA,38.069722,-77.7875,20801060602,Pigeon Run-Lake Anna,Louisa County,VA,1
753,LACA.8-NAR-43-LACA,,8-NAR-43-LACA,38.119444,-77.94555600000002,20801060404,Christopher Creek-North Anna River,Spotsylvania County,VA,1
754,LACA.8-NAR-47-LACA,,8-NAR-47-LACA,38.102717,-77.861664,20801060404,Christopher Creek-North Anna River,Louisa County,VA,1
755,LACA.8-NAR-6-LACA,,8-NAR-6-LACA,38.086110999999995,-77.81527700000002,20801060602,Pigeon Run-Lake Anna,Louisa County,VA,1
756,LACA.8-PGN-7-LACA,,8-PGN-7-LACA,38.096111,-77.814444,20801060602,Pigeon Run-Lake Anna,Spotsylvania County,VA,1
757,LACA.8-PLT-36-LACA,,8-PLT-36-LACA,38.143611,-77.85555500000002,20801060503,Plentiful Creek-Pamunkey Creek,Spotsylvania County,VA,1
758,LACA.8-PLT-9-LACA,,8-PLT-9-LACA,38.132222,-77.8575,20801060503,Plentiful Creek-Pamunkey Creek,Spotsylvania County,VA,1
759,LACA.8-PMC-11-LACA,,8-PMC-11-LACA,38.138889,-77.895,20801060501,Clear Creek-Pamunkey Creek,Spotsylvania County,VA,1
760,LACA.8-PMC-38-LACA,,8-PMC-38-LACA,38.141667,-77.929722,20801060501,Clear Creek-Pamunkey Creek,Orange County,VA,1
761,LACA.8-PMC-8-LACA,,8-PMC-8-LACA,38.109722,-77.83805500000003,20801060503,Plentiful Creek-Pamunkey Creek,Spotsylvania County,VA,1
762,LACA.8-RCK-30-LACA,,8-RCK-30-LACA,37.994167,-77.75416700000002,20801060603,Elk Creek-Lake Anna,Louisa County,VA,1
763,LACA.8-STU-46-LACA,,8-STU-46-LACA,38.087083,-77.783861,20801060602,Pigeon Run-Lake Anna,Spotsylvania County,VA,1
764,LACA.8-TRY-10-LACA,,8-TRY-10-LACA,38.148333,-77.892778,20801060502,Terrys Run,Spotsylvania County,VA,1
765,LACA.8-TRY-37-LACA,,8-TRY-37-LACA,38.16278,-77.90694,20801060502,Terrys Run,Orange County,VA,1
766,LACA.EX-1,,EX-1,38.11488,-78.01012,20801060402,Hickory Creek,Louisa County,VA,1
767,LACA.EX-12,,EX-12,38.096,-77.96222,20801060403,Gold Mine Creek,Louisa County,VA,1
768,LACA.EX-13,,EX-13,38.088159999999995,-77.90111,20801060404,Christopher Creek-North Anna River,Louisa County,VA,1
769,LACA.EX-2,,EX-2,38.11522,-78.00256999999998,20801060402,Hickory Creek,Louisa County,VA,1
770,LACA.EX-4,,EX-4,38.1222,-77.9847,20801060401,Mountain Run-North Anna River,Orange County,VA,1
771,LACA.EX-5,,EX-5,38.13902,-78.00667,20801060401,Mountain Run-North Anna River,Louisa County,VA,1
772,LACA.EX-9,,EX-9,38.10709,-78.03813000000002,20801060402,Hickory Creek,Louisa County,VA,1
773,LACA.P13,,P13,38.23637,-77.97138000000002,20801060501,Clear Creek-Pamunkey Creek,Orange County,VA,1
774,LACA.P7,,P7,38.226820000000004,-77.98037,20801060501,Clear Creek-Pamunkey Creek,Orange County,VA,1
775,LCCD.AnnanRun,,Annan Run,39.897857,-75.995203,20503061402,Valley Creek-East Branch Octoraro Creek,Lancaster County,PA,1
776,LCCD.BR1,,BR1,40.111389,-76.3325,20503061001,Millers Run-Little Conestoga Creek,Lancaster County,PA,1
777,LCCD.BR2,,BR2,40.116389,-76.330557,20503061001,Millers Run-Little Conestoga Creek,Lancaster County,PA,1
778,LCCD.BasinRun,,Basin Run,39.6618,-76.1474,20503061503,Basin Run-Octoraro Creek,Cecil County,MD,1
779,LCCD.BellsRunBartville,,Bells Run,39.89775,-76.05285,20503061403,Muddy Run-East Branch Octoraro Creek,Lancaster County,PA,1
780,LCCD.BellsRunRynear,,Bells Run,39.887816,-76.045817,20503061403,Muddy Run-East Branch Octoraro Creek,Lancaster County,PA,1
781,LCCD.CW1,,CW1,39.76356,-76.1679,20503061711,Conowingo Creek,Lancaster County,PA,1
782,LCCD.CW2,,CW2,39.77364,-76.1702223,20503061711,Conowingo Creek,Lancaster County,PA,1
783,LCCD.CW3,,CW3,39.8588,-76.20147,20503061711,Conowingo Creek,Lancaster County,PA,1
784,LCCD.CW4,,CW4,39.8304,-76.1892,20503061711,Conowingo Creek,Lancaster County,PA,1
785,LCCD.Climb1,,Climb1,39.920757,-76.29744000000002,20503061204,Climbers Run-Pequea Creek,Lancaster County,PA,1
786,LCCD.Climb2,,Climb2,39.918973,-76.28175,20503061204,Climbers Run-Pequea Creek,Lancaster County,PA,1
787,LCCD.Climb3,,Climb3,39.91547,-76.312588,20503061204,Climbers Run-Pequea Creek,Lancaster County,PA,1
788,LCCD.CoC2,,CoC2,40.187778,-76.17,20503060901,Little Cocalico Creek-Cocalico Creek,Lancaster County,PA,1
789,LCCD.Con2,,Con2,40.134722,-76.616667,20503061701,Conoy Creek,Lancaster County,PA,1
790,LCCD.Con3,,Con3,40.131944,-76.621944,20503061701,Conoy Creek,Lancaster County,PA,1
791,LCCD.Con4,,Con4,40.127221999999996,-76.627778,20503061701,Conoy Creek,Lancaster County,PA,1
792,LCCD.CoopersRun,,Coopers Run,39.831417,-76.02552800000002,20503061403,Muddy Run-East Branch Octoraro Creek,Lancaster County,PA,1
793,LCCD.Fish1,,Fish1,39.831478000000004,-76.245341,20503061709,Fishing Creek-Susquehanna River,Lancaster County,PA,1
794,LCCD.Fish2,,Fish2,39.82875900000001,-76.242286,20503061709,Fishing Creek-Susquehanna River,Lancaster County,PA,1
795,LCCD.Fish3,,Fish3,39.809412,-76.233583,20503061709,Fishing Creek-Susquehanna River,Lancaster County,PA,1
796,LCCD.Fish4,,Fish4,39.807606,-76.236189,20503061709,Fishing Creek-Susquehanna River,Lancaster County,PA,1
797,LCCD.Fish5,,Fish5,39.796640999999994,-76.257328,20503061709,Fishing Creek-Susquehanna River,Lancaster County,PA,1
798,LCCD.Fish6,,Fish6,39.814735,-76.237063,20503061709,Fishing Creek-Susquehanna River,Lancaster County,PA,1
799,LCCD.Fish7,,Fish7,39.851725,-76.243605,20503061709,Fishing Creek-Susquehanna River,Lancaster County,PA,1
800,LCCD.Fish8,,Fish8,39.81847,-76.244814,20503061709,Fishing Creek-Susquehanna River,Lancaster County,PA,1
801,LCCD.Fish9,,Fish9,39.83547,-76.24224,20503061709,Fishing Creek-Susquehanna River,Lancaster County,PA,1
802,LCCD.Good1,,Good1,39.94195,-76.306546,20503061204,Climbers Run-Pequea Creek,Lancaster County,PA,1
803,LCCD.HACC1,,HACC1,40.042221999999995,-76.268056,20503061107,Lower Conestoga River,Lancaster County,PA,1
804,LCCD.HANDMS1,,HANDMS1,40.0326,-76.2871,20503061107,Lower Conestoga River,Lancaster County,PA,1
805,LCCD.HC4,,HC4,40.174721999999996,-76.255278,20503060903,Hammer Creek,Lancaster County,PA,1
806,LCCD.Kelly1,,Kelly1,39.836524,-76.339021,20503061708,Muddy Run-Susquehanna River,Lancaster County,PA,1
807,LCCD.KnightsRun,,KR,39.884646000000004,-75.97873299999998,20503061403,Muddy Run-East Branch Octoraro Creek,Chester County,PA,1
808,LCCD.LC2,,LC2,39.983782,-76.377848,20503061002,West Branch Little Conestoga Creek-Little Conestoga Creek,Lancaster County,PA,1
809,LCCD.LC3,,LC3,40.03694444,-76.34333333,20503061002,West Branch Little Conestoga Creek-Little Conestoga Creek,Lancaster County,PA,1
810,LCCD.LC4,,LC4,40.036944,-76.343333,20503061002,West Branch Little Conestoga Creek-Little Conestoga Creek,Lancaster County,PA,1
811,LCCD.LC5,,LC5,40.095278,-76.336389,20503061001,Millers Run-Little Conestoga Creek,Lancaster County,PA,1
812,LCCD.LR3,,LR3,40.133611,-76.25805600000002,20503061105,Lititz Run,Lancaster County,PA,1
813,LCCD.LaR2,,LaR2,40.089721999999995,-76.29055600000002,20503061107,Lower Conestoga River,Lancaster County,PA,1
814,LCCD.LaR3,,LaR3,40.075,-76.269444,20503061107,Lower Conestoga River,Lancaster County,PA,1
815,LCCD.MILL1,,MILL1,40.085556,-76.044167,20503061106,Muddy Run-Mill Creek,Lancaster County,PA,1
816,LCCD.MILL1A,,MILL1A,40.089444,-76.06916700000002,20503061106,Muddy Run-Mill Creek,Lancaster County,PA,1
817,LCCD.MILL2,,MILL2,40.081666999999996,-76.086111,20503061106,Muddy Run-Mill Creek,Lancaster County,PA,1
818,LCCD.MILL3,,MILL3,40.076389,-76.07777800000002,20503061106,Muddy Run-Mill Creek,Lancaster County,PA,1
819,LCCD.MILL4,,MILL4,40.0625,-76.156667,20503061106,Muddy Run-Mill Creek,Lancaster County,PA,1
820,LCCD.MILL5,,MILL5,40.053611,-76.1725,20503061106,Muddy Run-Mill Creek,Lancaster County,PA,1
821,LCCD.MILL6,,MILL6,40.055833,-76.180278,20503061106,Muddy Run-Mill Creek,Lancaster County,PA,1
822,LCCD.MILL7,,MILL7,40.026389,-76.241389,20503061106,Muddy Run-Mill Creek,Lancaster County,PA,1
823,LCCD.MILLTRIB1,,MILLTRIB1,40.026944,-76.242222,20503061106,Muddy Run-Mill Creek,Lancaster County,PA,1
824,LCCD.MeetinghouseCreek,,Meetinghouse Creek,39.91252,-76.06882,20503061501,West Branch Octoraro Creek,Lancaster County,PA,1
825,LCCD.Mud1,,Mud1,40.174444,-76.08166700000002,20503061102,Muddy Creek,Lancaster County,PA,1
826,LCCD.Mud2,,Mud2,40.179167,-76.08166700000002,20503061101,Little Muddy Creek,Lancaster County,PA,1
827,LCCD.Mud3,,Mud3,40.196389,-76.056944,20503061102,Muddy Creek,Lancaster County,PA,1
828,LCCD.MuddyRun,,Muddy Run,39.831437,-76.004965,20503061403,Muddy Run-East Branch Octoraro Creek,Chester County,PA,1
829,LCCD.NickelMinesRun,,Nickel Mines Run,39.9127,-76.06865,20503061501,West Branch Octoraro Creek,Lancaster County,PA,1
830,LCCD.OctoraroHorseshoe,,Octoraro Mainstem,39.70666667,-76.11555556,20503061502,Tweed Creek-Octoraro Creek,Cecil County,MD,1
831,LCCD.OctoraroMoore,,Octoraro Mainstem,39.659946999999995,-76.152979,20503061503,Basin Run-Octoraro Creek,Cecil County,MD,1
832,LCCD.PEQ1,,PEQ1,39.895188,-76.35781,20503061204,Climbers Run-Pequea Creek,Lancaster County,PA,1
833,LCCD.PEQ2,,PEQ2,40.011944,-76.108333,20503061201,Headwaters Pequea Creek,Lancaster County,PA,1
834,LCCD.PEQ3,,PEQ3,39.934767,-76.323032,20503061204,Climbers Run-Pequea Creek,Lancaster County,PA,1
835,LCCD.PSA2,,PSA2,39.993611,-76.107778,20503061202,Eshleman Run-Pequea Creek,Lancaster County,PA,1
836,LCCD.PSA3,,PSA3,40.005556,-76.110556,20503061202,Eshleman Run-Pequea Creek,Lancaster County,PA,1
837,LCCD.RattlesnakeRun,,Rattlesnake Run,39.86197,-75.97205,20503061403,Muddy Run-East Branch Octoraro Creek,Chester County,PA,1
838,LCCD.SR1,,SR1,40.083056,-76.381389,20503061001,Millers Run-Little Conestoga Creek,Lancaster County,PA,1
839,LCCD.SR2,,SR2,40.075278000000004,-76.37,20503061001,Millers Run-Little Conestoga Creek,Lancaster County,PA,1
840,LCCD.Silv1,,Silv1,39.9447,-76.31343299999997,20503061204,Climbers Run-Pequea Creek,Lancaster County,PA,1
841,LCCD.Silv2,,Silv2,39.94755,-76.314952,20503061204,Climbers Run-Pequea Creek,Lancaster County,PA,1
842,LCCD.Stein1,,Stein1,39.905046,-76.286754,20503061204,Climbers Run-Pequea Creek,Lancaster County,PA,1
843,LCCD.Stein2,,Stein2,39.896465,-76.284922,20503061204,Climbers Run-Pequea Creek,Lancaster County,PA,1
844,LCCD.Stein3,,Stein3,39.893916,-76.286239,20503061204,Climbers Run-Pequea Creek,Lancaster County,PA,1
845,LCCD.StoneRun,,Stone Run,39.70298333,-76.10946667,20503061503,Basin Run-Octoraro Creek,Cecil County,MD,1
846,LCCD.Trout1,,Trout1,39.915279999999996,-76.28694399999998,20503061204,Climbers Run-Pequea Creek,Lancaster County,PA,1
847,LCCD.Tuc1,,Tuc1,39.86339,-76.341193,20503061708,Muddy Run-Susquehanna River,Lancaster County,PA,1
848,LCCD.TucTrib1,,TucTrib1,39.864814,-76.34004200000003,20503061708,Muddy Run-Susquehanna River,Lancaster County,PA,1
849,LRA.LT1,,LT1,40.176629999999996,-77.18536999999998,20503050404,Letort Spring Run,Cumberland County,PA,1
850,LRA.LT10,,LT10,40.23487,-77.14193,20503050404,Letort Spring Run,Cumberland County,PA,1
851,LRA.LT2,,LT2,40.17667,-77.18507,20503050404,Letort Spring Run,Cumberland County,PA,1
852,LRA.LT3,,LT3,40.179990000000004,-77.18692,20503050404,Letort Spring Run,Cumberland County,PA,1
853,LRA.LT4,,LT4,40.18844,-77.18606,20503050404,Letort Spring Run,Cumberland County,PA,1
854,LRA.LT5,,LT5,40.19528,-77.18423,20503050404,Letort Spring Run,Cumberland County,PA,1
855,LRA.LT6,,LT6,40.20792,-77.18104,20503050404,Letort Spring Run,Cumberland County,PA,1
856,LRA.LT7,,LT7,40.21418,-77.16883,20503050404,Letort Spring Run,Cumberland County,PA,1
857,LRA.LT8,,LT8,40.21847,-77.16003,20503050404,Letort Spring Run,Cumberland County,PA,1
858,LRA.LT9,,LT9,40.22429,-77.14928,20503050404,Letort Spring Run,Cumberland County,PA,1
859,LRA.MG1,,MG1,40.195679999999996,-77.18767,20503050404,Letort Spring Run,Cumberland County,PA,1
860,LRA.MG2,,MG2,40.19608,-77.18518,20503050404,Letort Spring Run,Cumberland County,PA,1
861,LRA.WL,,WL,40.195879999999995,-77.18745,20503050404,Letort Spring Run,Cumberland County,PA,1
862,MDE.0102003,,0102003,39.303056,-76.32305600000002,20600030602,Gunpowder River-Frontal Chesapeake Bay,Baltimore County,MD,1
863,MDE.0102016,,0102016,39.241667,-76.397778,20600030703,Back River-Frontal Chesapeake Bay,Baltimore County,MD,1
864,MDE.0102017,,0102017,39.25861,-76.44333,20600030703,Back River-Frontal Chesapeake Bay,Baltimore County,MD,1
865,MDE.0102018,,0102018,39.29,-76.46722199999998,20600030703,Back River-Frontal Chesapeake Bay,Baltimore County,MD,1
866,MDE.0103008,,0103008,39.476931,-75.943156,20600020207,Elk River-Frontal Chesapeake Bay,Cecil County,MD,1
867,MDE.0103013,,0103013,39.38261,-76.06811,20600010000,Upper Chesapeake Bay,Kent County,MD,1
868,MDE.0301003,,0301003,39.0692,-76.48061,20600040102,Sillery Bay-Frontal Chesapeake Bay,Anne Arundel County,MD,1
869,MDE.0301005C,,0301005C,39.0875,-76.460833,20600040102,Sillery Bay-Frontal Chesapeake Bay,Anne Arundel County,MD,1
870,MDE.0301009,,0301009,39.0568,-76.43666999999998,20600040102,Sillery Bay-Frontal Chesapeake Bay,Anne Arundel County,MD,1
871,MDE.0303004,,0303004,38.986670000000004,-76.4375,20600040203,Severn River-Frontal Chesapeake Bay,Anne Arundel County,MD,1
872,MDE.0303200,,0303200,38.96833,-76.45389,20600040203,Severn River-Frontal Chesapeake Bay,Anne Arundel County,MD,1
873,MDE.0304008,,0304008,39.029167,-76.526111,20600040203,Severn River-Frontal Chesapeake Bay,Anne Arundel County,MD,1
874,MDE.0306006,,0306006,38.935556,-76.52305600000003,20600040302,Beards Creek-South River,Anne Arundel County,MD,1
875,MDE.0306017,,0306017,38.915,-76.48944399999998,20600040302,Beards Creek-South River,Anne Arundel County,MD,1
876,MDE.0306110,,0306110,38.950833,-76.557778,20600040302,Beards Creek-South River,Anne Arundel County,MD,1
877,MDE.0307108,,0307108,38.860833,-76.511944,20600040401,Rhode River-West River,Anne Arundel County,MD,1
878,MDE.0307117,,0307117,38.8775,-76.518333,20600040401,Rhode River-West River,Anne Arundel County,MD,1
879,MDE.0307204,,0307204,38.854681,-76.531378,20600040401,Rhode River-West River,Anne Arundel County,MD,1
880,MDE.0401002,,0401002,39.15444,-76.06806,20600020408,Middle Chester River,Kent County,MD,1
881,MDE.0403004A,,0403004A,39.0875,-76.16555600000002,20600020411,Lower Chester River,Queen Anne's County,MD,1
882,MDE.0404019A,,0404019A,39.023610999999995,-76.265556,20600020411,Lower Chester River,Queen Anne's County,MD,1
883,MDE.0801028,,0801028,38.76458,-76.17628,20600020605,Miles River,Talbot County,MD,1
884,MDE.0802010,,0802010,38.888056,-76.180278,20600020604,Wye River,Queen Anne's County,MD,1
885,MDE.0804014,,0804014,38.842222,-76.303611,20600020609,Eastern Bay,Talbot County,MD,1
886,MDE.0804019,,0804019,38.898333,-76.313333,20600020607,Cox Creek-Frontal Eastern Bay,Queen Anne's County,MD,1
887,MDE.0806006A,,0806006A,38.73336,-76.13172,20600050504,Tred Avon River-Frontal Choptank River,Talbot County,MD,1
888,MDE.0807004,,0807004,38.755833,-76.22721999999997,20600050505,Broad Creek-Frontal Choptank River,Talbot County,MD,1
889,MDE.0808044,,0808044,38.75333300000001,-76.307778,20600050506,Harris Creek-Frontal Choptank River,Talbot County,MD,1
890,MDE.1001017,,1001017,38.59856,-75.98742,20600050502,Bolingbroke Creek-Choptank River,Talbot County,MD,1
891,MDE.1001701,,1001701,38.64214000000001,-75.96519,20600050501,Warwick River-Choptank River,Talbot County,MD,1
892,MDE.1003011,,1003011,38.63153,-76.13833299999997,20600050503,La Trappe Creek-Choptank River,Talbot County,MD,1
893,MDE.1007015,,1007015,38.5525,-76.2125,20600050401,Fishing Creek-Little Choptank River,Dorchester County,MD,1
894,MDE.1104022A,,1104022A,38.188056,-76.438889,20700110902,Eastern Branch-Saint Marys River,St. Mary's County,MD,1
895,MDE.1301024,,1301024,38.276666999999996,-76.824167,20700110504,Charleston Creek-Wicomico River,Charles County,MD,1
896,MDE.1302025,,1302025,38.263611,-76.64944399999997,20700110703,Glebe Run-Breton Bay,St. Mary's County,MD,1
897,MDE.1302702,,1302702,38.257778,-76.71305600000002,20700110701,Saint Clements Creek-Frontal Potomac RIver,St. Mary's County,MD,1
898,MDE.1304045,,1304045,38.23575,-76.851,20700111001,Outlet Potomac River,Charles County,MD,1
899,MDE.1401020,,1401020,38.336944,-76.19805600000002,20600050602,Charles Creek-Honga River,Dorchester County,MD,1
900,MDE.1402201,,1402201,38.266944,-76.15083299999998,20600050603,Fox Creek-Honga River,Dorchester County,MD,1
901,MDE.1404016A,,1404016A,38.337178,-75.9841,20801100205,Upper Fishing Bay,Dorchester County,MD,1
902,MDE.1405702,,1405702,38.29438,-75.9315,20801090505,Wetipquin Creek-Nanticoke River,Dorchester County,MD,1
903,MDE.1406211,,1406211,38.252221999999996,-75.835,20801100307,Ellis Bay-Wicomico River,Somerset County,MD,1
904,MDE.1801203,,1801203,38.222944,-75.88113299999998,20801100307,Ellis Bay-Wicomico River,Wicomico County,MD,1
905,MDE.1802025,,1802025,38.037222,-75.924444,20801100503,Upper Tangier Sound,Somerset County,MD,1
906,MDE.1803010,,1803010,38.120278000000006,-75.908889,20801100404,Broad Creek-Manokin River,Somerset County,MD,1
907,MDE.1803017,,1803017,38.098056,-75.88166700000002,20801100404,Broad Creek-Manokin River,Somerset County,MD,1
908,MDE.1804001,,1804001,38.075833,-75.783889,20801100405,Big Annemessex River,Somerset County,MD,1
909,MDE.1804007,,1804007,38.0525,-75.87,20801100501,Deal Island-Frontal Tangier Sound,Somerset County,MD,1
910,MDE.1806011,,1806011,37.929722,-75.775,20801110502,East Creek-Pocomoke Sound,Accomack County,VA,1
911,MDE.1807012,,1807012,37.979583,-75.637114,20801110402,Bullbegger Creek-Pocomoke River,Accomack County,VA,1
912,MDE.1807111,,1807111,37.956917,-75.665003,20801110501,Marumsco Creek-Pocomoke Sound,Somerset County,MD,1
913,MSWA.S1,,S1,40.04716,-77.52071,20503050302,Middle Spring Creek,Cumberland County,PA,1
914,MSWA.S4,,S4,40.06169000000001,-77.53258000000002,20503050302,Middle Spring Creek,Franklin County,PA,1
915,NRPA.NR-1,,NR-1,36.9056,-76.4569,20802080106,Bennett Creek-Nansemond River,Suffolk city,VA,1
916,NRPA.NR-2,,NR-2,36.8856,-76.4932,20802080106,Bennett Creek-Nansemond River,Suffolk city,VA,1
917,NRPA.NR-3,,NR-3,36.8567,-76.5483,20802080106,Bennett Creek-Nansemond River,Suffolk city,VA,1
918,NRPA.NR-4,,NR-4,36.8375,-76.5483,20802080106,Bennett Creek-Nansemond River,Suffolk city,VA,1
919,NRPA.NR-5,,NR-5,36.8056,-76.5589,20802080106,Bennett Creek-Nansemond River,Suffolk city,VA,1
920,NRPA.NR-6,,NR-6,36.7783,-76.5472,20802080105,Cedar Lake-Nansemond River,Suffolk city,VA,1
921,NRPA.NR-7,,NR-7,36.740257,-76.57979399999998,20802080105,Cedar Lake-Nansemond River,Suffolk city,VA,1
922,NRPA.NR-8,,NR-8,36.743688,-76.57384300000002,20802080105,Cedar Lake-Nansemond River,Suffolk city,VA,1
923,NWA.BACR2,,BACR2,38.4555,-75.7569,20801090504,Barren Creek-Nanticoke River,Wicomico County,MD,1
924,NWA.BRCR1,,BRCR1,38.5645,-75.6723,20801090205,Tussocky Branch-Broad Creek,Sussex County,DE,1
925,NWA.BRCR2,,BRCR2,38.5674,-75.6211,20801090205,Tussocky Branch-Broad Creek,Sussex County,DE,1
926,NWA.BRCR3,,BRCR3,38.5583,-75.5696,20801090204,Little Creek-Broad Creek,Sussex County,DE,1
927,NWA.CHIC1,,CHIC1,38.5134,-75.8796,20801100102,Chicamacomico River,Dorchester County,MD,1
928,NWA.CHIC2,,CHIC2,38.481609999999996,-75.88351999999998,20801100102,Chicamacomico River,Dorchester County,MD,1
929,NWA.COBR1,,COBR1,38.6422,-75.6068,20801090404,Clear Brook-Turkey Branch,Sussex County,DE,1
930,NWA.COBR3,,COBR3,38.6916,-75.5995,20801090404,Clear Brook-Turkey Branch,Sussex County,DE,1
931,NWA.DECR2,,DECR2,38.6659,-75.5146,20801090102,Lower Deep Creek,Sussex County,DE,1
932,NWA.DECR3,,DECR3,38.644607,-75.57942800000002,20801090102,Lower Deep Creek,Sussex County,DE,1
933,NWA.DEHE1,,DEHE1,38.7475,-75.5816,20801090402,Headwaters Nanticoke River,Sussex County,DE,1
934,NWA.DEHE2,,DEHE2,38.7283,-75.562,20801090404,Clear Brook-Turkey Branch,Sussex County,DE,1
935,NWA.DEHE3,,DEHE3,38.6647,-75.5639,20801090404,Clear Brook-Turkey Branch,Sussex County,DE,1
936,NWA.DEHE4,,DEHE4,38.643,-75.5929,20801090405,Butler Mill Branch-Nanticoke River,Sussex County,DE,1
937,NWA.DENA2,,DENA2,38.6336,-75.6177,20801090405,Butler Mill Branch-Nanticoke River,Sussex County,DE,1
938,NWA.DENA4,,DENA4,38.6013,-75.6563,20801090405,Butler Mill Branch-Nanticoke River,Sussex County,DE,1
939,NWA.GRBR1,,GRBR1,38.6871,-75.5481,20801090403,Gravelly Branch,Sussex County,DE,1
940,NWA.JABR1,,JABR1,38.5546,-75.5394,20801090202,James Branch,Sussex County,DE,1
941,NWA.JABR2,,JABR2,38.55495,-75.53978000000002,20801090202,James Branch,Sussex County,DE,1
942,NWA.LIBL1,,LIBL1,38.54619,-76.08296999999997,20801100202,Little Blackwater River,Dorchester County,MD,1
943,NWA.LIBL4,,LIBL4,38.51675,-76.0808,20801100202,Little Blackwater River,Dorchester County,MD,1
944,NWA.MAHO2,,MAHO2,38.6882,-75.7701,20801090305,Faulkner Branch-Marshyhope Creek,Caroline County,MD,1
945,NWA.MAHO3,,MAHO3,38.7627,-75.723,20801090303,Tommy Wright Branch-Marshyhope Creek,Caroline County,MD,1
946,NWA.MAHO5,,MAHO5,38.545,-75.7627,20801090307,Stony Bar Creek-Marshyhope Creek,Dorchester County,MD,1
947,NWA.MANA1,,MANA1,38.5456,-75.7175,20801090406,Gales Creek-Nanticoke River,Wicomico County,MD,1
948,NWA.MANA2,,MANA2,38.5124,-75.7561,20801090501,Chicone Creek-Nanticoke River,Wicomico County,MD,1
949,NWA.MANA3,,MANA3,38.4828,-75.8232,20801090501,Chicone Creek-Nanticoke River,Dorchester County,MD,1
950,NWA.MANA4,,MANA4,38.4152,-75.85,20801090504,Barren Creek-Nanticoke River,Dorchester County,MD,1
951,NWA.MANA5,,MANA5,38.3096,-75.8929,20801090505,Wetipquin Creek-Nanticoke River,Wicomico County,MD,1
952,NWA.MANA6,,MANA6,38.2712,-75.9092,20801090505,Wetipquin Creek-Nanticoke River,Wicomico County,MD,1
953,NWA.MANA7,,MANA7,38.25951,-75.91221999999998,20801090505,Wetipquin Creek-Nanticoke River,Wicomico County,MD,1
954,NWA.QUCR1,,QUCR1,38.3664,-75.7722,20801090503,Quantico Creek,Wicomico County,MD,1
955,NWA.RECR1,,RECR1,38.4016,-75.7905,20801090502,Rewastico Creek,Wicomico County,MD,1
956,NWA.RECR2c,,RECR2C,38.4106,-75.7544,20801090502,Rewastico Creek,Wicomico County,MD,1
957,NWA.RECR2p,,RECR2P,38.4106,-75.7544,20801090502,Rewastico Creek,Wicomico County,MD,1
958,NWA.TRAN1,,TRAN1,38.5508,-75.9528,20801100101,Middletown Branch-Transquaking River,Dorchester County,MD,1
959,NWA.TRAN2,,TRAN2,38.51269,-75.96834,20801100101,Middletown Branch-Transquaking River,Dorchester County,MD,1
960,NWA.TYCR1,,TYCR1,38.320059,-75.859137,20801090505,Wetipquin Creek-Nanticoke River,Wicomico County,MD,1
961,NWA.WECR1,,WECR1,38.3267,-75.8665,20801090505,Wetipquin Creek-Nanticoke River,Wicomico County,MD,1
962,NYWS.APACRE0.42,,APACRE 0.42,42.062312,-76.14894699999998,20501030501,Apalachin Creek,Tioga County,NY,1
963,NYWS.APACRE3.24,,APACRE 3.24,42.03676,-76.16136,20501030501,Apalachin Creek,Tioga County,NY,1
964,NYWS.BAKCRE0.22,,BAKCRE 0.22,42.26401,-77.54923000000002,20501040408,Middle Canisteo River,Steuben County,NY,1
965,NYWS.BELBRO1.43,,BELBRO 1.43,42.189021000000004,-75.63764599999998,20501011206,Belden Brook-Susquehanna River,Broome County,NY,1
966,NYWS.BRACRE0.57,,BRACRE 0.57,42.152842,-76.05862900000002,20501030105,Lower Nanticoke Creek,Broome County,NY,1
967,NYWS.BRACRE4.58,,BRACRE 4.58,42.185158,-76.011347,20501030105,Lower Nanticoke Creek,Broome County,NY,1
968,NYWS.BUNHILCRE1.91,,BUNHILCRE 1.91,42.08145,-75.98735,20501030201,Little Choconut Creek-Susquehanna River,Broome County,NY,1
969,NYWS.BUTCRE0.43,,BUTCRE 0.43,42.0507,-76.4518,20501030706,Parks Creek-Susquehanna River,Tioga County,NY,1
970,NYWS.BWC001,,BWC001,42.40083,-75.63361,20501020804,Wheeler Brook-Chenango River,Chenango County,NY,1
971,NYWS.CAMCRE2.47,,CAMCRE 2.47,42.346255,-77.397791,20501050204,Campbell Creek,Steuben County,NY,1
972,NYWS.CANCRE1.64,,CANCRE 1.64,42.5347,-75.535167,20501020606,Canasawacta Creek,Chenango County,NY,1
973,NYWS.CANCRE10.52,,CANCRE 10.52,42.267864,-77.758776,20501040103,Upper Canacadea Creek,Allegany County,NY,1
974,NYWS.CANCRE12.44,,CANCRE  12.44,42.256935,-77.789058,20501040103,Upper Canacadea Creek,Allegany County,NY,1
975,NYWS.CANCRE13.29,,CANCRE13.29,42.25226,-77.8027,20501040103,Upper Canacadea Creek,Allegany County,NY,1
976,NYWS.CANCRE14.36,,CANCRE 14.36,42.608625,-75.702733,20501020606,Canasawacta Creek,Chenango County,NY,1
977,NYWS.CANCRE6.25,,CANCRE 6.25,42.319399,-77.73649,20501040104,Lower Canacadea Creek,Allegany County,NY,1
978,NYWS.CANRIV15.40,,CANRIV 15.40,42.173121,-77.330564,20501040411,Lower Canisteo River,Steuben County,NY,1
979,NYWS.CANRIV32.12,,CANRIV 32.12,42.2553,-77.561094,20501040408,Middle Canisteo River,Steuben County,NY,1
980,NYWS.CANRIV49.45,,CANRIV 49.45,42.38852,-77.7286,20501040402,Headwaters Canisteo River,Steuben County,NY,1
981,NYWS.CANRIV49.80,,CANRIV 49.80,42.385875,-77.7281,20501040402,Headwaters Canisteo River,Steuben County,NY,1
982,NYWS.CANRIV55.88,,CANRIV 55.88,42.363376,-77.820421,20501040402,Headwaters Canisteo River,Allegany County,NY,1
983,NYWS.CARCRE0.61,,CARCRE 0.61,42.0637,-75.8086,20501011312,Carlin Creek,Broome County,NY,1
984,NYWS.CASCRE0.04,,CASCRE 0.04,42.158794,-75.891848,20501020809,Castle Creek,Broome County,NY,1
985,NYWS.CASCRE0.87,,CASCRE 0.87,42.168822999999996,-75.89953299999998,20501020809,Castle Creek,Broome County,NY,1
986,NYWS.CHOCRE11.38,,CHOCRE 11.38,41.978284,-76.003547,20501030203,Middle Chocohut Creek,Susquehanna County,PA,1
987,NYWS.CHOCRE2.06,,CHOCRE 2.06,42.071295,-76.046823,20501030204,Lower Chocohut Creek,Broome County,NY,1
988,NYWS.CHOCRE4.10,,CHOCRE 4.10,42.052671000000004,-76.035175,20501030204,Lower Chocohut Creek,Broome County,NY,1
989,NYWS.CHOCRE9.45,,CHOCRE 9.45,41.989896,-76.000242,20501030203,Middle Chocohut Creek,Susquehanna County,PA,1
990,NYWS.CLACRE0.38,,CLACRE 0.38,42.44695,-75.59917,20501020610,Lyon Brook-Chenango River,Chenango County,NY,1
991,NYWS.COHRIV14.19,,COHRIV 14.19,42.288608,-77.226734,20501050207,Smith Run-Cohocton River,Steuben County,NY,1
992,NYWS.COHRIV15.85,,COHRIV 15.85,42.303269,-77.24805,20501050207,Smith Run-Cohocton River,Steuben County,NY,1
993,NYWS.COHRIV19.0,,COHRIV 19.0,42.3256,-77.3111,20501050206,Knight Creek-Cohocton River,Steuben County,NY,1
994,NYWS.COHRIV20.44,,COHRIV 20.44,42.312687,-77.28084799999998,20501050206,Knight Creek-Cohocton River,Steuben County,NY,1
995,NYWS.COHRIV23.00,,COHRIV 23.00,42.3573,-77.3499,20501050206,Knight Creek-Cohocton River,Steuben County,NY,1
996,NYWS.COLCRE0.75,,COLCRE 0.75,42.25442,-77.58364,20501040407,Colonel Bills Creek,Steuben County,NY,1
997,NYWS.CROCRE0.22,,CROCRE 0.22,42.16013,-76.070314,20501030103,Crocker Creek,Broome County,NY,1
998,NYWS.CROCRE0.60,,CROCRE 0.60,42.156437,-76.075449,20501030103,Crocker Creek,Broome County,NY,1
999,NYWS.CURCRE1.03,,CURCRE 1.03,42.2073,-77.17738,20501050307,Curtis Creek-Cohocton River,Steuben County,NY,1
1000,NYWS.DEECRE0.09,,DEECRE 0.09,42.053256,-76.1674,20501030501,Apalachin Creek,Tioga County,NY,1
1001,NYWS.ELLBRO0.42,,ELLBRO 0.42,42.045239,-76.447626,20501030706,Parks Creek-Susquehanna River,Tioga County,NY,1
1002,NYWS.FIVCRE0.27,,FIVCRE 0.27,42.378254999999996,-77.36839499999998,20501050203,Lower Fivemile Creek,Steuben County,NY,1
1003,NYWS.FIVCRE13.37,,FIVCRE 13.37,42.500439,-77.280603,20501050201,Upper Fivemile Creek,Steuben County,NY,1
1004,NYWS.FULHOLCRE0.55,,FULHOLCRE 0.55,42.09271,-75.96206,20501030201,Little Choconut Creek-Susquehanna River,Broome County,NY,1
1005,NYWS.GEN01,,GEN01,42.44655,-75.774925,20501020702,Upper Genegantslet Creek,Chenango County,NY,1
1006,NYWS.GLABRO2.27,,GLABRO 2.27,42.618856,-75.768206,20501020303,Upper Otselic River,Chenango County,NY,1
1007,NYWS.GLECASCRE0.31,,GLECASCRE 0.31,42.180776,-75.90741899999998,20501020809,Castle Creek,Broome County,NY,1
1008,NYWS.GLECASCRE0.32,,GLECASCRE 0.32,42.180732,-75.907476,20501020809,Castle Creek,Broome County,NY,1
1009,NYWS.GOFCRE3.79,,GOFCRE 3.79,42.36539000000001,-77.447128,20501050105,Goff Creek,Steuben County,NY,1
1010,NYWS.GOOCRE0.25,,GOOCRE 0.25,42.11939,-77.20543,20501040410,Goodhue Creek,Steuben County,NY,1
1011,NYWS.HELCRE3.10,,HELCRE 3.10,42.213035999999995,-77.3464,20501040411,Lower Canisteo River,Steuben County,NY,1
1012,NYWS.HODCRE0.46,,HODCRE 0.46,42.168437,-77.098832,20501050308,Hodgmans Creek-Cohocton River,Steuben County,NY,1
1013,NYWS.KARVALCRE3.87,,KARVALCRE 3.87,42.320570000000004,-77.802397,20501040102,Karr Valley Creek,Allegany County,NY,1
1014,NYWS.KARVALCRE5.40,,KARVALCRE 5.40,42.321642,-77.8311,20501040102,Karr Valley Creek,Allegany County,NY,1
1015,NYWS.KARVALCRE8.92,,KARVALCRE 8.92,42.322989,-77.832562,20501040102,Karr Valley Creek,Allegany County,NY,1
1016,NYWS.KORCRE6.92,,KORCRE 6.92,42.430457000000004,-74.83524399999997,20501010404,Kortright Creek,Delaware County,NY,1
1017,NYWS.LITCHOCRE2.24,,LITCHOCRE 2.24,42.121054,-75.948932,20501030201,Little Choconut Creek-Susquehanna River,Broome County,NY,1
1018,NYWS.LITCHOCRE4.11,,LITCHOCRE 4.11,42.142795,-75.942233,20501030201,Little Choconut Creek-Susquehanna River,Broome County,NY,1
1019,NYWS.LITCRE0.85,,LITCRE 0.85,42.091286,-76.220501,20501030502,Little Nanticoke Creek,Tioga County,NY,1
1020,NYWS.LITSNACRE0.39,,LITSNACRE 0.39,42.027603000000006,-75.80185300000002,20501011311,Little Snake Creek,Broome County,NY,1
1021,NYWS.LUDCRE9.41,,LUDCRE 9.41,42.481862,-75.715585,20501020801,Bowman Creek,Chenango County,NY,1
1022,NYWS.LYOCRE0.36,,LYOCRE 0.36,42.462967,-75.5481,20501020610,Lyon Brook-Chenango River,Chenango County,NY,1
1023,NYWS.MEACRE2.15,,MEACRE 2.15,42.192531,-77.14166,20501050306,Meads Creek,Steuben County,NY,1
1024,NYWS.MICCRE0.41,,MICCRE 0.41,42.2307,-77.20569,20501050304,Michigan Creek,Steuben County,NY,1
1025,NYWS.NANCRE19.40,,NANCRE 19.40,42.214673,-76.040482,20501030104,Middle Nanticoke Creek,Broome County,NY,1
1026,NYWS.NEWCRE2.24,,NEWCRE 2.24,42.112538,-76.80241,20501050503,Lower Newtown Creek,Chemung County,NY,1
1027,NYWS.NEWCRE4.29,,NEWCRE 4.29,42.172431,-76.73345400000002,20501050502,Upper Newtown Creek,Chemung County,NY,1
1028,NYWS.NEWCRE5.00,,NEWCRE 5.00,42.143654,-76.81217099999998,20501050503,Lower Newtown Creek,Chemung County,NY,1
1029,NYWS.OCCCRE0.98,,OCCCRE 0.98,42.078057,-75.64839,20501011208,Occanum Creek-Susquehanna River,Broome County,NY,1
1030,NYWS.OSBCRE0.67,,OSBCRE 0.67,42.167795,-75.82428,20501020808,Osborne Creek,Broome County,NY,1
1031,NYWS.OTSRIV33.88,,OTSRIV 33.88,42.642336,-75.78945300000002,20501020303,Upper Otselic River,Chenango County,NY,1
1032,NYWS.OUACRE0.23,,OUACRE 0.23,42.127543,-75.643697,20501011207,Ouaquaga Creek-Susquehanna River,Broome County,NY,1
1033,NYWS.PAGBRO2.14,,PAGBRO 2.14,42.216488,-75.824883,20501020807,Page Brook,Broome County,NY,1
1034,NYWS.PARCRE0.32,,PARCRE 0.32,42.094178,-75.823091,20501011313,Park Creek-Susquehanna River,Broome County,NY,1
1035,NYWS.PATCRE1.10,,PATCRE 1.10,42.116184999999994,-76.0201,20501030205,Patterson Creek-Susquehanna River,Broome County,NY,1
1036,NYWS.PATCRE3.41,,PATCRE 3.41,42.146166,-76.013986,20501030205,Patterson Creek-Susquehanna River,Broome County,NY,1
1037,NYWS.PHECRE0.23,,PHECRE 0.23,42.1404,-75.894935,20501020810,Thomas Creek-Chenango River,Broome County,NY,1
1038,NYWS.PIECRE0.19,,PIECRE 0.19,42.100281,-75.890436,20501011313,Park Creek-Susquehanna River,Broome County,NY,1
1039,NYWS.PIPCRE5.62,,PIPCRE 5.62,42.11173400000001,-76.382806,20501030504,Chambers Creek-Pipe Creek,Tioga County,NY,1
1040,NYWS.POSCRE0.64,,POSCRE 0.64,42.152078,-77.044899,20501050401,Post Creek,Steuben County,NY,1
1041,NYWS.PUMCRE0.30,,PUMCRE 0.30,42.09148,-76.26798000000002,20501030503,Pumpelly Creek-Susquehanna River,Tioga County,NY,1
1042,NYWS.REDRUN1.13,,REDRUN 1.13,41.541332000000004,-77.502759,20502050603,Slate Run,Lycoming County,PA,1
1043,NYWS.SAGCRE0.23,,SAGCRE 0.23,42.11645,-75.656411,20501011207,Ouaquaga Creek-Susquehanna River,Broome County,NY,1
1044,NYWS.SINSINCRE0.71,,SINSINCRE 0.71,42.104659999999996,-76.92219300000002,20501050403,Sing Sing Creek,Chemung County,NY,1
1045,NYWS.SINSINCRE3.22,,SINSINCRE 3.22,42.133708,-76.915591,20501050403,Sing Sing Creek,Chemung County,NY,1
1046,NYWS.SINSINCRE5.55,,SINSINCRE 5.55,42.154431,-76.8861,20501050403,Sing Sing Creek,Chemung County,NY,1
1047,NYWS.SNACRE0.29,,SNACRE 0.29,42.015169,-75.788673,20501011310,Snake Creek,Broome County,NY,1
1048,NYWS.STECRE0.25,,STECRE 0.25,42.26486,-77.56593000000002,20501040408,Middle Canisteo River,Steuben County,NY,1
1049,NYWS.TENCRE0.93,,TENCRE 0.93,42.4343,-77.4264,20501050106,Tenmile Creek-Cohocton River,Steuben County,NY,1
1050,NYWS.TIORIV13.81,,TIORIV 13.81,41.999517,-77.114683,20501040908,Lower Tioga River,Tioga County,PA,1
1051,NYWS.TIORIV17.23,,TIORIV 17.23,41.957467,-77.11528299999998,20501040908,Lower Tioga River,Tioga County,PA,1
1052,NYWS.TIORIV3.41,,TIORIV 3.41,42.121018,-77.129189,20501040910,Outlet Tioga River,Steuben County,NY,1
1053,NYWS.TRACRE0.25,,TRACRE 0.25,42.137952,-77.324079,20501040409,Tracy Creek,Steuben County,NY,1
1054,NYWS.TRACRE0.52,,TRACRE 0.52,42.06802800000001,-76.102896,20501030206,Tracy Creek-Susquehanna River,Broome County,NY,1
1055,NYWS.TROCRE2.24,,TROCRE 2.24,42.004216,-75.730476,20501011307,Trowbridge Creek,Broome County,NY,1
1056,NYWS.TUSCRE0.06,,TUSCRE 0.06,42.10682,-77.22814,20501040306,Lower Tuscarora Creek,Steuben County,NY,1
1057,NYWS.TUSCRE1.28,,TUSCRE 1.28,42.059896,-75.601934,20501011208,Occanum Creek-Susquehanna River,Broome County,NY,1
1058,NYWS.TUSCRE14.98,,TUSCRE 14.98,42.08099,-77.40941,20501040302,Upper Tuscarora Creek,Steuben County,NY,1
1059,NYWS.UNTBRACRE0.22,,UNTBRACRE 0.22,42.176063,-76.024618,20501030105,Lower Nanticoke Creek,Broome County,NY,1
1060,NYWS.UNTCANCRE1.79,,UNTCANCRE 1.79,42.598764,-75.68951899999998,20501020606,Canasawacta Creek,Chenango County,NY,1
1061,NYWS.UNTCANRIV0.15,,UNTCANRIV 0.15,42.366514,-77.775254,20501040402,Headwaters Canisteo River,Allegany County,NY,1
1062,NYWS.UNTCANRIV0.26,,UNTCANRIV 0.26,42.369426000000004,-77.806562,20501040402,Headwaters Canisteo River,Allegany County,NY,1
1063,NYWS.UNTCOHRIV0.30,,UNTCOHRIV 0.30,42.3573,-77.3433,20501050206,Knight Creek-Cohocton River,Steuben County,NY,1
1064,NYWS.UNTCOHRIV0.63,,UNTCOHRIV 0.63,42.44668,-77.4617,20501050102,Twelvemile Creek,Steuben County,NY,1
1065,NYWS.UNTCOHRIV0.72,,UNTCOHRIV 0.72,42.446459999999995,-77.44843,20501050104,Reynolds Creek-Cohocton River,Steuben County,NY,1
1066,NYWS.UNTCOHRIV1.21,,UNTCOHRIV 1.21,42.32871,-77.33021,20501050206,Knight Creek-Cohocton River,Steuben County,NY,1
1067,NYWS.UNTELKCRE0.04,,UNTELKCRE 0.04,42.070445,-77.3001,20501040305,Elk Creek,Steuben County,NY,1
1068,NYWS.UNTGENCRE3.39,,UNTGENCRE 3.39,42.57613900000001,-75.715942,20501020701,Headwaters Genegantslet Creek,Chenango County,NY,1
1069,NYWS.UNTGOFCRE2.15,,UNTGOFCRE 2.15,42.34174,-77.48431,20501050105,Goff Creek,Steuben County,NY,1
1070,NYWS.UNTHODCRE0.60,,UNTHODCRE 0.60,42.174488000000004,-77.09934,20501050308,Hodgmans Creek-Cohocton River,Steuben County,NY,1
1071,NYWS.UNTLITCHOCRE1.34,,UNTLITCHOCRE 1.34,42.132305,-75.97529899999998,20501030201,Little Choconut Creek-Susquehanna River,Broome County,NY,1
1072,NYWS.UNTLITCRE1.96,,UNTLITCRE 1.96,42.10903,-76.161328,20501030502,Little Nanticoke Creek,Tioga County,NY,1
1073,NYWS.UNTMUDCRE1.83,,UNTMUDCRE 1.83,42.3787,-77.1825,20501050303,Mud Creek,Steuben County,NY,1
1074,NYWS.UNTOTECRE0.30,,UNTOTECRE 0.30,42.657507,-75.058615,20501010502,Upper Otego Creek,Otsego County,NY,1
1075,NYWS.UNTSUSRIV0.15,,UNTSUSRIV 0.15,42.07161,-75.64130899999998,20501011208,Occanum Creek-Susquehanna River,Broome County,NY,1
1076,NYWS.UNTSUSRIV0.31,,UNTSUSRIV 0.31,42.120168,-75.986746,20501030205,Patterson Creek-Susquehanna River,Broome County,NY,1
1077,NYWS.UNTWBRACRE0.18,,UNTWBRACRE 0.18,42.289235,-76.253762,20501030408,Lower West Branch Owego Creek,Tioga County,NY,1
1078,NYWS.WALCRE0.92,,WALCRE 0.92,42.502402000000004,-77.27578299999998,20501050202,Middle Fivemile Creek,Steuben County,NY,1
1079,NYWS.WHICRE0.27,,WHICRE 0.27,42.119948,-77.021591,20501050404,Whisky Creek-Chemung River,Steuben County,NY,1
1080,NYWS.WHICRE1.65,,WHICRE 1.65,42.109613,-77.039105,20501050404,Whisky Creek-Chemung River,Steuben County,NY,1
1081,OCCA.BUTCRE17.90,,BUTCRE 17.90,42.545443,-75.238748,20501010802,Middle Butternut Creek,Otsego County,NY,1
1082,OCCA.BUTCRE23.20,,BUTCRE 23.20,42.58939,-75.19321,20501010802,Middle Butternut Creek,Otsego County,NY,1
1083,OCCA.ELKCRE0.05,,ELKCRE 0.05,42.54499000000001,-74.84201,20501010302,Elk Creek,Otsego County,NY,1
1084,OCCA.OAKCRE0.72,,OAKCRE 0.72,42.666022999999996,-74.959008,20501010103,Oaks Creek,Otsego County,NY,1
1085,OCCA.OTECRE21.08,,OTECRE 21.08,42.61636,-75.05741,20501010502,Upper Otego Creek,Otsego County,NY,1
1086,OCCA.REDCRE1.34,,REDCRE 1.34,42.6862,-74.9184,20501010604,Red Creek-Susquehanna River,Otsego County,NY,1
1087,OCCA.SUSRIV466.75,,SUSRIV 466.75,42.690481,-74.929575,20501010604,Red Creek-Susquehanna River,Otsego County,NY,1
1088,OCCA.UNTOTSLAK0.37,,UNTOTSLAK 0.37,42.80672,-74.90287,20501010603,Ostego Lake-Susquehanna River,Otsego County,NY,1
1089,OCCA.UNTSUSRIV0.81,,UNTSUSRIV 0.81,42.592681,-74.949535,20501010604,Red Creek-Susquehanna River,Otsego County,NY,1
1090,PRK.PR-10,,PR-10 National Harbor,38.784099,-77.018505,20700100307,Little Hunting Creek-Potomac River,Prince George's County,MD,1
1091,PRK.PR-11,,PR-11 Mallows Bay Dock,38.469116899999996,-77.263728,20700110106,Tank Creek-Potomac River,Charles County,MD,1
1092,PRK.PR-12,,PR-12 Mallows Bay - Liverpool Point,38.459693,-77.2694645,20700110106,Tank Creek-Potomac River,Charles County,MD,1
1093,PRK.PR-13,,PR-13 Little Hunting Creek,38.712452,-77.07417199999998,20700100307,Little Hunting Creek-Potomac River,Fairfax County,VA,1
1094,PRK.PR-14PohickBay,,PR-14 Pohick Bay,38.67606,-77.166946,20700100402,Accotink Creek,Fairfax County,VA,1
1095,PRK.PR-8,,PR-8 Oronoco Bay,38.811825,-77.037683,20700100301,Fourmile Run-Potomac River,Alexandria city,VA,1
1096,PRK.PR-9,,PR-9 Belle Haven Marina,38.776540000000004,-77.04784000000002,20700100307,Little Hunting Creek-Potomac River,Fairfax County,VA,1
1097,PVMN.APP,,APP,37.042988,-76.366555,20801080103,Southwest Branch Back River,Hampton city,VA,1
1098,PVMN.BBGF1,,BBGF1,37.0319,-76.38058000000002,20801080103,Southwest Branch Back River,Hampton city,VA,1
1099,PVMN.BCP1,,BCP1,37.20497,-76.43784000000002,20801080101,Poquoson River-Frontal Chesapeake Bay,York County,VA,1
1100,PVMN.BR,,BR,37.1164,-76.3639,20801080102,Northwest Branch Back River,Poquoson city,VA,1
1101,PVMN.DP1,,DP1,37.095861,-76.29469399999998,20801080104,Back River-Frontal Chesapeake Bay,Hampton city,VA,1
1102,PVMN.DeepCreek,,Deep Creek,37.08725,-76.52171,20802060901,Warwick River,Newport News city,VA,1
1103,PVMN.GA,,GA,37.13705,-76.3896,20801080101,Poquoson River-Frontal Chesapeake Bay,Poquoson city,VA,1
1104,PVMN.GC1,,GC1,37.19409,-76.42586999999997,20801080101,Poquoson River-Frontal Chesapeake Bay,York County,VA,1
1105,PVMN.HB1,,HB1,37.028209999999994,-76.46536,20802060906,Cooper Creek-James River,Newport News city,VA,1
1106,PVMN.HB2,,HB2,37.027809999999995,-76.4644,20802060906,Cooper Creek-James River,Newport News city,VA,1
1107,PVMN.HB3,,HB3,37.0142,-76.2755,20801010000,Lower Chesapeake Bay,Hampton city,VA,1
1108,PVMN.HC2,,HC2,37.02014000000001,-76.34401,20802080303,Hampton River-Frontal Hampton Roads,Hampton city,VA,1
1109,PVMN.LC1,,LC1,37.11995,-76.55054,20802060901,Warwick River,Newport News city,VA,1
1110,PVMN.LGC,,LGC,37.080639,-76.281278,20801080104,Back River-Frontal Chesapeake Bay,Hampton city,VA,1
1111,PVMN.MC2,,MC2,37.009306,-76.30708299999998,20802080303,Hampton River-Frontal Hampton Roads,Hampton city,VA,1
1112,PVMN.MP,,MP,37.1091,-76.3184,20801080104,Back River-Frontal Chesapeake Bay,Poquoson city,VA,1
1113,PVMN.NL,,NL,37.1408,-76.3639,20801080101,Poquoson River-Frontal Chesapeake Bay,Poquoson city,VA,1
1114,PVMN.OR,,OR,37.1192,-76.3915,20801080102,Northwest Branch Back River,Poquoson city,VA,1
1115,PVMN.PA,,PA,37.1288,-76.3483,20801080101,Poquoson River-Frontal Chesapeake Bay,Poquoson city,VA,1
1116,PVMN.RB1,,RB1,37.04684,-76.4991,20802060906,Cooper Creek-James River,Newport News city,VA,1
1117,PVMN.RB2,,RB2,37.04673,-76.49877,20802060906,Cooper Creek-James River,Newport News city,VA,1
1118,PVMN.ROB1,,ROB1,36.997357,-76.378853,20802080303,Hampton River-Frontal Hampton Roads,Hampton city,VA,1
1119,PVMN.RS1,,RS1,37.13467,-76.43044,20801080101,Poquoson River-Frontal Chesapeake Bay,York County,VA,1
1120,PVMN.WC,,WC,37.1424,-76.37625,20801080101,Poquoson River-Frontal Chesapeake Bay,Poquoson city,VA,1
1121,PVMN.WH,,WH,37.403079999999996,-76.48952,20801020403,Ware River,Gloucester County,VA,1
1122,PVMN.WL,,WL,37.30001,-76.53142,20801070203,Carter Creek-York River,Gloucester County,VA,1
1123,PVMN.WR1,,WR1,37.12372,-76.56867,20802060901,Warwick River,Newport News city,VA,1
1124,PWSWCD.PWSWCD-PL52-TOD-19-D1,,PWSWCD-PL52-TOD-19-D1,38.5686,-77.3359,20700110104,Quantico Creek,Prince William County,VA,1
1125,PWSWCD.PWSWCD-PL52-TOD-19-D2,,PWSWCD-PL52-TOD-19-D2,38.5676,-77.3346,20700110104,Quantico Creek,Prince William County,VA,1
1126,PWSWCD.PWSWCD-PL52-TOD-19-D3,,PWSWCD-PL52-TOD-19-D3,38.5659,-77.329,20700110104,Quantico Creek,Prince William County,VA,1
1127,PWSWCD.PWSWCD-PL52-TOD-19-D4,,PWSWCD-PL52-TOD-19-D4,38.566,-77.3244,20700110104,Quantico Creek,Prince William County,VA,1
1128,PWSWCD.PWSWCD_DQ_PL34_19_CMP33,,PWSWCD_DQ_PL34_19_CMP33,38.7498,-77.5146,20700100504,Rocky Branch-Broad Run,Prince William County,VA,1
1129,PWSWCD.PWSWCD_DQ_PL34_19_CMP37,,PWSWCD_DQ_PL34_19_CMP37,38.7371,-77.5351,20700100504,Rocky Branch-Broad Run,Prince William County,VA,1
1130,PWSWCD.PWSWCD_DQ_PL38_19_CMP10,,PWSWCD_DQ_PL38_19_CMP10,38.6486,-77.5879,20700100604,Walnut Branch-Cedar Run,Prince William County,VA,1
1131,PWSWCD.PWSWCD_DQ_PL38_19_CMP11,,PWSWCD_DQ_PL38_19_CMP11,38.6447,-77.5756,20700100604,Walnut Branch-Cedar Run,Prince William County,VA,1
1132,PWSWCD.PWSWCD_DQ_PL38_19_CMP9,,PWSWCD_DQ_PL38_19_CMP9,38.6496,-77.6005,20700100604,Walnut Branch-Cedar Run,Fauquier County,VA,1
1133,PWSWCD.PWSWCD_DQ_PL41_19_CMP34,,PWSWCD_DQ_PL41_19_CMP34,38.7269,-77.5097,20700100504,Rocky Branch-Broad Run,Prince William County,VA,1
1134,PWSWCD.PWSWCD_DQ_PL41_19_CMP35,,PWSWCD_DQ_PL41_19_CMP35,38.7274,-77.5075,20700100504,Rocky Branch-Broad Run,Prince William County,VA,1
1135,PWSWCD.PWSWCD_DQ_PL41_19_CMP36,,PWSWCD_DQ_PL41_19_CMP36,38.6554,-77.4534,20700100801,Lake Jackson-Occoquan River,Prince William County,VA,1
1136,PWSWCD.PWSWCD_DQ_PL49_19_CMP32,,PWSWCD_DQ_PL49_19_CMP32,38.6209,-77.2758,20700100804,Neabsco Creek,Prince William County,VA,1
1137,PWSWCD.PWSWCD_DQ_PL51_19_CMP21,,PWSWCD_DQ_PL51_19_CMP21,38.6096,-77.343,20700110103,Powells Creek,Prince William County,VA,1
1138,PWSWCD.PWSWCD_DQ_PL51_19_CMP22,,PWSWCD_DQ_PL51_19_CMP22,38.6113,-77.3451,20700110103,Powells Creek,Prince William County,VA,1
1139,PWSWCD.PWSWCD_DQ_PL51_19_CMP28,,PWSWCD_DQ_PL51_19_CMP28,38.5958,-77.29899999999998,20700110103,Powells Creek,Prince William County,VA,1
1140,PWSWCD.PWSWCD_DQ_PL52_19_CMP30,,PWSWCD_DQ_PL52_19_CMP30,38.5661,-77.3097,20700110104,Quantico Creek,Prince William County,VA,1
1141,PWSWCD.PWSWCD_PL33_19_CMP16,,PWSWCD_PL33_19_CMP16,38.850938,-77.635231,20700100702,Little Bull Run,Prince William County,VA,1
1142,PWSWCD.PWSWCD_PL44_19_CMP17,,PWSWCD_PL44_19_CMP17,38.56752,-77.556977,20700100606,Slate Run-Cedar Run,Fauquier County,VA,1
1143,PWSWCD.PWSWCD_PL51_19_CMP4,,PWSWCD_PL51_19_CMP4,38.607308,-77.32994000000002,20700110103,Powells Creek,Prince William County,VA,1
1144,PWSWCD.PWSWCD_PL52_19_CMP15,,PWSWCD_PL52_19_CMP15,38.56752,-77.36497,20700110104,Quantico Creek,Prince William County,VA,1
1145,PWSWCD.PWSWCD_PR_PL33_19_CMP17,,PWSWCD_PR_PL33_19_CMP17,38.7122,-77.5615,20700100503,Kettle Run,Prince William County,VA,1
1146,PWSWCD.PWSWCD_PR_PL34_19_CMP19,,PWSWCD_PR_PL34_19_CMP19,38.7284,-77.4814,20700100504,Rocky Branch-Broad Run,Prince William County,VA,1
1147,PWSWCD.PWSWCD_PR_PL40_19_CMP12,,PWSWCD_PR_PL40_19_CMP12,38.6417,-77.5846,20700100604,Walnut Branch-Cedar Run,Prince William County,VA,1
1148,PWSWCD.PWSWCD_PR_PL40_19_CMP14,,PWSWCD_PR_PL40_19_CMP14,38.6688,-77.5381,20700100606,Slate Run-Cedar Run,Prince William County,VA,1
1149,PWSWCD.PWSWCD_PR_PL40_19_CMP15,,PWSWCD_PR_PL40_19_CMP15,38.6416,-77.5116,20700100606,Slate Run-Cedar Run,Prince William County,VA,1
1150,PWSWCD.PWSWCD_PR_PL40_19_CMP16,,PWSWCD_PR_PL40_19_CMP16,38.6873,-77.4913,20700100606,Slate Run-Cedar Run,Prince William County,VA,1
1151,RAS.09-PL21-Sug-SLR4,,09-PL21-Sug-SLR4,38.9787922,-77.36439759999998,20700080905,Sugarland Run,Fairfax County,VA,1
1152,RAS.09-PL22-Sna-DR19,,09-PL22-Sna-DR19,38.92989220000001,-77.34589759999999,20700081004,Difficult Run,Fairfax County,VA,1
1153,RCA.BSC01,,BSC01,38.003679999999996,-78.50851999999998,20802040402,Moores Creek,Albemarle County,VA,1
1154,RCA.CHA01,,CHA01,38.042334000000004,-78.466174,20802040401,Meadow Creek-Rivanna River,Charlottesville city,VA,1
1155,RCA.LDC01,,LDC01,38.01674000000001,-78.49583,20802040402,Moores Creek,Charlottesville city,VA,1
1156,RCA.LDC03,,LDC03,38.026649,-78.51153000000002,20802040402,Moores Creek,Charlottesville city,VA,1
1157,RCA.MDC01,,MDC01,38.028026000000004,-78.46503,20802040401,Meadow Creek-Rivanna River,Charlottesville city,VA,1
1158,RCA.MSV05,,MSV05,38.01015,-78.51666999999998,20802040402,Moores Creek,Albemarle County,VA,1
1159,RCA.MWC11,,MWC11,38.054943,-78.49413,20802040401,Meadow Creek-Rivanna River,Charlottesville city,VA,1
1160,RCA.MWC12,,MWC12,38.046887,-78.50498,20802040401,Meadow Creek-Rivanna River,Charlottesville city,VA,1
1161,RCA.MWC13,,MWC13,38.063705,-78.47585,20802040401,Meadow Creek-Rivanna River,Charlottesville city,VA,1
1162,RCA.PBR01,,PBR01,38.010040000000004,-78.2917,20802040405,Mechunk Creek,Louisa County,VA,1
1163,RCA.RCK01,,RCK01,38.027889,-78.50506999999998,20802040402,Moores Creek,Charlottesville city,VA,1
1164,RCA.RCK02,,RCK02,38.016846,-78.4958,20802040402,Moores Creek,Charlottesville city,VA,1
1165,RCA.RVN09,,RVN09,38.02335,-78.45388,20802040401,Meadow Creek-Rivanna River,Albemarle County,VA,1
1166,RCA.RVN10,,RVN10,37.91871,-78.29769,20802040501,Stigger Creek-Rivanna River,Fluvanna County,VA,1
1167,RCA.RVN11,,RVN11,38.045668,-78.4513,20802040401,Meadow Creek-Rivanna River,Albemarle County,VA,1
1168,RCA.RVN12,,RVN12,37.857763,-78.26679,20802040501,Stigger Creek-Rivanna River,Fluvanna County,VA,1
1169,RCA.SCK01,,SCK01,38.041788000000004,-78.47528,20802040401,Meadow Creek-Rivanna River,Charlottesville city,VA,1
1170,RCA.XLC01,,XLC01,38.028302000000004,-78.51308,20802040402,Moores Creek,Charlottesville city,VA,1
1171,RCA.XLC01A,,XLC01A,38.029619,-78.512842,20802040402,Moores Creek,Charlottesville city,VA,1
1172,RCA.XLD01,,XLD01,38.028144,-78.51308,20802040402,Moores Creek,Charlottesville city,VA,1
1173,RCA.XLD01A,,XLD01A,38.028551,-78.514349,20802040402,Moores Creek,Charlottesville city,VA,1
1174,RCA.XRC01,,XRC01,38.028377,-78.50315,20802040402,Moores Creek,Charlottesville city,VA,1
1175,RVS.FMC.FMC21.52,,FMC.FMC21.52,39.715885,-78.446004,20700030301,Upper Fifteenmile Creek,Allegany County,MD,1
1176,RVS.SHC.BC0.41,,SHC.BC0.41,39.702219,-78.315651,20700030405,Bear Creek-Sideling Hill Creek,Washington County,MD,1
1177,RVS.SHC.ESHC2.89,,SHC.ESHC2.89,39.807320000000004,-78.334485,20700030401,East Branch Sideling Hill Creek,Bedford County,PA,1
1178,RVS.SHC.PC0.25,,SHC.PC0.25,39.761756,-78.373366,20700030403,Piney Creek,Bedford County,PA,1
1179,RVS.SHC.SHC1.51,,SHC.SHC1.51,39.649364,-78.339345,20700030405,Bear Creek-Sideling Hill Creek,Washington County,MD,1
1180,RVS.SHC.SHC13.01,,SHC.SHC13.01,39.709509000000004,-78.329625,20700030404,Crooked Run-Sideling Hill Creek,Washington County,MD,1
1181,RVS.SHC.SHC16.64,,SHC.SHC16.64,39.732595,-78.344813,20700030404,Crooked Run-Sideling Hill Creek,Fulton County,PA,1
1182,RVS.SHC.SHC18.04,,SHC.SHC18.04,39.7411,-78.360001,20700030404,Crooked Run-Sideling Hill Creek,Fulton County,PA,1
1183,RVS.SHC.SHC2.80,,SHC.SHC2.80,39.654832,-78.360001,20700030405,Bear Creek-Sideling Hill Creek,Allegany County,MD,1
1184,RVS.SHC.SHC21.04,,SHC.SHC21.04,39.752643,-78.364253,20700030404,Crooked Run-Sideling Hill Creek,Bedford County,PA,1
1185,RVS.SHC.SHC6.34,,SHC.SHC6.34,39.673961,-78.341849,20700030405,Bear Creek-Sideling Hill Creek,Allegany County,MD,1
1186,RVS.SHC.UTESHC9.32,,SHC.UTESHC9.32,39.893190000000004,-78.28401,20700030401,East Branch Sideling Hill Creek,Bedford County,PA,1
1187,RVS.SHC.UTWSHC0.06,,SHC.UTWSHC0.06,39.868072999999995,-78.336915,20700030402,West Branch Sideling Hill Creek,Bedford County,PA,1
1188,RVS.SHC.UTWSHC0.43,,SHC.UTWSHC0.43,39.806459999999994,-78.36928,20700030402,West Branch Sideling Hill Creek,Bedford County,PA,1
1189,RVS.SHC.UTWSHC1.88,,SHC.UTWSHC1.88,39.884476,-78.34056,20700030402,West Branch Sideling Hill Creek,Bedford County,PA,1
1190,RVS.SHC.WSHC0.08,,SHC.WSHC0.08,39.780589,-78.361823,20700030404,Crooked Run-Sideling Hill Creek,Bedford County,PA,1
1191,RVS.SHC.WSHC3.94,,SHC.WSHC3.94,39.83162100000001,-78.348458,20700030402,West Branch Sideling Hill Creek,Bedford County,PA,1
1192,RVS.SHC.WSHC6.72,,SHC.WSHC6.72,39.863820000000004,-78.32719399999998,20700030402,West Branch Sideling Hill Creek,Bedford County,PA,1
1193,RVS.TC.BGR1.28,,TC.BGR1.28,39.80489,-78.570812,20700030102,Flintstone Creek,Bedford County,PA,1
1194,RVS.TC.CFB&W,,TC.CFB&W,39.821901000000004,-78.46328000000003,20700030101,Wilson Run-Elk Lick Creek,Bedford County,PA,1
1195,RVS.TC.FC1.16,,TC.FC1.16,39.699181,-78.565952,20700030102,Flintstone Creek,Allegany County,MD,1
1196,RVS.TC.FC4.40,,TC.FC4.40,39.730771999999995,-78.595113,20700030102,Flintstone Creek,Bedford County,PA,1
1197,RVS.TC.FC4.53,,TC.FC4.53,39.786057,-78.574457,20700030102,Flintstone Creek,Bedford County,PA,1
1198,RVS.TC.LOR0.11,,TC.LOR0.11,39.766009000000004,-78.606656,20700030102,Flintstone Creek,Bedford County,PA,1
1199,RVS.TC.MB0.80,,TC.MB0.80,39.683384999999994,-78.570204,20700030103,Murley Branch,Allegany County,MD,1
1200,RVS.TC.PR0.35,,TC.PR0.35,39.75689600000001,-78.518565,20700030104,Sweet Root Creek-Town Creek,Bedford County,PA,1
1201,RVS.TC.SPR1.37,,TC.SPR1.37,39.546085,-78.565344,20700030106,Sawpit Run-Town Creek,Allegany County,MD,1
1202,RVS.TC.SRC0.63,,TC.SRC0.63,39.821901000000004,-78.493049,20700030104,Sweet Root Creek-Town Creek,Bedford County,PA,1
1203,RVS.TC.TC14.5,,TC.TC14.5,39.60623,-78.547726,20700030105,Peters Run-Town Creek,Allegany County,MD,1
1204,RVS.TC.TC2.21,,TC.TC2.21,39.54000900000001,-78.540436,20700030106,Sawpit Run-Town Creek,Allegany County,MD,1
1205,RVS.TC.TC20.95,,TC.TC20.95,39.65847700000001,-78.562306,20700030105,Peters Run-Town Creek,Allegany County,MD,1
1206,RVS.TC.TC27.33,,TC.TC27.33,39.735632,-78.54899999999998,20700030104,Sweet Root Creek-Town Creek,Bedford County,PA,1
1207,RVS.TC.TC28.63,,TC.TC28.63,39.753251,-78.511882,20700030104,Sweet Root Creek-Town Creek,Bedford County,PA,1
1208,RVS.TC.UTFC0.09,,TC.UTFC0.09,39.79031,-78.579102,20700030102,Flintstone Creek,Bedford County,PA,1
1209,RVS.TC.UTSRC0.44,,TC.UTSRC0.44,39.860782,-78.49851600000002,20700030104,Sweet Root Creek-Town Creek,Bedford County,PA,1
1210,RVS.TC.WCR1.18,,TC.WCR1.18,39.79881500000001,-78.561699,20700030102,Flintstone Creek,Bedford County,PA,1
1211,RVS.TC.WCR1.28,,TC.WCR1.28,39.801853,-78.558661,20700030102,Flintstone Creek,Bedford County,PA,1
1212,SCC.BCC1,,BCC1,38.9562972,-76.486666,20600040203,Severn River-Frontal Chesapeake Bay,Anne Arundel County,MD,1
1213,SCC.BCC2,,BCC2,38.958161,-76.48676400000002,20600040203,Severn River-Frontal Chesapeake Bay,Anne Arundel County,MD,1
1214,SCC.BCC3,,BCC3,38.961242,-76.480933,20600040203,Severn River-Frontal Chesapeake Bay,Anne Arundel County,MD,1
1215,SCC.BCC4,,BCC4,38.962358,-76.479083,20600040203,Severn River-Frontal Chesapeake Bay,Anne Arundel County,MD,1
1216,SCC.BCC5,,BCC5,38.963164,-76.484114,20600040203,Severn River-Frontal Chesapeake Bay,Anne Arundel County,MD,1
1217,SCC.BCC6,,BCC6,38.965975,-76.483083,20600040203,Severn River-Frontal Chesapeake Bay,Anne Arundel County,MD,1
1218,SCC.CG,,CG,38.9731,-76.5171,20600040203,Severn River-Frontal Chesapeake Bay,Anne Arundel County,MD,1
1219,SCC.EYC,,EYC,38.9753,-76.4782,20600040203,Severn River-Frontal Chesapeake Bay,Anne Arundel County,MD,1
1220,SCC.HC,,HC,38.9678,-76.4971,20600040203,Severn River-Frontal Chesapeake Bay,Anne Arundel County,MD,1
1221,SCC.HW,,HW,38.9695,-76.5023,20600040203,Severn River-Frontal Chesapeake Bay,Anne Arundel County,MD,1
1222,SCC.MAC,,MAC,38.9732,-76.4924,20600040203,Severn River-Frontal Chesapeake Bay,Anne Arundel County,MD,1
1223,SCC.MOS,,MOS,38.9753,-76.4837,20600040203,Severn River-Frontal Chesapeake Bay,Anne Arundel County,MD,1
1224,SCC.MOWC,,MOWC,38.9724,-76.4958,20600040203,Severn River-Frontal Chesapeake Bay,Anne Arundel County,MD,1
1225,SCC.MSM,,MSM,38.9699,-76.4996,20600040203,Severn River-Frontal Chesapeake Bay,Anne Arundel County,MD,1
1226,SCC.MSW,,MSW,38.9734,-76.4879,20600040203,Severn River-Frontal Chesapeake Bay,Anne Arundel County,MD,1
1227,SCC.SCM,,SCM,38.9706,-76.5074,20600040203,Severn River-Frontal Chesapeake Bay,Anne Arundel County,MD,1
1228,SCC.SUP,,SUP,38.9724,-76.4893,20600040203,Severn River-Frontal Chesapeake Bay,Anne Arundel County,MD,1
1229,SRA.BC1,,BC1,39.0004,-76.4512,20600040203,Severn River-Frontal Chesapeake Bay,Anne Arundel County,MD,1
1230,SRA.BR1,,BR1,39.024,-76.538,20600040203,Severn River-Frontal Chesapeake Bay,Anne Arundel County,MD,1
1231,SRA.BR2,,BR2,39.0235,-76.5414,20600040203,Severn River-Frontal Chesapeake Bay,Anne Arundel County,MD,1
1232,SRA.CC1,,CC1,39.0208,-76.5092,20600040203,Severn River-Frontal Chesapeake Bay,Anne Arundel County,MD,1
1233,SRA.CC2,,CC2,39.0233,-76.5151,20600040203,Severn River-Frontal Chesapeake Bay,Anne Arundel County,MD,1
1234,SRA.CC3,,CC3,39.0212,-76.5145,20600040203,Severn River-Frontal Chesapeake Bay,Anne Arundel County,MD,1
1235,SRA.CL1,,CL1,39.0173,-76.5338,20600040203,Severn River-Frontal Chesapeake Bay,Anne Arundel County,MD,1
1236,SRA.CL2,,CL2,39.0173,-76.5392,20600040203,Severn River-Frontal Chesapeake Bay,Anne Arundel County,MD,1
1237,SRA.EF,,EF,39.0173,-76.5212,20600040203,Severn River-Frontal Chesapeake Bay,Anne Arundel County,MD,1
1238,SRA.FC1,,FC1,39.074,-76.5739,20600040202,Round Bay-Severn River,Anne Arundel County,MD,1
1239,SRA.FC2,,FC2,39.0738,-76.5768,20600040202,Round Bay-Severn River,Anne Arundel County,MD,1
1240,SRA.IL,,IL,39.0816,-76.6111,20600040202,Round Bay-Severn River,Anne Arundel County,MD,1
1241,SRA.LC1,,LC1,39.0063,-76.517,20600040203,Severn River-Frontal Chesapeake Bay,Anne Arundel County,MD,1
1242,SRA.LC2,,LC2,39.0048,-76.5218,20600040203,Severn River-Frontal Chesapeake Bay,Anne Arundel County,MD,1
1243,SRA.LO1,,LO1,38.9466,-76.4655,20600040203,Severn River-Frontal Chesapeake Bay,Anne Arundel County,MD,1
1244,SRA.LO2,,LO2,38.9471,-76.4742,20600040203,Severn River-Frontal Chesapeake Bay,Anne Arundel County,MD,1
1245,SRA.LO3,,LO3,38.9436,-76.46,20600040203,Severn River-Frontal Chesapeake Bay,Anne Arundel County,MD,1
1246,SRA.MA,,MA,39.003,-76.4923,20600040203,Severn River-Frontal Chesapeake Bay,Anne Arundel County,MD,1
1247,SRA.MC1,,MC1,38.9944,-76.453,20600040203,Severn River-Frontal Chesapeake Bay,Anne Arundel County,MD,1
1248,SRA.MC2,,MC2,39.0035,-76.457,20600040203,Severn River-Frontal Chesapeake Bay,Anne Arundel County,MD,1
1249,SRA.MC3,,MC3,39.0131,-76.4676,20600040203,Severn River-Frontal Chesapeake Bay,Anne Arundel County,MD,1
1250,SRA.NA,,,39.0698,-76.5823,20600040202,Round Bay-Severn River,Anne Arundel County,MD,1
1251,SRA.PC,,PC,39.063,-76.578,20600040202,Round Bay-Severn River,Anne Arundel County,MD,1
1252,SRA.PO,,PO,39.0015,-76.4895,20600040203,Severn River-Frontal Chesapeake Bay,Anne Arundel County,MD,1
1253,SRA.RBE,,RBE,39.0582,-76.5481,20600040202,Round Bay-Severn River,Anne Arundel County,MD,1
1254,SRA.RBN,,RBN,39.0599,-76.5618,20600040202,Round Bay-Severn River,Anne Arundel County,MD,1
1255,SRA.RBP,,RBP,39.0412,-76.5723,20600040202,Round Bay-Severn River,Anne Arundel County,MD,1
1256,SRA.RBS,,RBS,39.0354,-76.5429,20600040202,Round Bay-Severn River,Anne Arundel County,MD,1
1257,SRA.RBW,,RBW,39.0374,-76.5601,20600040202,Round Bay-Severn River,Anne Arundel County,MD,1
1258,SRA.RC1,,RC1,39.0125,-76.4437,20600040203,Severn River-Frontal Chesapeake Bay,Anne Arundel County,MD,1
1259,SRA.SC1,,SC1,39.0121,-76.5271,20600040203,Severn River-Frontal Chesapeake Bay,Anne Arundel County,MD,1
1260,SRA.SC2,,SC2,39.0085,-76.5319,20600040203,Severn River-Frontal Chesapeake Bay,Anne Arundel County,MD,1
1261,SRA.SC3,,SC3,39.0076,-76.5354,20600040203,Severn River-Frontal Chesapeake Bay,Anne Arundel County,MD,1
1262,SRA.TH,,TH,39.0077,-76.499,20600040203,Severn River-Frontal Chesapeake Bay,Anne Arundel County,MD,1
1263,SRA.VC,,VC,39.0595,-76.5766,20600040202,Round Bay-Severn River,Anne Arundel County,MD,1
1264,SRA.WC1,,WC1,38.9972,-76.5048,20600040203,Severn River-Frontal Chesapeake Bay,Anne Arundel County,MD,1
1265,SRA.WC2,,WC2,38.9934,-76.5066,20600040203,Severn River-Frontal Chesapeake Bay,Anne Arundel County,MD,1
1266,SRA.WH1,,WH1,39.0012,-76.4326,20600040203,Severn River-Frontal Chesapeake Bay,Anne Arundel County,MD,1
1267,SRA.WH2,,WH2,39.0106,-76.4345,20600040203,Severn River-Frontal Chesapeake Bay,Anne Arundel County,MD,1
1268,SRA.WH3,,WH3,39.0199,-76.4385,20600040203,Severn River-Frontal Chesapeake Bay,Anne Arundel County,MD,1
1269,SRA.WU,,WU,38.9988,-76.4965,20600040203,Severn River-Frontal Chesapeake Bay,Anne Arundel County,MD,1
1270,TUCCC.ARCTSP001,,ARCTSP001,40.90468,-78.10922,20502010505,Sixmile Run,Centre County,PA,1
1271,TUCCC.ARTISP001,,ARTISP001,40.904579999999996,-78.10922,20502010505,Sixmile Run,Centre County,PA,1
1272,TUCCC.ASAPRU002,,ASAPRU002,41.781908,-77.43301600000002,20502050302,Asaph Run,Tioga County,PA,1
1273,TUCCC.ASPARU001,,ASPARU001,41.79165,-77.44603000000002,20502050302,Asaph Run,Tioga County,PA,1
1274,TUCCC.BABBCR001,,BABBCR001,41.6851,-77.19785,20502050401,Headwaters Babb Creek,Tioga County,PA,1
1275,TUCCC.BABBCR002,,BABBCR002,41.59661,-77.29014000000002,20502050405,Long Run-Babb Creek,Tioga County,PA,1
1276,TUCCC.BABBCR003,,BABBCR003,41.64204,-77.20837,20502050401,Headwaters Babb Creek,Tioga County,PA,1
1277,TUCCC.BABBCR004,,BABBCR004,41.57292,-77.33528000000003,20502050405,Long Run-Babb Creek,Tioga County,PA,1
1278,TUCCC.BAILCR001,,BAILCR001,41.86218,-77.0121,20501040702,Bailey Creek-Mill Creek,Tioga County,PA,1
1279,TUCCC.BAILRU001,,BAILRU001,41.523567,-78.0661,20502020406,Middle First Fork Sinnemahoning Creek,Potter County,PA,1
1280,TUCCC.BAILRU002,,BAILRU002,41.512283000000004,-78.045767,20502020406,Middle First Fork Sinnemahoning Creek,Potter County,PA,1
1281,TUCCC.BALDRU002,,BALDRU002,41.793917,-77.30449200000002,20502050303,Marsh Creek,Tioga County,PA,1
1282,TUCCC.BEECRU001,,BEECRU001,41.647083,-77.96235,20502020403,Upper First Fork Sinnemahoning Creek,Potter County,PA,1
1283,TUCCC.BENNRU001,,BENNRU001,40.935392,-78.022634,20502010507,Black Moshannon Creek,Centre County,PA,1
1284,TUCCC.BERGRU001,,BERGRU001,41.48858,-78.051783,20502020406,Middle First Fork Sinnemahoning Creek,Potter County,PA,1
1285,TUCCC.BIBURU001,,BIBURU001,41.587425,-78.441636,20502020201,Elk Fork-Driftwood Branch Sinnemahoning Creek,Elk County,PA,1
1286,TUCCC.BIGRU001,,BIGRU001,41.11059,-77.733806,20502040204,Big Run,Clinton County,PA,1
1287,TUCCC.BIMCRU001,,BIMCRU001,40.8987,-78.5616,20502010309,Little Clearfield Creek,Clearfield County,PA,1
1288,TUCCC.BIMORU001,,BIMORU001,41.63195,-78.000967,20502020401,Big Moores Run,Potter County,PA,1
1289,TUCCC.BINERU001,,BINERU001,41.556395,-78.034133,20502020406,Middle First Fork Sinnemahoning Creek,Potter County,PA,1
1290,TUCCC.BIRCRU001,,BIRCRU001,41.55789,-77.951093,20502020405,East Fork Sinnemahoning Creek,Potter County,PA,1
1291,TUCCC.BLACCR002,,BLACCR002,41.55178,-77.15403,20502050503,Blacks Creek,Tioga County,PA,1
1292,TUCCC.BLACCR003,,BLACCR003,41.56593,-77.13464,20502050503,Blacks Creek,Tioga County,PA,1
1293,TUCCC.BLHOCR001,,BLHOCR001,41.56371,-77.10322099999998,20502050504,Blockhouse Creek,Tioga County,PA,1
1294,TUCCC.BLHOCR002,,BLHOCR002,41.56024,-77.10484,20502050504,Blockhouse Creek,Tioga County,PA,1
1295,TUCCC.BOONRU001,,BOONRU001,41.34913,-77.35793000000002,20502050506,Little Pine Creek,Lycoming County,PA,1
1296,TUCCC.BORIBR002,,BORIBR002,41.652817,-77.937467,20502020403,Upper First Fork Sinnemahoning Creek,Potter County,PA,1
1297,TUCCC.BOWMCR001,,BOWMCR001,41.47444,-75.986944,20501061303,Lower Bowman Creek,Wyoming County,PA,1
1298,TUCCC.BOWMCR002,,BOWMCR002,41.42556,-76.03027800000002,20501061302,Upper Bowman Creek,Wyoming County,PA,1
1299,TUCCC.BOWMCR003,,BOWMCR003,41.401109999999996,-76.098889,20501061302,Upper Bowman Creek,Wyoming County,PA,1
1300,TUCCC.BROWRU001,,BROWRU001,40.9633,-78.4913,20502010408,Curwensville Dam-West Branch Susquehanna River,Clearfield County,PA,1
1301,TUCCC.BROWRU002,,BROWRU002,40.9581,-78.4845,20502010408,Curwensville Dam-West Branch Susquehanna River,Clearfield County,PA,1
1302,TUCCC.BROWRU003,,BROWRU003,41.34255,-77.39925,20502050606,Upper Pine Bottom Run-Pine Creek,Lycoming County,PA,1
1303,TUCCC.BUCKRU001,,BUCKRU001,41.60637,-77.50523000000003,20502050602,Cedar Run,Tioga County,PA,1
1304,TUCCC.CAHOCR001,,CAHOCR001,41.809708,-77.269588,20501040601,Catlin Hollow,Tioga County,PA,1
1305,TUCCC.CALDRU001,,CALDRU001,40.9308,-78.4723,20502010309,Little Clearfield Creek,Clearfield County,PA,1
1306,TUCCC.CALECR001,,CALECR001,41.33556,-76.955278,20502060508,Lick Run-Mill Creek,Lycoming County,PA,1
1307,TUCCC.CAMPRU001,,CAMPRU001,41.576157,-77.911012,20502020405,East Fork Sinnemahoning Creek,Potter County,PA,1
1308,TUCCC.CANARU001,,CANARU001,41.782779999999995,-77.37472,20502050303,Marsh Creek,Tioga County,PA,1
1309,TUCCC.CARBRU001,,CARBRU001,41.63098,-76.64305999999998,20501060201,Little Schrader Creek-Schrader Creek,Bradford County,PA,1
1310,TUCCC.CASTCR001,,CASTCR001,42.16879,-75.89955,20501020809,Castle Creek,Broome County,NY,1
1311,TUCCC.CEDARI002,,CEDARI002,41.55525,-77.45933000000002,20502050602,Cedar Run,Tioga County,PA,1
1312,TUCCC.CEDARU001,,CEDARU001,41.58321,-77.47474,20502050602,Cedar Run,Tioga County,PA,1
1313,TUCCC.CHARCR001,,CHARCR001,41.72942000000001,-77.252637,20502050301,Charleston Creek,Tioga County,PA,1
1314,TUCCC.CHERRU001,,CHERRU001,41.36847,-76.46653,20502060801,Big Run-Muncy Creek,Sullivan County,PA,1
1315,TUCCC.COALRU001,,COALRU001,41.63369,-76.610253,20501060202,Millstone Creek-Schrader Creek,Bradford County,PA,1
1316,TUCCC.COLDST001,,COLDST001,40.89526,-78.20605,20502010504,Cold Stream,Centre County,PA,1
1317,TUCCC.COLECR001,,COLECR001,41.282697,-76.327558,20501070704,Raven Creek-Fishing Creek,Columbia County,PA,1
1318,TUCCC.COLECR002,,COLECR002,41.273162,-76.332977,20501070704,Raven Creek-Fishing Creek,Columbia County,PA,1
1319,TUCCC.CORECR001,,CORECR001,41.800567,-77.047383,20501040906,Corey Creek,Tioga County,PA,1
1320,TUCCC.CROOCR001,,CROOCR001,41.84493,-77.27932,20501040606,Middle Crooked Creek,Tioga County,PA,1
1321,TUCCC.CROOCR002,,CROOCR002,41.85919000000001,-77.30723,20501040606,Middle Crooked Creek,Tioga County,PA,1
1322,TUCCC.CUSHHO001,,CUSHHO001,41.821461,-77.708164,20502050203,Genesee Forks,Potter County,PA,1
1323,TUCCC.DAMRUN001,,DAMRUN001,41.326683,-77.354867,20502050506,Little Pine Creek,Lycoming County,PA,1
1324,TUCCC.DAMRUN002,,DAMRUN002,41.329433,-77.34446700000002,20502050506,Little Pine Creek,Lycoming County,PA,1
1325,TUCCC.DIXIRU001,,DIXIRU001,41.55859,-77.33154,20502050405,Long Run-Babb Creek,Tioga County,PA,1
1326,TUCCC.DRIFBR001,,DRIFBR001,41.508195,-78.235766,20502020207,Canoe Run-Driftwood Branch Sinnemahoning Creek,Cameron County,PA,1
1327,TUCCC.DRIFBR002,,DRIFBR002,41.581891,-78.44049100000002,20502020201,Elk Fork-Driftwood Branch Sinnemahoning Creek,Elk County,PA,1
1328,TUCCC.DRYRUN001,,DRYRUN001,41.34325,-77.654133,20502030402,Rattlesnake Run-West Branch Susquehanna River,Clinton County,PA,1
1329,TUCCC.DYKECR001,,DYKECR001,41.69343,-77.15566700000002,20502050401,Headwaters Babb Creek,Tioga County,PA,1
1330,TUCCC.EBCORU001,,EBCORU001,41.596779999999995,-78.18343,20502020101,Cowley Run,Cameron County,PA,1
1331,TUCCC.EBOWCR001,,EBOWCR001,42.16832,-76.24582,20501030409,Lower East Branch Owego Creek-Owego Creek,Tioga County,NY,1
1332,TUCCC.EBOWCR002,,EBOWCR002,42.19397,-76.20567,20501030409,Lower East Branch Owego Creek-Owego Creek,Tioga County,NY,1
1333,TUCCC.EFSICR004,,EFSICR004,41.628357,-77.86036999999997,20502020405,East Fork Sinnemahoning Creek,Potter County,PA,1
1334,TUCCC.EFSICR005,,EFSICR005,41.529465,-78.014285,20502020405,East Fork Sinnemahoning Creek,Potter County,PA,1
1335,TUCCC.ELKLRU001,,ELKLRU001,41.521832,-78.02645,20502020406,Middle First Fork Sinnemahoning Creek,Potter County,PA,1
1336,TUCCC.ELKRU001,,ELKRU001,41.380179999999996,-76.47466,20502060801,Big Run-Muncy Creek,Sullivan County,PA,1
1337,TUCCC.ELKRU002,,ELKRU002,41.84803,-77.01248000000002,20501040701,Gaffers Creek-Elk Run,Tioga County,PA,1
1338,TUCCC.ELKRU003,,ELKRU003,41.71212,-77.578533,20502050206,Elk Run,Tioga County,PA,1
1339,TUCCC.ELMIHO001,,ELMIHO001,41.62445,-78.03195,20502020403,Upper First Fork Sinnemahoning Creek,Potter County,PA,1
1340,TUCCC.ENGLRU001,,ENGLRU001,41.35423,-77.34770999999998,20502050506,Little Pine Creek,Lycoming County,PA,1
1341,TUCCC.ENGLRU002,,ENGLRU002,41.44385,-77.29762,20502050506,Little Pine Creek,Lycoming County,PA,1
1342,TUCCC.FAHNRU001,,FAHNRU001,41.57997,-77.47319,20502050602,Cedar Run,Tioga County,PA,1
1343,TUCCC.FALLCR001,,FALLCR001,41.64132,-76.593672,20501060202,Millstone Creek-Schrader Creek,Bradford County,PA,1
1344,TUCCC.FFSICR002,,FFSICR002,41.4511,-78.04666999999998,20502020406,Middle First Fork Sinnemahoning Creek,Cameron County,PA,1
1345,TUCCC.FIBIFO001,,FIBIFO001,41.40055,-77.49464,20502050605,Trout Run,Lycoming County,PA,1
1346,TUCCC.FISHCR002,,FISHCR002,41.267348,-76.38004699999998,20501070704,Raven Creek-Fishing Creek,Columbia County,PA,1
1347,TUCCC.FISHCR003,,FISHCR003,41.27486500000001,-76.37773,20501070704,Raven Creek-Fishing Creek,Columbia County,PA,1
1348,TUCCC.FLICKRU001,,FLICKRU001,41.48153,-77.21131,20502050504,Blockhouse Creek,Lycoming County,PA,1
1349,TUCCC.FRANBR001,,FRANBR001,41.54952,-77.55795,20502050603,Slate Run,Tioga County,PA,1
1350,TUCCC.FREERU001,,FREERU001,41.60057000000001,-78.06433299999998,20502020404,Freeman Run,Potter County,PA,1
1351,TUCCC.FRPORU001,,FRPORU001,40.9238,-78.4836,20502010309,Little Clearfield Creek,Clearfield County,PA,1
1352,TUCCC.GAMBRU001,,GAMBRU001,41.24138,-77.33651,20502050607,Furnace Run-Pine Creek,Lycoming County,PA,1
1353,TUCCC.GARRRU001,,GARRRU001,40.9532,-78.4888,20502010408,Curwensville Dam-West Branch Susquehanna River,Clearfield County,PA,1
1354,TUCCC.GAZZRU001,,GAZZRU001,40.89132,-78.58166,20502010309,Little Clearfield Creek,Clearfield County,PA,1
1355,TUCCC.GENEFO001,,GENEFO001,41.8236,-77.7024,20502050203,Genesee Forks,Potter County,PA,1
1356,TUCCC.GENEFO002,,GENEFO002,41.827279,-77.706149,20502050203,Genesee Forks,Potter County,PA,1
1357,TUCCC.GLRICR001,,GLRICR001,40.9364,-78.4632,20502010309,Little Clearfield Creek,Clearfield County,PA,1
1358,TUCCC.HAWKRU002,,HAWKRU002,41.5731,-76.86997,20502060203,Rock Run,Lycoming County,PA,1
1359,TUCCC.HAYERU001,,HAYERU001,41.105418,-77.758962,20502040205,Beech Creek,Centre County,PA,1
1360,TUCCC.HEISRU001,,HEISRU001,41.75663,-77.3503,20502050303,Marsh Creek,Tioga County,PA,1
1361,TUCCC.HILLCR001,,HILLCR001,41.85645,-77.22526500000002,20501040605,Hills Creek,Tioga County,PA,1
1362,TUCCC.HOBARU001,,HOBARU001,40.9531,-78.4892,20502010408,Curwensville Dam-West Branch Susquehanna River,Clearfield County,PA,1
1363,TUCCC.HOOTRU001,,HOOTRU001,40.8967,-78.5531,20502010309,Little Clearfield Creek,Clearfield County,PA,1
1364,TUCCC.HORTRU001,,HORTRU001,41.616098,-77.874827,20502020405,East Fork Sinnemahoning Creek,Potter County,PA,1
1365,TUCCC.HUNTCR001,,HUNTCR001,41.33417,-76.142778,20501070501,Headwaters Huntington Creek,Luzerne County,PA,1
1366,TUCCC.HUNTRU001,,HUNTRU001,41.45268,-78.1744,20502020205,Hunts Run,Cameron County,PA,1
1367,TUCCC.HUNTRU002,,HUNTRU002,41.502896,-78.125208,20502020205,Hunts Run,Cameron County,PA,1
1368,TUCCC.HUNTRU003,,HUNTRU003,41.47377,-78.15105,20502020205,Hunts Run,Cameron County,PA,1
1369,TUCCC.JAMIRU001,,JAMIRU001,41.58625,-77.900065,20502020405,East Fork Sinnemahoning Creek,Potter County,PA,1
1370,TUCCC.JEMICR001,,JEMICR001,41.87222,-77.49221999999997,20501040804,Jemison Creek,Tioga County,PA,1
1371,TUCCC.JEMICR002,,JEMICR002,41.86802,-77.48841999999998,20501040804,Jemison Creek,Tioga County,PA,1
1372,TUCCC.JOHNBR001,,JOHNBR001,41.74325,-77.62094,20502050204,Johnson Brook-Pine Creek,Potter County,PA,1
1373,TUCCC.KELSCR001,,KELSCR001,41.7285,-77.321652,20502050301,Charleston Creek,Tioga County,PA,1
1374,TUCCC.KENDCR001,,KENDCR001,41.963879999999996,-76.61972,20501050607,Dry Brook-Chemung River,Bradford County,PA,1
1375,TUCCC.LALIRU001,,LALIRU001,40.56722,-78.692778,20502010101,Upper Chest Creek,Cambria County,PA,1
1376,TUCCC.LAURRU001,,LAURRU001,40.826679999999996,-78.1111,20502040401,Laurel Run-Bald Eagle Creek,Centre County,PA,1
1377,TUCCC.LAURRU002,,LAURRU002,40.8682,-78.4241,20502010308,Lower Clearfield Creek,Clearfield County,PA,1
1378,TUCCC.LAURRU005,,LAURRU005,41.291317,-76.731433,20502060803,Gregs Run-Muncy Creek,Lycoming County,PA,1
1379,TUCCC.LEONCR001,,LEONCR001,41.375005,-75.988388,20501061301,Leonard Creek,Luzerne County,PA,1
1380,TUCCC.LEONCR002,,LEONCR002,41.413296,-76.000236,20501061301,Leonard Creek,Wyoming County,PA,1
1381,TUCCC.LICHCR001,,LICHCR001,42.13758,-75.94223000000002,20501030201,Little Choconut Creek-Susquehanna River,Broome County,NY,1
1382,TUCCC.LICKCR001,,LICKCR001,41.65857000000001,-77.15656700000002,20502050401,Headwaters Babb Creek,Tioga County,PA,1
1383,TUCCC.LICKCR002,,LICKCR002,41.653967,-77.19351800000003,20502050401,Headwaters Babb Creek,Tioga County,PA,1
1384,TUCCC.LICKRU001,,LICKRU001,41.74038,-77.53815,20502050208,Lick Run-Pine Creek,Tioga County,PA,1
1385,TUCCC.LICKRU002,,LICKRU002,41.72163,-77.53445,20502050208,Lick Run-Pine Creek,Tioga County,PA,1
1386,TUCCC.LICKRU003,,LICKRU003,41.43227,-77.2711,20502050506,Little Pine Creek,Lycoming County,PA,1
1387,TUCCC.LICLCR001,,LICLCR001,40.89428,-78.5321,20502010309,Little Clearfield Creek,Clearfield County,PA,1
1388,TUCCC.LICLCR002,,LICLCR002,40.9298,-78.4683,20502010309,Little Clearfield Creek,Clearfield County,PA,1
1389,TUCCC.LICLCR003,,LICLCR003,40.8947,-78.57741999999998,20502010309,Little Clearfield Creek,Clearfield County,PA,1
1390,TUCCC.LICLCR004,,LICLCR004,40.8967,-78.5191,20502010309,Little Clearfield Creek,Clearfield County,PA,1
1391,TUCCC.LICLCR005,,LICLCR005,40.8941,-78.5431,20502010309,Little Clearfield Creek,Clearfield County,PA,1
1392,TUCCC.LICLCR006,,LICLCR006,40.9161,-78.5051,20502010309,Little Clearfield Creek,Clearfield County,PA,1
1393,TUCCC.LICLCR007,,LICLCR007,40.9444,-78.4471,20502010309,Little Clearfield Creek,Clearfield County,PA,1
1394,TUCCC.LIDDGU001,,LIDDGU001,40.9671,-78.4865,20502010408,Curwensville Dam-West Branch Susquehanna River,Clearfield County,PA,1
1395,TUCCC.LIFACR001,,LIFACR001,41.5697,-77.20455,20502050501,Zimmerman Creek,Tioga County,PA,1
1396,TUCCC.LIISRU001,,LIISRU001,41.37281,-78.05256999999997,20502020407,Lower First Fork Sinnemahoning Creek,Cameron County,PA,1
1397,TUCCC.LIKECR002,,LIKECR002,41.58147,-77.704944,20502030101,Little Kettle Creek,Potter County,PA,1
1398,TUCCC.LIMORU001,,LIMORU001,41.642866999999995,-78.002183,20502020401,Big Moores Run,Potter County,PA,1
1399,TUCCC.LIPICR001,,LIPICR001,41.41283,-77.32124,20502050506,Little Pine Creek,Lycoming County,PA,1
1400,TUCCC.LIPICR002,,LIPICR002,41.309983,-77.362625,20502050506,Little Pine Creek,Lycoming County,PA,1
1401,TUCCC.LIPOCR001,,LIPOCR001,41.604447,-78.066728,20502020404,Freeman Run,Potter County,PA,1
1402,TUCCC.LISLRU001,,LISLRU001,41.46369,-77.505465,20502050604,Mill Run-Pine Creek,Lycoming County,PA,1
1403,TUCCC.LOGURU001,,LOGURU001,41.4646,-78.06251,20502020406,Middle First Fork Sinnemahoning Creek,Cameron County,PA,1
1404,TUCCC.LONGBO001,,LONGBO001,41.36979,-76.48708,20502060801,Big Run-Muncy Creek,Sullivan County,PA,1
1405,TUCCC.LONGRU001,,LONGRU001,41.7652,-77.561223,20502050207,Long Run,Tioga County,PA,1
1406,TUCCC.LONGRU002,,LONGRU002,41.79422,-77.5719,20502050207,Long Run,Tioga County,PA,1
1407,TUCCC.LONGRU003,,LONGRU003,41.59668,-77.28945,20502050405,Long Run-Babb Creek,Tioga County,PA,1
1408,TUCCC.LONRU001,,LONRU001,41.7652,-77.56121999999998,20502050207,Long Run,Tioga County,PA,1
1409,TUCCC.LOVERU001,,LOVERU001,41.36619,-77.35632,20502050506,Little Pine Creek,Lycoming County,PA,1
1410,TUCCC.LPBORU001,,LPBORU001,41.303779999999996,-77.39496,20502050606,Upper Pine Bottom Run-Pine Creek,Lycoming County,PA,1
1411,TUCCC.LYMARU001,,LYMARU001,41.72096,-77.77624200000002,20502050101,Lyman Run,Potter County,PA,1
1412,TUCCC.MADRU001,,MADRU001,41.85828,-77.06178,20501040703,Painter Run-Mill Creek,Tioga County,PA,1
1413,TUCCC.MANOFO001,,MANOFO001,41.512067,-77.536313,20502050603,Slate Run,Lycoming County,PA,1
1414,TUCCC.MARSCR001,,MARSCR001,41.425676,-75.95626899999998,20501061303,Lower Bowman Creek,Wyoming County,PA,1
1415,TUCCC.MCKIBR002,,MCKIBR002,41.46429000000001,-78.17316,20502020205,Hunts Run,Cameron County,PA,1
1416,TUCCC.MCNERU001,,MCNERU001,40.87207,-78.57165,20502010309,Little Clearfield Creek,Clearfield County,PA,1
1417,TUCCC.MIHORU001,,MIHORU001,41.55552,-77.45843,20502050602,Cedar Run,Tioga County,PA,1
1418,TUCCC.MILCR009,,MILCR009,41.38359000000001,-76.97856,20502060508,Lick Run-Mill Creek,Lycoming County,PA,1
1419,TUCCC.MILLCR006,,MILLCR006,41.8587,-77.05975,20501040703,Painter Run-Mill Creek,Tioga County,PA,1
1420,TUCCC.MILLCR009,,MILLCR009,41.38359000000001,-76.978561,20502060508,Lick Run-Mill Creek,Lycoming County,PA,1
1421,TUCCC.MILLCR011,,MILLCR011,41.436695,-75.92287900000002,20501061409,Obendoffers Creek-Susquehanna River,Wyoming County,PA,1
1422,TUCCC.MILLRU002,,MILLRU002,41.40472000000001,-77.46471,20502050604,Mill Run-Pine Creek,Lycoming County,PA,1
1423,TUCCC.MILLRU003,,MILLRU003,41.752793,-77.503293,20502050208,Lick Run-Pine Creek,Tioga County,PA,1
1424,TUCCC.MITCHO001,,MITCHO001,40.9394,-78.4549,20502010309,Little Clearfield Creek,Clearfield County,PA,1
1425,TUCCC.MONTRU001,,MONTRU001,41.30661,-78.01671999999998,20502020502,Grove Run-Sinnemahoning Creek,Clinton County,PA,1
1426,TUCCC.MORRBR001,,MORRBR001,41.725229999999996,-77.288191,20502050301,Charleston Creek,Tioga County,PA,1
1427,TUCCC.MUDRU001,,MUDRU001,40.996666999999995,-75.96722199999998,20501070402,Black Creek,Luzerne County,PA,1
1428,TUCCC.MUNCCR001,,MUNCCR001,41.37435,-76.46644,20502060801,Big Run-Muncy Creek,Sullivan County,PA,1
1429,TUCCC.MUNCCR002,,MUNCCR002,41.36753,-76.49158,20502060801,Big Run-Muncy Creek,Sullivan County,PA,1
1430,TUCCC.NANTCR001,,NANTCR001,42.21541,-76.03917,20501030104,Middle Nanticoke Creek,Broome County,NY,1
1431,TUCCC.NAVARU001,,NAVARU001,41.458082,-77.516483,20502050604,Mill Run-Pine Creek,Lycoming County,PA,1
1432,TUCCC.NBLARU001,,NBLARU001,40.2626,-77.491917,20503050105,Laurel Run,Perry County,PA,1
1433,TUCCC.NBRORU001,,NBRORU001,41.56821,-76.83100999999998,20502060203,Rock Run,Lycoming County,PA,1
1434,TUCCC.NICKRU001,,NICKRU001,41.63326,-77.04382,20501040904,Upper Tioga River,Tioga County,PA,1
1435,TUCCC.NIMIRU001,,NIMIRU001,41.791875,-77.76276899999998,20502050201,Ninemile Run,Potter County,PA,1
1436,TUCCC.NOCARU001,,NOCARU001,40.78875,-78.66919,20502010103,Lower Chest Creek,Clearfield County,PA,1
1437,TUCCC.Nanticoke Creek,,Nanticoke Creek,42.21541,-76.03917,20501030104,Middle Nanticoke Creek,Broome County,NY,1
1438,TUCCC.OLFARU001,,OLFARU001,40.8901,-78.5551,20502010309,Little Clearfield Creek,Clearfield County,PA,1
1439,TUCCC.OTTERU001,,OTTERU001,41.40702,-77.33465,20502050505,Otter Run,Lycoming County,PA,1
1440,TUCCC.OTTFOR001,,OTTFOR001,41.31795,-77.41553,20502050606,Upper Pine Bottom Run-Pine Creek,Lycoming County,PA,1
1441,TUCCC.OWEGCR001,,OWEGCR001,42.1269,-76.27025,20501030409,Lower East Branch Owego Creek-Owego Creek,Tioga County,NY,1
1442,TUCCC.PACKRU001,,PACKRU001,41.494170000000004,-77.15048,20502050504,Blockhouse Creek,Lycoming County,PA,1
1443,TUCCC.PAINRU001,,PAINRU001,41.86603,-77.053516,20501040703,Painter Run-Mill Creek,Tioga County,PA,1
1444,TUCCC.PAINRU002,,PAINRU002,41.879059999999996,-77.04381,20501040703,Painter Run-Mill Creek,Tioga County,PA,1
1445,TUCCC.PAINRU003,,PAINRU003,41.74574000000001,-77.49271,20502050208,Lick Run-Pine Creek,Tioga County,PA,1
1446,TUCCC.PHOERU001,,PHOERU001,41.77158,-77.6116,20502050205,Phoenix Run,Potter County,PA,1
1447,TUCCC.PINCECR006,,PINCECR006,41.55621,-77.38228000000002,20502050601,Trout Run-Pine Creek,Tioga County,PA,1
1448,TUCCC.PINECR004,,PINECR004,41.8141,-77.7809,20502050202,Headwaters Pine Creek,Potter County,PA,1
1449,TUCCC.PINECR005,,PINECR005,41.18027,-77.27837,20502050607,Furnace Run-Pine Creek,Clinton County,PA,1
1450,TUCCC.PINECR007,,PINECR007,41.790246999999994,-77.76122600000002,20502050202,Headwaters Pine Creek,Potter County,PA,1
1451,TUCCC.PINECR008,,PINECR008,41.471362,-77.502809,20502050604,Mill Run-Pine Creek,Lycoming County,PA,1
1452,TUCCC.PINERU001,,PINERU001,40.7633,-78.650473,20502010103,Lower Chest Creek,Clearfield County,PA,1
1453,TUCCC.PROURU002,,PROURU002,41.65275,-77.93745,20502020403,Upper First Fork Sinnemahoning Creek,Potter County,PA,1
1454,TUCCC.RAMSRU001,,RAMSRU001,41.28467,-77.32413000000003,20502050607,Furnace Run-Pine Creek,Lycoming County,PA,1
1455,TUCCC.RBFMRU001,,RBFMRU001,41.70512,-77.48491,20502050601,Trout Run-Pine Creek,Tioga County,PA,1
1456,TUCCC.ROARRU001,,ROARRU001,41.289817,-76.708483,20502060803,Gregs Run-Muncy Creek,Lycoming County,PA,1
1457,TUCCC.SALTRU001,,SALTRU001,41.533977,-78.195171,20502020102,Sinnemahoning Portage Creek-Driftwood Branch Sinnemahoning Creek,Cameron County,PA,1
1458,TUCCC.SALTRU002,,SALTRU002,41.5236,-78.21419,20502020102,Sinnemahoning Portage Creek-Driftwood Branch Sinnemahoning Creek,Cameron County,PA,1
1459,TUCCC.SANDRU002,,SANDRU002,41.68398,-77.15475,20502050401,Headwaters Babb Creek,Tioga County,PA,1
1460,TUCCC.SANDRU003,,SANDRU003,41.661359000000004,-77.194348,20502050401,Headwaters Babb Creek,Tioga County,PA,1
1461,TUCCC.SBLARU001,,SBLARU001,40.26185,-77.489133,20503050105,Laurel Run,Perry County,PA,1
1462,TUCCC.SBRORU001,,SBRORU001,41.54502,-76.81255999999998,20502060203,Rock Run,Lycoming County,PA,1
1463,TUCCC.SBRORU003,,SBRORU003,41.54653,-76.8281,20502060203,Rock Run,Lycoming County,PA,1
1464,TUCCC.SCHOHO001,,SCHOHO001,41.39542,-77.34731,20502050506,Little Pine Creek,Lycoming County,PA,1
1465,TUCCC.SEBIFO001,,SEBIFO001,41.40119,-77.50041,20502050605,Trout Run,Lycoming County,PA,1
1466,TUCCC.SHAERU001,,SHAERU001,40.27395,-77.543033,20503050102,Bull Run,Perry County,PA,1
1467,TUCCC.SHAMRU001,,SHAMRU001,40.9009,-78.5717,20502010309,Little Clearfield Creek,Clearfield County,PA,1
1468,TUCCC.SIMERU001,,SIMERU001,40.929005,-78.281017,20502010503,Laurel Run,Clearfield County,PA,1
1469,TUCCC.SIMIRU001,,SIMIRU001,40.94253,-78.12451,20502010505,Sixmile Run,Centre County,PA,1
1470,TUCCC.SIPOCR001,,SIPOCR001,41.513077,-78.21967,20502020102,Sinnemahoning Portage Creek-Driftwood Branch Sinnemahoning Creek,Cameron County,PA,1
1471,TUCCC.SLATRU001,,SLATRU001,41.525047,-77.53107299999998,20502050603,Slate Run,Lycoming County,PA,1
1472,TUCCC.SLATRU002,,SLATRU002,41.471524,-77.505574,20502050603,Slate Run,Lycoming County,PA,1
1473,TUCCC.SNYDRU001,,SNYDRU001,40.86374,-78.71089,20502010103,Lower Chest Creek,Clearfield County,PA,1
1474,TUCCC.SNYDRU002,,SNYDRU002,40.79468,-78.68051700000002,20502010103,Lower Chest Creek,Clearfield County,PA,1
1475,TUCCC.SOWOBR001,,SOWOBR001,41.637767,-78.053217,20502020402,South Woods Branch,Potter County,PA,1
1476,TUCCC.SPRIRU001,,SPRIRU001,40.78597,-78.68095,20502010103,Lower Chest Creek,Clearfield County,PA,1
1477,TUCCC.STAFFRU001,,STAFFRU001,40.9474,-78.4386,20502010309,Little Clearfield Creek,Clearfield County,PA,1
1478,TUCCC.STERRU001,,STERRU001,41.41382,-78.19929,20502020206,Sterling Run,Cameron County,PA,1
1479,TUCCC.STMIBR001,,STMIBR001,41.481817,-78.175283,20502020205,Hunts Run,Cameron County,PA,1
1480,TUCCC.STONFO001,,STONFO001,41.70917,-77.30778000000002,20502050402,Wilson Creek,Tioga County,PA,1
1481,TUCCC.STONRU003,,STONRU003,41.595067,-77.899812,20502020405,East Fork Sinnemahoning Creek,Potter County,PA,1
1482,TUCCC.STRARU001,,STRARU001,41.77722,-77.39611,20502050303,Marsh Creek,Tioga County,PA,1
1483,TUCCC.SUGARU002,,SUGARU002,41.62758,-76.62495899999998,20501060202,Millstone Creek-Schrader Creek,Bradford County,PA,1
1484,TUCCC.SUGARU003,,SUGARU003,41.34657,-76.970598,20502060508,Lick Run-Mill Creek,Lycoming County,PA,1
1485,TUCCC.SUNKBR001,,SUNKBR001,41.68225200000001,-77.79463299999998,20502050102,Wetmore Run-West Branch Pine Creek,Potter County,PA,1
1486,TUCCC.TANNHO001,,TANNHO001,41.4194,-78.2264,20502020206,Sterling Run,Cameron County,PA,1
1487,TUCCC.TAYLRU001,,TAYLRU001,41.64097,-77.04496999999998,20501040904,Upper Tioga River,Tioga County,PA,1
1488,TUCCC.TROURU003,,TROURU003,41.39996,-77.46183,20502050606,Upper Pine Bottom Run-Pine Creek,Lycoming County,PA,1
1489,TUCCC.TUCKRU001,,TUCKRU001,40.83895,-78.67949899999998,20502010103,Lower Chest Creek,Clearfield County,PA,1
1490,TUCCC.UNSTFO001,,UNSTFO001,41.6556,-77.3693,20502050403,East Branch Stony Fork,Tioga County,PA,1
1491,TUCCC.UPBORU001,,UPBORU001,41.318501,-77.414284,20502050606,Upper Pine Bottom Run-Pine Creek,Lycoming County,PA,1
1492,TUCCC.UPKECR001,,UPKECR001,41.558944,-77.681556,20502030102,Upper Kettle Creek,Potter County,PA,1
1493,TUCCC.UTCHCR001,,UTCHCR001,41.802128,-77.265121,20501040601,Catlin Hollow,Tioga County,PA,1
1494,TUCCC.UTCHCR002,,UTCHCR002,41.79674,-77.26342700000002,20501040601,Catlin Hollow,Tioga County,PA,1
1495,TUCCC.UTLACR001,,UTLACR001,41.821368,-77.136349,20501040907,Middle Tioga River,Tioga County,PA,1
1496,TUCCC.UTLACR002,,UTLACR002,41.82129000000001,-77.13665999999998,20501040907,Middle Tioga River,Tioga County,PA,1
1497,TUCCC.UTRORU001,,UTRORU001,41.548428,-76.832964,20502060203,Rock Run,Lycoming County,PA,1
1498,TUCCC.UTRORU002,,UTRORU002,41.548421999999995,-76.834036,20502060203,Rock Run,Lycoming County,PA,1
1499,TUCCC.UTTRRU001,,UTTRRU001,41.39933,-77.47693000000002,20502050605,Trout Run,Lycoming County,PA,1
1500,TUCCC.WALLRU001,,WALLRU001,40.9587,-78.4297,20502010309,Little Clearfield Creek,Clearfield County,PA,1
1501,TUCCC.WALLRU002,,WALLRU002,40.94715,-77.82855,20502040403,Wallace Run,Centre County,PA,1
1502,TUCCC.WATTCR001,,WATTCR001,40.8947,-78.5817,20502010309,Little Clearfield Creek,Clearfield County,PA,1
1503,TUCCC.WBCORU001,,WBCORU001,41.598638,-78.18568,20502020101,Cowley Run,Cameron County,PA,1
1504,TUCCC.WBFRRU001,,WBFRRU001,41.634237,-78.10305,20502020404,Freeman Run,Potter County,PA,1
1505,TUCCC.WBLARI002,,WBLARI002,41.787251,-75.49991,20501070101,West Branch Lackawanna River,Susquehanna County,PA,1
1506,TUCCC.WBLARI02,,WBLARI02,41.787251,-75.49991,20501070101,West Branch Lackawanna River,Susquehanna County,PA,1
1507,TUCCC.WBOWCR001,,WBOWCR001,42.18568,-76.24733,20501030408,Lower West Branch Owego Creek,Tioga County,NY,1
1508,TUCCC.WBOWCR002,,WBOWCR002,42.23278,-76.23418000000002,20501030408,Lower West Branch Owego Creek,Tioga County,NY,1
1509,TUCCC.WBPICR001,,WBPICR001,41.73277,-77.65026,20502050102,Wetmore Run-West Branch Pine Creek,Potter County,PA,1
1510,TUCCC.WBPICR002,,WBPICR002,41.682142999999996,-77.774465,20502050102,Wetmore Run-West Branch Pine Creek,Potter County,PA,1
1511,TUCCC.WILDRU002,,WILDRU002,41.610128,-77.890917,20502020405,East Fork Sinnemahoning Creek,Potter County,PA,1
1512,TUCCC.WILSCR001,,WILSCR001,41.61417,-77.28833,20502050402,Wilson Creek,Tioga County,PA,1
1513,TUCCC.WILSONRU001,,WILSONRU001,41.35955,-78.43584,20502020307,Trout Run,Elk County,PA,1
1514,TUCCC.WILSRU002,,WILSRU002,40.82066,-78.636709,20502010103,Lower Chest Creek,Clearfield County,PA,1
1515,TUCCC.ZIMMRU001,,ZIMMRU001,41.579879999999996,-77.17777,20502050501,Zimmerman Creek,Tioga County,PA,1
1516,TUCCC.ZIMMRU002,,ZIMMRU002,41.57997,-77.17781,20502050501,Zimmerman Creek,Tioga County,PA,1
1517,TUPMP.BACKCR001,,BACKCR001,37.980752,-78.953412,20700050703,Inch Branch-Back Creek,Augusta County,VA,1
1518,TUPMP.BACKCR002,,BACKCR002,37.966452000000004,-78.955626,20700050703,Inch Branch-Back Creek,Augusta County,VA,1
1519,TUPMP.BACKCR003,,BACKCR003,37.929987,-78.979478,20700050703,Inch Branch-Back Creek,Augusta County,VA,1
1520,TUPMP.BACKCR004,,BACKCR004,37.9205,-78.9879,20700050703,Inch Branch-Back Creek,Augusta County,VA,1
1521,TUPMP.BACKCR005,,BACKCR005,37.944862,-78.964713,20700050703,Inch Branch-Back Creek,Augusta County,VA,1
1522,TUPMP.BIGRUN001,,BIGRUN001,39.549374,-79.14497800000002,20700020103,Lower Savage River,Garrett County,MD,1
1523,TUPMP.BRALBR001,,BRALBR001,38.278172999999995,-79.297023,20802020101,Chair Draft-Calfpasture River,Augusta County,VA,1
1524,TUPMP.BRIEBR001,,BRIEBR001,38.440201,-79.136333,20700050403,Briery Branch,Rockingham County,VA,1
1525,TUPMP.BRIEBR002,,BRIEBR002,38.44627,-79.105538,20700050403,Briery Branch,Rockingham County,VA,1
1526,TUPMP.BROADR001,,BROADR001,38.27618,-79.31866,20802020101,Chair Draft-Calfpasture River,Augusta County,VA,1
1527,TUPMP.BROADR002,,BROADR002,38.28307,-79.32193000000002,20802020101,Chair Draft-Calfpasture River,Augusta County,VA,1
1528,TUPMP.BRUSRU001,,BRUSRU001,38.84138,-79.41505,20700010105,Outlet Seneca Creek,Pendleton County,WV,1
1529,TUPMP.CALFRI001,,CALFRI001,37.949615,-79.460144,20802020108,Guys Run-Calfpasture River,Rockbridge County,VA,1
1530,TUPMP.CALFRI002,,CALFRI002,38.27945,-79.29465,20802020101,Chair Draft-Calfpasture River,Augusta County,VA,1
1531,TUPMP.CALFRI003,,CALFRI003,38.279416999999995,-79.293817,20802020101,Chair Draft-Calfpasture River,Augusta County,VA,1
1532,TUPMP.CALFRI004,,CALFRI004,38.2305,-79.3447,20802020103,Holloway Draft-Calfpasture River,Augusta County,VA,1
1533,TUPMP.CALFRI005,,CALFRI005,38.2238,-79.3606,20802020103,Holloway Draft-Calfpasture River,Augusta County,VA,1
1534,TUPMP.CALFRI006,,CALFRI006,38.2103,-79.3684,20802020103,Holloway Draft-Calfpasture River,Augusta County,VA,1
1535,TUPMP.CARIDR001,,CARIDR001,38.29335,-79.23998,20700050103,Jennings Branch,Augusta County,VA,1
1536,TUPMP.CLMICR001,,CLMICR001,38.138366999999995,-79.430133,20802020105,Fridley Branch-Calfpasture River,Augusta County,VA,1
1537,TUPMP.COONHO001,,COONHO001,37.719205,-78.776884,20802031003,Beaver Creek-Rockfish River,Nelson County,VA,1
1538,TUPMP.COWPRI001,,COWPRI001,37.97,-79.67,20802010801,Mill Creek-Cowpasture River,Bath County,VA,1
1539,TUPMP.COWPRI002,,COWPRI002,38.2891,-79.45862,20802010601,Wolfe Draft-Cowpasture River,Highland County,VA,1
1540,TUPMP.CRABRU001,,CRABRU001,38.785183,-78.95138299999998,20700060102,Crab Run,Rockingham County,VA,1
1541,TUPMP.CRAICR002,,CRAICR002,37.315154,-80.39484,20802011001,Trout Creek-Craig Creek,Montgomery County,VA,1
1542,TUPMP.CRAICR003,,CRAICR003,37.308483,-80.420767,20802011001,Trout Creek-Craig Creek,Montgomery County,VA,1
1543,TUPMP.CRAICR004,,CRAICR004,37.315222,-80.40141700000002,20802011001,Trout Creek-Craig Creek,Montgomery County,VA,1
1544,TUPMP.DAVICR002,,DAVICR002,37.830574,-78.848191,20802030903,Buck Creek-Rockfish River,Nelson County,VA,1
1545,TUPMP.DAVICR003,,DAVICR003,37.835674,-78.835211,20802030903,Buck Creek-Rockfish River,Nelson County,VA,1
1546,TUPMP.DRYRIV001,,DRYRIV001,38.569886,-79.095235,20700050501,Skidmore Fork-Dry River,Rockingham County,VA,1
1547,TUPMP.DUTCCR001,,DUTCCR001,37.759823,-78.795307,20802031002,Dutch Creek-Rockfish River,Nelson County,VA,1
1548,TUPMP.DUTCCR002,,DUTCCR002,37.763128,-78.785505,20802031002,Dutch Creek-Rockfish River,Nelson County,VA,1
1549,TUPMP.EADRBR001,,EADRBR001,38.20305,-79.25378,20700050102,Buffalo Branch-Middle River,Augusta County,VA,1
1550,TUPMP.FALLRU002,,FALLRU002,37.790524,-78.79678299999998,20802031002,Dutch Creek-Rockfish River,Nelson County,VA,1
1551,TUPMP.FALLRU003,,FALLRU003,37.777397,-78.794247,20802031002,Dutch Creek-Rockfish River,Nelson County,VA,1
1552,TUPMP.FENTCR001,,FENTCR001,37.900652,-78.972298,20802030902,South Fork Rockfish River,Nelson County,VA,1
1553,TUPMP.GOODCR002,,GOODCR002,37.97616,-78.86233,20802030901,North Fork Rockfish River,Nelson County,VA,1
1554,TUPMP.GULLCR001,,GULLCR001,37.861389,-78.861944,20802030903,Buck Creek-Rockfish River,Nelson County,VA,1
1555,TUPMP.HAMIBR001,,HAMIBR001,38.19035,-79.42254,20802020104,Hamilton Branch,Augusta County,VA,1
1556,TUPMP.HAMIBR002,,HAMIBR002,38.18525,-79.39461999999997,20802020104,Hamilton Branch,Augusta County,VA,1
1557,TUPMP.HODGDR001,,HODGDR001,38.27493,-79.38364,20802020103,Holloway Draft-Calfpasture River,Augusta County,VA,1
1558,TUPMP.HODGDR002,,HODGDR002,38.26031,-79.37106,20802020103,Holloway Draft-Calfpasture River,Augusta County,VA,1
1559,TUPMP.HODGDR003,,HODGDR003,38.23334000000001,-79.34763000000002,20802020103,Holloway Draft-Calfpasture River,Augusta County,VA,1
1560,TUPMP.HOQURU001,,HOQURU001,38.473396,-79.146968,20700050403,Briery Branch,Rockingham County,VA,1
1561,TUPMP.HORSRU001,,HORSRU001,38.86398,-79.45479,20700010104,Headwaters Seneca Creek,Pendleton County,WV,1
1562,TUPMP.JAMERI001,,JAMERI001,37.687656,-78.692628,20802030804,Sycamore Creek-James River,Buckingham County,VA,1
1563,TUPMP.JAMERI002,,JAMERI002,37.636111,-78.7201,20802030803,Mallorys Creek-James River,Nelson County,VA,1
1564,TUPMP.JENNBR001,,JENNBR001,38.2751,-79.1991,20700050103,Jennings Branch,Augusta County,VA,1
1565,TUPMP.JENNBR002,,JENNBR002,38.220944,-79.14420600000003,20700050103,Jennings Branch,Augusta County,VA,1
1566,TUPMP.JERKBR001,,JERKBR001,38.169059999999995,-79.46398,20802020104,Hamilton Branch,Augusta County,VA,1
1567,TUPMP.KENNCR001,,KENNCR001,37.971389,-79.009722,20700050702,Canada Run-South River,Augusta County,VA,1
1568,TUPMP.KEPHRU001,,KEPHRU001,38.54702800000001,-79.06519300000002,20700050502,Black Run-Dry River,Rockingham County,VA,1
1569,TUPMP.LICARI001,,LICARI001,37.949688,-79.459572,20802020202,Lower Little Calfpasture River,Rockbridge County,VA,1
1570,TUPMP.LICECR001,,LICECR001,37.58885,-79.29205,20802030202,Browns Creek-Pedlar River,Amherst County,VA,1
1571,TUPMP.LIDRRI001,,LIDRRI001,38.661365999999994,-78.92325,20700060104,Little Dry River,Rockingham County,VA,1
1572,TUPMP.LIMACR001,,LIMACR001,37.881370000000004,-78.91967,20802030902,South Fork Rockfish River,Nelson County,VA,1
1573,TUPMP.LITTRI001,,LITTRI001,38.364567,-79.161917,20700050402,Little River,Augusta County,VA,1
1574,TUPMP.LIVARU001,,LIVARU001,38.197188,-79.68974,20802010102,Bolar Run-Jackson River,Bath County,VA,1
1575,TUPMP.LIVARU002,,LIVARU002,38.194288,-79.692486,20802010102,Bolar Run-Jackson River,Bath County,VA,1
1576,TUPMP.LIWIRI001,,LIWIRI001,37.4111,-78.4125,20802050203,Little Willis River,Cumberland County,VA,1
1577,TUPMP.LOSTRI001,,LOSTRI001,39.0648,-78.65503299999997,20700030505,Three Springs Run-Lost River,Hardy County,WV,1
1578,TUPMP.MARSRU001,,MARSRU001,38.684433,-78.934533,20700060103,Capon Run-North Fork Shenandoah River,Rockingham County,VA,1
1579,TUPMP.MATTCR002,,MATTCR002,37.5694,-78.6595,20802031302,Meadow Creek-North River,Buckingham County,VA,1
1580,TUPMP.MAYOCR001,,MAYOCR001,37.674833,-78.733717,20802030804,Sycamore Creek-James River,Nelson County,VA,1
1581,TUPMP.MAYOCR002,,MAYOCR002,37.661967,-78.71965,20802030804,Sycamore Creek-James River,Nelson County,VA,1
1582,TUPMP.MFCRCR001,,MFCRCR001,39.512917,-79.1545,20700020103,Lower Savage River,Garrett County,MD,1
1583,TUPMP.MIDDRI001,,MIDDRI001,38.20549000000001,-79.13815,20700050102,Buffalo Branch-Middle River,Augusta County,VA,1
1584,TUPMP.MIDDRI002,,MIDDRI002,38.204609999999995,-79.14644,20700050102,Buffalo Branch-Middle River,Augusta County,VA,1
1585,TUPMP.MILLCR002,,MILLCR002,38.004314,-79.53656,20802020106,Cabin Creek-Mill Creek,Bath County,VA,1
1586,TUPMP.MILLCR003,,MILLCR003,37.971351,-78.96435100000002,20700050703,Inch Branch-Back Creek,Augusta County,VA,1
1587,TUPMP.MILLCR004,,MILLCR004,38.068529999999996,-79.52718,20802020106,Cabin Creek-Mill Creek,Bath County,VA,1
1588,TUPMP.MILLCR005,,MILLCR005,38.157959999999996,-79.47326,20802020106,Cabin Creek-Mill Creek,Bath County,VA,1
1589,TUPMP.MOORRI001,,MOORRI001,38.1293,-78.723823,20802040103,North Fork Moormans River-Moormans River,Albemarle County,VA,1
1590,TUPMP.MOORRU001,,MOORRU001,39.0958,-78.5951,20700030702,Waites Run-Cacapon River,Hardy County,WV,1
1591,TUPMP.NFPOCR001,,NFPOCR001,37.483283,-80.437078,20802010401,South Fork Potts Creek-North Fork Potts Creek,Monroe County,WV,1
1592,TUPMP.NORTRI002,,NORTRI002,38.362714000000004,-79.17141,20700050401,Skidmore Fork-North River,Augusta County,VA,1
1593,TUPMP.NORTRI003,,NORTRI003,38.334247999999995,-79.23894,20700050401,Skidmore Fork-North River,Augusta County,VA,1
1594,TUPMP.OREBCR001,,OREBCR001,37.967042,-78.956641,20700050703,Inch Branch-Back Creek,Augusta County,VA,1
1595,TUPMP.POLIRU001,,POLIRU001,39.5853,-79.093083,20700020101,Upper Savage River,Garrett County,MD,1
1596,TUPMP.RAMSDR002,,RAMSDR002,38.30791,-79.36073,20802020102,Ramseys Draft,Augusta County,VA,1
1597,TUPMP.RAMSDR003,,RAMSDR003,38.27592,-79.33541,20802020102,Ramseys Draft,Augusta County,VA,1
1598,TUPMP.RAMSDR004,,RAMSDR004,38.29134000000001,-79.34538,20802020102,Ramseys Draft,Augusta County,VA,1
1599,TUPMP.RAMSDR005,,RAMSDR005,38.24426,-79.33488,20802020102,Ramseys Draft,Augusta County,VA,1
1600,TUPMP.RAMSDR006,,RAMSDR006,38.309539,-79.359504,20802020102,Ramseys Draft,Augusta County,VA,1
1601,TUPMP.RIPLCR003,,RIPLCR003,37.597021999999996,-78.636904,20802031304,Ripley Creek-Walton Fork,Buckingham County,VA,1
1602,TUPMP.RIPLCR004,,RIPLCR004,37.585347,-78.647194,20802031304,Ripley Creek-Walton Fork,Buckingham County,VA,1
1603,TUPMP.ROARCR001,,ROARCR001,38.85047,-79.41937,20700010105,Outlet Seneca Creek,Pendleton County,WV,1
1604,TUPMP.ROCKRU001,,ROCKRU001,38.51596,-79.052801,20700050502,Black Run-Dry River,Rockingham County,VA,1
1605,TUPMP.SENECR001,,SENECR001,38.84945,-79.48680999999998,20700010104,Headwaters Seneca Creek,Pendleton County,WV,1
1606,TUPMP.SENECR002,,SENECR002,38.83485,-79.37389,20700010105,Outlet Seneca Creek,Pendleton County,WV,1
1607,TUPMP.SFRORI001,,SFRORI001,37.894617,-78.97345,20802030902,South Fork Rockfish River,Nelson County,VA,1
1608,TUPMP.SFRORI003,,SFRORI003,37.902770000000004,-78.9682,20802030902,South Fork Rockfish River,Nelson County,VA,1
1609,TUPMP.SFRORI004,,SFRORI004,37.8805,-78.8979,20802030902,South Fork Rockfish River,Nelson County,VA,1
1610,TUPMP.SFRORI005,,SFRORI005,37.8825,-78.8879,20802030902,South Fork Rockfish River,Nelson County,VA,1
1611,TUPMP.SFRORI006,,SFRORI006,37.895188,-78.973173,20802030902,South Fork Rockfish River,Nelson County,VA,1
1612,TUPMP.SHAWFO001,,SHAWFO001,38.33997,-79.38925,20802010602,Shaws Fork,Highland County,VA,1
1613,TUPMP.SHAWFO002,,SHAWFO002,38.28879000000001,-79.45846,20802010602,Shaws Fork,Highland County,VA,1
1614,TUPMP.SOUTRI001,,SOUTRI001,38.013481,-78.98915,20700050702,Canada Run-South River,Augusta County,VA,1
1615,TUPMP.SOUTRI002,,SOUTRI002,38.026184,-79.06562,20700050701,Stony Run-South River,Augusta County,VA,1
1616,TUPMP.SOUTRI003,,SOUTRI003,38.026303999999996,-79.071196,20700050701,Stony Run-South River,Augusta County,VA,1
1617,TUPMP.SPRUCR001,,SPRUCR001,37.884882,-78.89889000000002,20802030902,South Fork Rockfish River,Nelson County,VA,1
1618,TUPMP.SPRUCR002,,SPRUCR002,37.883413,-78.885806,20802030902,South Fork Rockfish River,Nelson County,VA,1
1619,TUPMP.SPRUCR003,,SPRUCR003,37.891936,-78.935109,20802030902,South Fork Rockfish River,Nelson County,VA,1
1620,TUPMP.STOUBR001,,STOUBR001,38.2886,-79.2235,20700050103,Jennings Branch,Augusta County,VA,1
1621,TUPMP.STUARU001,,STUARU001,38.09341,-79.5687,20802010704,Lick Run-Stuart Run,Bath County,VA,1
1622,TUPMP.STUARU002,,STUARU002,38.0831,-79.57368000000002,20802010704,Lick Run-Stuart Run,Bath County,VA,1
1623,TUPMP.STUARU003,,STUARU003,38.083213,-79.574201,20802010704,Lick Run-Stuart Run,Bath County,VA,1
1624,TUPMP.SYCACR002,,SYCACR002,37.640907,-78.691147,20802030804,Sycamore Creek-James River,Buckingham County,VA,1
1625,TUPMP.TROURU001,,TROURU001,38.98885,-78.65656700000002,20700030701,Trout Run,Hardy County,WV,1
1626,TUPMP.UTBACR001,,UTBACR001,38.26918,-79.73747,20802010202,Jim Dave Run-Back Creek,Highland County,VA,1
1627,TUPMP.UTBACR002,,UTBACR002,38.26703,-79.73886,20802010202,Jim Dave Run-Back Creek,Highland County,VA,1
1628,TUPMP.UTBACR003,,UTBACR003,38.26955,-79.73185,20802010202,Jim Dave Run-Back Creek,Highland County,VA,1
1629,TUPMP.UTCRCR001,,UTCRCR001,37.314306,-80.40830600000002,20802011001,Trout Creek-Craig Creek,Montgomery County,VA,1
1630,TUPMP.UTJARI001,,UTJARI001,37.668611,-78.699167,20802030804,Sycamore Creek-James River,Buckingham County,VA,1
1631,TUPMP.UTMICR001,,UTMICR001,38.12785,-79.49928,20802020106,Cabin Creek-Mill Creek,Bath County,VA,1
1632,TUPMP.UTMICR002,,UTMICR002,38.13684,-79.49133,20802020106,Cabin Creek-Mill Creek,Bath County,VA,1
1633,TUPMP.WHEECO001,,WHEECO001,37.805409999999995,-78.805339,20802030903,Buck Creek-Rockfish River,Nelson County,VA,1
1634,TUPMP.WHEECO002,,WHEECO002,37.816531,-78.79735699999998,20802030903,Buck Creek-Rockfish River,Nelson County,VA,1
1635,TUPMP.WHITRU001,,WHITRU001,38.85014,-79.4871,20700010104,Headwaters Seneca Creek,Pendleton County,WV,1
1636,TUPMP.WHOADR001,,WHOADR001,38.284709,-79.237875,20700050103,Jennings Branch,Augusta County,VA,1
1637,TUPMP.WHOADR002,,WHOADR002,38.28655,-79.236917,20700050103,Jennings Branch,Augusta County,VA,1
1638,TUPMP.WHOADR003,,WHOADR003,38.29327,-79.23459,20700050103,Jennings Branch,Augusta County,VA,1
1639,TUPMP.WHSUSP001,,WHSUSP001,38.0942,-79.56992,20802010704,Lick Run-Stuart Run,Bath County,VA,1
1640,TUPMP.WILLRI001,,WILLRI001,37.4281,-78.4321,20802050202,Whispering Creek-Willis River,Buckingham County,VA,1
1641,TUPMP.WILLRI002,,WILLRI002,37.4291,-78.4541,20802050202,Whispering Creek-Willis River,Buckingham County,VA,1
1642,USNADC.HICRUN1,,HICRUN1,38.91247,-76.96569000000002,20700100204,Lower Anacostia River,District of Columbia,DC,1
1643,USNADC.HICRUN2,,HICRUN2,38.91468,-76.96696,20700100204,Lower Anacostia River,District of Columbia,DC,1
1644,USNADC.SPRHOURUN1,,SPRHOURUN1,38.91648,-76.96256,20700100204,Lower Anacostia River,District of Columbia,DC,1
1645,USNADC.SPRHOURUN2,,SPRHOURUN2,38.91495,-76.96328000000003,20700100204,Lower Anacostia River,District of Columbia,DC,1
1646,USNADC.SPRHOURUN3,,SPRHOURUN3,38.91317,-76.96493000000002,20700100204,Lower Anacostia River,District of Columbia,DC,1
1647,VBM.Site1,,Site1,36.90444,-76.06928,20801080201,Lynnhaven River,Virginia Beach city,VA,1
1648,VBM.Site2,,Site2,36.91438,-76.07025,20801080202,Little Creek-Frontal Chesapeake Bay,Virginia Beach city,VA,1
1649,YCST.BERCRE1.22,,BERCRE 1.22,39.999214,-76.941858,20503060303,Mud Run-Bermudian Creek,York County,PA,1
1650,YCST.CENCRE0.07,,CENCRE 0.07,39.80161500000001,-76.74096999999998,20503060601,Upper South Branch Codorus Creek,York County,PA,1
1651,YCST.CODCRE12.16,,CODCRE 12.16,39.953416,-76.733901,20503060705,Willis Run-Codorus Creek,York County,PA,1
1652,YCST.CODCRE12.39,,CODCRE 12.39,39.952884999999995,-76.73827,20503060705,Willis Run-Codorus Creek,York County,PA,1
1653,YCST.CONCRE7.04,,CONCRE 7.04,40.100063,-76.7637,20503060504,Bennett Run-Conewago Creek,York County,PA,1
1654,YCST.DEECRE38.64,,DEECRE 38.64,39.7512232,-76.640445,20503061601,Headwaters Deer Creek,York County,PA,1
1655,YCST.KRECRE8.67,,KRECRE 8.67,40.000433,-76.602183,20503061703,Kreutz Creek,York County,PA,1
1656,YCST.MILCRE0.09,,MILCRE 0.09,39.982512,-76.72231500000002,20503060706,Mill Creek,York County,PA,1
1657,YCST.PLUCRE4.26,,PLUCRE 4.26,39.789384999999996,-76.998294,20503060102,Plum Creek-South Branch Conewago Creek,York County,PA,1
1658,YCST.TYLRUN0.50,,TYLRUN 0.50,39.948313,-76.729919,20503060705,Willis Run-Codorus Creek,York County,PA,1
1659,YCST.TYLRUN1.01,,TYLRUN 1.01,39.946511,-76.721144,20503060705,Willis Run-Codorus Creek,York County,PA,1
1660,YMNA.CodorusCreekJohnRudy,,Codorus Creek S John Rudy,40.0189,-76.71028299999998,20503060707,Dee Run-Codorus Creek,York County,PA,1
1661,YMNA.CodorusCreekSpringetts,,Codorus Creek Downstream Springetts Waste,40.053933,-76.644867,20503060707,Dee Run-Codorus Creek,York County,PA,1
1662,YMNA.Kline'sRun,,Kline's Run,39.986343,-76.49718100000003,20503061704,Cabin Creek-Susquehanna River,York County,PA,1
1663,YMNA.KreutzCreekCampSecurity,,Kreutz Creek Camp Security,39.97935,-76.6464,20503061703,Kreutz Creek,York County,PA,1
1664,YMNA.KreutzCreekEmigPark,,Kreutz Creek Emig Park,40.000412,-76.60289499999998,20503061703,Kreutz Creek,York County,PA,1
1665,YMNA.KreutzCreekWindsorRd,,Kreutz Creek Windsor Road,39.951361,-76.632835,20503061703,Kreutz Creek,York County,PA,1
1666,YMNA.MillCreek83,,Mill Creek 83/30,39.9827,-76.7227,20503060706,Mill Creek,York County,PA,1
1667,YMNA.MillCreekCBW,,Mill Creek CBW,39.9517,-76.6816,20503060706,Mill Creek,York County,PA,1
1668,YMNA.TribCodorusBallField,,Tributary to Codorus Creek Ball Field,40.01185,-76.7144,20503060707,Dee Run-Codorus Creek,York County,PA,1
